ID,BUSINESS_NAME,PROPERTY_ADDRESS,CITY,STATE,COUNTRY,FULL_ADDRESS,STATUS,NOTES
4329,WELLSTREET URGENT CARE,1575 MT VERNON RD,DUNWOODY,GEORGIA,USA,"1575 MT VERNON RD DUNWOODY, GEORGIA USA",,
4333,HARD EXERCISE WORKS DUNWOODY,2480 JETT FERRY RD 500,DUNWOODY,GEORGIA,USA,"2480 JETT FERRY RD 500 DUNWOODY, GEORGIA USA",,
4334,"SLOVER, PRIETO, MARIGLIAMO &",2 RAVINIA DR 1330,DUNWOODY,GEORGIA,USA,"2 RAVINIA DR 1330 DUNWOODY, GEORGIA USA",,
4335,WORKOUT ANYTIME,4490 CHAMBLEE DUNWOODY RD 104A,DUNWOODY,GEORGIA,USA,"4490 CHAMBLEE DUNWOODY RD 104A DUNWOODY, GEORGIA USA",,
4337,MORELLIS ICE CREAM,4514 CHAMBLEE DUNWOODY RD B102,DUNWOODY,GEORGIA,USA,"4514 CHAMBLEE DUNWOODY RD B102 DUNWOODY, GEORGIA USA",,
4338,"DUNWOODY PHOTO, LLC",5500 CHAMBLEE DUNWOODY RD,DUNWOODY,GEORGIA,USA,"5500 CHAMBLEE DUNWOODY RD DUNWOODY, GEORGIA USA",,
4340,"J ALEXANDER'S RESTAURANTS, LL",4701 ASHFORD DUNWOODY RD,DUNWOODY,GEORGIA,USA,"4701 ASHFORD DUNWOODY RD DUNWOODY, GEORGIA USA",,
4342,"STEVEN MADDEN RETAIL, INC",4400 ASHFORD DUNWOODY RD 1475,DUNWOODY,GEORGIA,USA,"4400 ASHFORD DUNWOODY RD 1475 DUNWOODY, GEORGIA USA",,
4346,NEAL PRICE ELECTRIC INC.,5042 WINTERS CHAPEL RD B,DUNWOODY,GEORGIA,USA,"5042 WINTERS CHAPEL RD B DUNWOODY, GEORGIA USA",,
4347,"VON MAUR, INC",4400 ASHFORD DUNWOODY RD 1445,DUNWOODY,GEORGIA,USA,"4400 ASHFORD DUNWOODY RD 1445 DUNWOODY, GEORGIA USA",,
4348,"TRINITY SOCIAL SERVICES, LLC",1455 LINCOLN PKWY 120,DUNWOODY,GEORGIA,USA,"1455 LINCOLN PKWY 120 DUNWOODY, GEORGIA USA",,
4353,WEINGARTEN REALTY INVESTORS,4745 ASHFORD DUNWOODY RD A,DUNWOODY,GEORGIA,USA,"4745 ASHFORD DUNWOODY RD A DUNWOODY, GEORGIA USA",,
4357,POPEYES LOUISIANA KITCHEN INC,400 PERIMETER CENTER TER 1000,DUNWOODY,GEORGIA,USA,"400 PERIMETER CENTER TER 1000 DUNWOODY, GEORGIA USA",,
4363,WELLS FARGO ADVISORS,1630 MT VERNON RD 1ST,DUNWOODY,GEORGIA,USA,"1630 MT VERNON RD 1ST DUNWOODY, GEORGIA USA",,
4364,LIFELINE SMART PHONE & TABLET,4505 ASHFORD DUNWOODY RD 10,DUNWOODY,GEORGIA,USA,"4505 ASHFORD DUNWOODY RD 10 DUNWOODY, GEORGIA USA",,
4373,THYSSENKRUPP ELEVATOR,41 PERIMETER CENTER E 300,DUNWOODY,GEORGIA,USA,"41 PERIMETER CENTER E 300 DUNWOODY, GEORGIA USA",,
4380,THE THREE TINTERS,5042 WINTERS CHAPEL RD C,DUNWOODY,GEORGIA,USA,"5042 WINTERS CHAPEL RD C DUNWOODY, GEORGIA USA",,
4384,"ABB ENTERPRISE, INC",400 PERIMETER CENTER TER 500,DUNWOODY,GEORGIA,USA,"400 PERIMETER CENTER TER 500 DUNWOODY, GEORGIA USA",,
4388,"PJC HOLDINGS, LLC",47 PERIMETER CENTER E 250,DUNWOODY,GEORGIA,USA,"47 PERIMETER CENTER E 250 DUNWOODY, GEORGIA USA",,
4391,IFIX AND REPAIR,4400 ASHFORD DUNWOODY RD 1445,DUNWOODY,GEORGIA,USA,"4400 ASHFORD DUNWOODY RD 1445 DUNWOODY, GEORGIA USA",,
4408,SPRING DREAM MASSAGE,4639 N SHALLOWFORD RD B,DUNWOODY,GEORGIA,USA,"4639 N SHALLOWFORD RD B DUNWOODY, GEORGIA USA",,
4416,"ANTIBODIES ONLINE, INC",11 DUNWOODY PARK 145,DUNWOODY,GEORGIA,USA,"11 DUNWOODY PARK 145 DUNWOODY, GEORGIA USA",,
4421,"VILLAGE PODIATRY GROUP, LLC",1711 MT VERNON RD 2,DUNWOODY,GEORGIA,USA,"1711 MT VERNON RD 2 DUNWOODY, GEORGIA USA",,
4422,GURA LAW GENERAL COUNSEL SERV,5113 MEADOWCREEK DR,DUNWOODY,GEORGIA,USA,"5113 MEADOWCREEK DR DUNWOODY, GEORGIA USA",,
4423,THE MUNTZING-SATTELE CO,121 PERIMETER CENTER W 310,DUNWOODY,GEORGIA,USA,"121 PERIMETER CENTER W 310 DUNWOODY, GEORGIA USA",,
4424,SCHAFFNER PSYCHOTHERAPY SERVI,4536 BARCLAY DRIVE A,DUNWOODY,GEORGIA,USA,"4536 BARCLAY DRIVE A DUNWOODY, GEORGIA USA",,
4425,JADE NAIL SPA,4511 CHAMBLEE DUNWOODY RD A1,DUNWOODY,GEORGIA,USA,"4511 CHAMBLEE DUNWOODY RD A1 DUNWOODY, GEORGIA USA",,
4430,"SDM USAF, LLC",200 ASHFORD CENTER N 130,DUNWOODY,GEORGIA,USA,"200 ASHFORD CENTER N 130 DUNWOODY, GEORGIA USA",,
4435,"PINNACLE LOCUM TENENS, LLC",1455 LINCOLN PARKWAY 350,DUNWOODY,GEORGIA,USA,"1455 LINCOLN PARKWAY 350 DUNWOODY, GEORGIA USA",,
4437,"PAYSPAN, INC.",2 RAVINIA DR 1710,DUNWOODY,GEORGIA,USA,"2 RAVINIA DR 1710 DUNWOODY, GEORGIA USA",,
4439,BUSY BODY,4520 OLDE PERIMETER WAY 100,DUNWOODY,GEORGIA,USA,"4520 OLDE PERIMETER WAY 100 DUNWOODY, GEORGIA USA",,
4441,"POWERED THOUGHTS, LLC",303 PERIMETER CENTER N 300,DUNWOODY,GEORGIA,USA,"303 PERIMETER CENTER N 300 DUNWOODY, GEORGIA USA",,
4443,MALONE LAW OFFICE,2 RAVINIA DR 300,DUNWOODY,GEORGIA,USA,"2 RAVINIA DR 300 DUNWOODY, GEORGIA USA",,
4446,DUNWOODY ANIMAL MEDICAL CENTE,2482 JETT FERRY RD 600,DUNWOODY,GEORGIA,USA,"2482 JETT FERRY RD 600 DUNWOODY, GEORGIA USA",,
4447,INTEGRATED BEHAVIORAL SERVICE,53 PERIMETER CENTER E 350,DUNWOODY,GEORGIA,USA,"53 PERIMETER CENTER E 350 DUNWOODY, GEORGIA USA",,
4448,DATA FINCH TECHNOLOGIES,53 PERIMETER CENTER E 350,DUNWOODY,GEORGIA,USA,"53 PERIMETER CENTER E 350 DUNWOODY, GEORGIA USA",,
4452,TAGGART'S DRIVING SCHOOL,5529 CHAMBLEE DUNWOODY RD 260A,DUNWOODY,GEORGIA,USA,"5529 CHAMBLEE DUNWOODY RD 260A DUNWOODY, GEORGIA USA",,
4460,INGAUGE HEALTHCARE SOLUTIONS,5076 WINTERS CHAPEL RD,DUNWOODY,GEORGIA,USA,"5076 WINTERS CHAPEL RD DUNWOODY, GEORGIA USA",,
4463,WEALTH BUILDERS FOUNDATION EC,1200 ASHWOOD PKWY 150,DUNWOODY,GEORGIA,USA,"1200 ASHWOOD PKWY 150 DUNWOODY, GEORGIA USA",,
4466,PROPERTY GATES,10202 MADISON DRIVE,DUNWOODY,GEORGIA,USA,"10202 MADISON DRIVE DUNWOODY, GEORGIA USA",,
4467,LUXE HAIR BEAUTIQUE STUDIO,1151 HAMMOND DR 114,DUNWOODY,GEORGIA,USA,"1151 HAMMOND DR 114 DUNWOODY, GEORGIA USA",,
4469,"STERLING DESIGNS, INC",1151 HAMMOND DRIVE 200,DUNWOODY,GEORGIA,USA,"1151 HAMMOND DRIVE 200 DUNWOODY, GEORGIA USA",,
4470,ADVANCED REJUVENATION INSTITU,4488 N SHALLOWFORD RD 201,DUNWOODY,GEORGIA,USA,"4488 N SHALLOWFORD RD 201 DUNWOODY, GEORGIA USA",,
4479,ANOTHER BROKEN EGG,4745 ASHFORD DUNWOODY RD B,DUNWOODY,GEORGIA,USA,"4745 ASHFORD DUNWOODY RD B DUNWOODY, GEORGIA USA",,
4483,FOUNDRY COMMERCIAL REAL ESTAT,100 ASHFORD CENTER N,DUNWOODY,GEORGIA,USA,"100 ASHFORD CENTER N DUNWOODY, GEORGIA USA",,
4496,"1711 MT VERNON, INC",1711-A MT VERNON RD,DUNWOODY,GEORGIA,USA,"1711-A MT VERNON RD DUNWOODY, GEORGIA USA",,
4501,MARKETPRO INC,53 PERIMETER CENTER E 200,DUNWOODY,GEORGIA,USA,"53 PERIMETER CENTER E 200 DUNWOODY, GEORGIA USA",,
4502,CARERE MUSIC INC,4947 WINTERS CHAPEL RD 7-8,DUNWOODY,GEORGIA,USA,"4947 WINTERS CHAPEL RD 7-8 DUNWOODY, GEORGIA USA",,
4503,SODEXO AT STATE FARM-DUNWOODY,64 PERIMETER CENTER E,DUNWOODY,GEORGIA,USA,"64 PERIMETER CENTER E DUNWOODY, GEORGIA USA",,
4505,DIANA PAGAN HAIR DESIGN,1151 HAMMOND DR 200 128,DUNWOODY,GEORGIA,USA,"1151 HAMMOND DR 200 128 DUNWOODY, GEORGIA USA",,
4506,"NETDIMENSIONS, INC",200 ASHFORD CENTER N 336,DUNWOODY,GEORGIA,USA,"200 ASHFORD CENTER N 336 DUNWOODY, GEORGIA USA",,
4508,"OLDCASTLE, INC",900 ASHWOOD PKWY 600,DUNWOODY,GEORGIA,USA,"900 ASHWOOD PKWY 600 DUNWOODY, GEORGIA USA",,
4509,"OLDCASTLE ARCHITECTURAL, INC",900 ASHWOOD PKWY 600,DUNWOODY,GEORGIA,USA,"900 ASHWOOD PKWY 600 DUNWOODY, GEORGIA USA",,
4510,"OLDCASTLE LAWN & GARDEN, INC",900 ASHWOOD PKWY 600,DUNWOODY,GEORGIA,USA,"900 ASHWOOD PKWY 600 DUNWOODY, GEORGIA USA",,
4514,ENVIOUS CURLS SALON,1151 HAMMOND DR 200 116,DUNWOODY,GEORGIA,USA,"1151 HAMMOND DR 200 116 DUNWOODY, GEORGIA USA",,
4515,"RIGHT CHANGES, LLC",400 PERIMETER CENTER N 900,DUNWOODY,GEORGIA,USA,"400 PERIMETER CENTER N 900 DUNWOODY, GEORGIA USA",,
4516,DUNWOODY FAMILY & COSMETIC DE,1816 INDEPENDENCE SQ B,DUNWOODY,GEORGIA,USA,"1816 INDEPENDENCE SQ B DUNWOODY, GEORGIA USA",,
4520,GREAT AMERICAN COOKIES,4400 ASHFORD DUNWOODY RD 1430,DUNWOODY,GEORGIA,USA,"4400 ASHFORD DUNWOODY RD 1430 DUNWOODY, GEORGIA USA",,
4523,"ELEKTA, INC",400 PERIMETER CENTER TER 50,DUNWOODY,GEORGIA,USA,"400 PERIMETER CENTER TER 50 DUNWOODY, GEORGIA USA",,
4527,"NUCLEUSX, INC",2 RAVINIA DR 600,DUNWOODY,GEORGIA,USA,"2 RAVINIA DR 600 DUNWOODY, GEORGIA USA",,
4530,CARLSON WAGONLIT TRAVEL,1040 CROWN POINTE PARKWAY 750,DUNWOODY,GEORGIA,USA,"1040 CROWN POINTE PARKWAY 750 DUNWOODY, GEORGIA USA",,
4531,LIDS #6396,4400 ASHFORD DUNWOODY RD,DUNWOODY,GEORGIA,USA,"4400 ASHFORD DUNWOODY RD DUNWOODY, GEORGIA USA",,
4532,"DENTFIRST, P.C.",80 PERIMETER CENTER PL. 2700,DUNWOODY,GEORGIA,USA,"80 PERIMETER CENTER PL. 2700 DUNWOODY, GEORGIA USA",,
4536,"DELIVERY WORX, INC",3 DUNWOODY PARK 116,DUNWOODY,GEORGIA,USA,"3 DUNWOODY PARK 116 DUNWOODY, GEORGIA USA",,
4540,CALL IT SPRING,4400 ASHFORD DUNWOODY 1350,DUNWOODY,GEORGIA,USA,"4400 ASHFORD DUNWOODY 1350 DUNWOODY, GEORGIA USA",,
4543,JOHN CASABLANCAS MODELING & C,1 DUNWOODY PARK 128,DUNWOODY,GEORGIA,USA,"1 DUNWOODY PARK 128 DUNWOODY, GEORGIA USA",,
4545,CONSULATE HEALTH CARE,115 PERIMETER CENTER PL 600,DUNWOODY,GEORGIA,USA,"115 PERIMETER CENTER PL 600 DUNWOODY, GEORGIA USA",,
4549,WRIGHT CHANGE BEHAVIORAL HEAL,4470 CHAMBLEE DUNWOODY RD 430,DUNWOODY,GEORGIA,USA,"4470 CHAMBLEE DUNWOODY RD 430 DUNWOODY, GEORGIA USA",,
4550,THE BIRD,4719 ASHFORD DUNWOODY RD 202B,DUNWOODY,GEORGIA,USA,"4719 ASHFORD DUNWOODY RD 202B DUNWOODY, GEORGIA USA",,
4555,MARY VIRGINIA SALON,1151 HAMMOND DR NE 200 131,DUNWOODY,GEORGIA,USA,"1151 HAMMOND DR NE 200 131 DUNWOODY, GEORGIA USA",,
4560,CHICK FIL A,2482 JETT FERRY RD,DUNWOODY,GEORGIA,USA,"2482 JETT FERRY RD DUNWOODY, GEORGIA USA",,
4562,VANS #370,4400 ASHFORD DUNWOODY RD,DUNWOODY,GEORGIA,USA,"4400 ASHFORD DUNWOODY RD DUNWOODY, GEORGIA USA",,
4570,STARCON ENGINEERING & CONSTRU,4675 N. SHALLOWFORD RD 209,DUNWOODY,GEORGIA,USA,"4675 N. SHALLOWFORD RD 209 DUNWOODY, GEORGIA USA",,
4573,PROGRESSIVE NUTRACARE,1705 MT VERNON RD A,DUNWOODY,GEORGIA,USA,"1705 MT VERNON RD A DUNWOODY, GEORGIA USA",,
4574,EMPIRE STATE PIZZA & GROWLERS,5000 WINTERS CHAPEL RD 4-5,DUNWOODY,GEORGIA,USA,"5000 WINTERS CHAPEL RD 4-5 DUNWOODY, GEORGIA USA",,
4576,GLAMOUR SHOTS,4709 ASHFORD DUNWOODY RD A,DUNWOODY,GEORGIA,USA,"4709 ASHFORD DUNWOODY RD A DUNWOODY, GEORGIA USA",,
4580,TRINITY INDUSTRIAL SERVICES,1551 DUNWOODY VILLAGE PKW,DUNWOODY,GEORGIA,USA,"1551 DUNWOODY VILLAGE PKW DUNWOODY, GEORGIA USA",,
4584,CARSON & ASSOCIATES,2494 JETT FERRY RD 210,DUNWOODY,GEORGIA,USA,"2494 JETT FERRY RD 210 DUNWOODY, GEORGIA USA",,
4585,DUNWOODY LABS,9 DUNWOODY PARK 121,DUNWOODY,GEORGIA,USA,"9 DUNWOODY PARK 121 DUNWOODY, GEORGIA USA",,
4589,EXPRESS EMPLOYMENT PROFESSION,1853 PEELER RD C,DUNWOODY,GEORGIA,USA,"1853 PEELER RD C DUNWOODY, GEORGIA USA",,
4598,YUMBII,4770 N PEACHTREE RD,DUNWOODY,GEORGIA,USA,"4770 N PEACHTREE RD DUNWOODY, GEORGIA USA",,
4600,DUETT DESIGN LLC,11 DUNWOODY PARK 145,DUNWOODY,GEORGIA,USA,"11 DUNWOODY PARK 145 DUNWOODY, GEORGIA USA",,
4604,YUM YUM CUPCAKE & MORE,4770 N PEACHTREE RD,DUNWOODY,GEORGIA,USA,"4770 N PEACHTREE RD DUNWOODY, GEORGIA USA",,
4606,THE MOBILE MARLEY,4770 N PEACHTREE RD,DUNWOODY,GEORGIA,USA,"4770 N PEACHTREE RD DUNWOODY, GEORGIA USA",,
4610,SOUP R NOODLES,4770 N PEACHTREE RD,DUNWOODY,GEORGIA,USA,"4770 N PEACHTREE RD DUNWOODY, GEORGIA USA",,
4612,MIX'D UP,4770 N PEACHTREE RD,DUNWOODY,GEORGIA,USA,"4770 N PEACHTREE RD DUNWOODY, GEORGIA USA",,
4613,BLAXICAN FOOD TRUCK,4770 N PEACHTREE RD,DUNWOODY,GEORGIA,USA,"4770 N PEACHTREE RD DUNWOODY, GEORGIA USA",,
4615,THE PUP TRUCK,4770 N PEACHTREE RD,DUNWOODY,GEORGIA,USA,"4770 N PEACHTREE RD DUNWOODY, GEORGIA USA",,
4620,VERA BRADLEY AT PERIMETER MAL,4400 ASHFORD DUNWOODY RD 2600,DUNWOODY,GEORGIA,USA,"4400 ASHFORD DUNWOODY RD 2600 DUNWOODY, GEORGIA USA",,
4621,"VALLECILLO CONSTRUCTION, LLC",4470 CHAMBLEE DUNWOODY RD 314,DUNWOODY,GEORGIA,USA,"4470 CHAMBLEE DUNWOODY RD 314 DUNWOODY, GEORGIA USA",,
4622,CREMA ESPRESSO GOURMET,2458 MT VERNON RD,DUNWOODY,GEORGIA,USA,"2458 MT VERNON RD DUNWOODY, GEORGIA USA",,
4626,"APOLLO TECHNICAL, LLC",1842 INDEPENDENCE SQ A,DUNWOODY,GEORGIA,USA,"1842 INDEPENDENCE SQ A DUNWOODY, GEORGIA USA",,
4629,"FREKLED & BLUE, LLC",4770 N PEACHTREE RD,DUNWOODY,GEORGIA,USA,"4770 N PEACHTREE RD DUNWOODY, GEORGIA USA",,
4637,LEITNER WILLIAMS DOOLEY & NAP,2 RAVINIA DRIVE 1630,DUNWOODY,GEORGIA,USA,"2 RAVINIA DRIVE 1630 DUNWOODY, GEORGIA USA",,
4643,"TOPTEL USA, LLC",4470 N. SHALLOWFORD RD,DUNWOODY,GEORGIA,USA,"4470 N. SHALLOWFORD RD DUNWOODY, GEORGIA USA",,
4646,"H.A. PETTY, PC",3 DUNWOODY PARK SOUTH 103,DUNWOODY,GEORGIA,USA,"3 DUNWOODY PARK SOUTH 103 DUNWOODY, GEORGIA USA",,
4648,"GRECIAN GYRO DUNWOODY, LLC",4468 CHAMBLEE DUNWOODY RD M4,DUNWOODY,GEORGIA,USA,"4468 CHAMBLEE DUNWOODY RD M4 DUNWOODY, GEORGIA USA",,
4655,"AIR CARE, SOLUTIONS",7211 MADISON DRIVE,DUNWOODY,GEORGIA,USA,"7211 MADISON DRIVE DUNWOODY, GEORGIA USA",,
4680,CLASSIC 73 GARAGE,5042 WINTERS CHAPEL RD A,DUNWOODY,GEORGIA,USA,"5042 WINTERS CHAPEL RD A DUNWOODY, GEORGIA USA",,
4681,THE FRY GUY,4770 N PEACHTREE RD,DUNWOODY,GEORGIA,USA,"4770 N PEACHTREE RD DUNWOODY, GEORGIA USA",,
4691,3D SYSTEMS,301 PERIMETER CENTER N 400,DUNWOODY,GEORGIA,USA,"301 PERIMETER CENTER N 400 DUNWOODY, GEORGIA USA",,
4710,SMART PUBLISHING,9 DUNWOODY PARK 114,DUNWOODY,GEORGIA,USA,"9 DUNWOODY PARK 114 DUNWOODY, GEORGIA USA",,
4712,ROBEK'S STORE 208,123 PERIMETER CENTER W 300,DUNWOODY,GEORGIA,USA,"123 PERIMETER CENTER W 300 DUNWOODY, GEORGIA USA",,
4721,PSAV-PRESENTATION SERVICE 122,246 PERIMETER CENTER PKY,DUNWOODY,GEORGIA,USA,"246 PERIMETER CENTER PKY DUNWOODY, GEORGIA USA",,
4722,JOINUS DELI 400,400 PERIMETER CENTER TER 49,DUNWOODY,GEORGIA,USA,"400 PERIMETER CENTER TER 49 DUNWOODY, GEORGIA USA",,
4725,CHIPOTLE MEXICAN GRILL #2100,4400 ASHFORD DUNWOODY RD 1445,DUNWOODY,GEORGIA,USA,"4400 ASHFORD DUNWOODY RD 1445 DUNWOODY, GEORGIA USA",,
4726,"SPUS6 THREE RAVINIA, LP",3 RAVINIA DRIVE 1930,DUNWOODY,GEORGIA,USA,"3 RAVINIA DRIVE 1930 DUNWOODY, GEORGIA USA",,
4731,SPIRIT HALLOWEEN SUPERSTORES,1151 HAMMOND DR NE,DUNWOODY,GEORGIA,USA,"1151 HAMMOND DR NE DUNWOODY, GEORGIA USA",,
4734,"SQUARE CARE MINISTRIES, INC",4846 PARLIAMENT WAY,DUNWOODY,GEORGIA,USA,"4846 PARLIAMENT WAY DUNWOODY, GEORGIA USA",,
4736,"BEYOND MANAGEMENT GROUP, INC",303 PERIMETER CENTER N 300,DUNWOODY,GEORGIA,USA,"303 PERIMETER CENTER N 300 DUNWOODY, GEORGIA USA",,
4737,CLEARWAVE CORPORATION,219 PERIMETER CENTER PKY 526,DUNWOODY,GEORGIA,USA,"219 PERIMETER CENTER PKY 526 DUNWOODY, GEORGIA USA",,
4740,"MODUS EDISCOVERY, INC",2 RAVINIA DR 500,DUNWOODY,GEORGIA,USA,"2 RAVINIA DR 500 DUNWOODY, GEORGIA USA",,
4741,NEIGHBORHOOD RESTAURANT PARTN,1455 LINCOLN PKWY 430,DUNWOODY,GEORGIA,USA,"1455 LINCOLN PKWY 430 DUNWOODY, GEORGIA USA",,
4742,NEIGHBORHOOD REALTY PARTNERS,1455 LINCOLN PKWY 430,DUNWOODY,GEORGIA,USA,"1455 LINCOLN PKWY 430 DUNWOODY, GEORGIA USA",,
4744,SILVERSPOON CATERING & EVENTS,4343 DUNWOODY PARK B,DUNWOODY,GEORGIA,USA,"4343 DUNWOODY PARK B DUNWOODY, GEORGIA USA",,
4745,"SHOWCASE EVENT GROUP, INC",1742 MT VERNON RD 100,DUNWOODY,GEORGIA,USA,"1742 MT VERNON RD 100 DUNWOODY, GEORGIA USA",,
4749,BERNADETTES SALON,2472 JETT FERRY RD,DUNWOODY,GEORGIA,USA,"2472 JETT FERRY RD DUNWOODY, GEORGIA USA",,
4753,"ECLIPSE NETWORKS, INC",100 ASHFORD CENTER N 110,DUNWOODY,GEORGIA,USA,"100 ASHFORD CENTER N 110 DUNWOODY, GEORGIA USA",,
4754,BOOSTMOBILE,6900 PEACHTREE IND BLVD E,DUNWOODY,GEORGIA,USA,"6900 PEACHTREE IND BLVD E DUNWOODY, GEORGIA USA",,
4758,NORDSTROM RACK,1201 HAMMOND DR,DUNWOODY,GEORGIA,USA,"1201 HAMMOND DR DUNWOODY, GEORGIA USA",,
4759,"AMERICAN FUELING SYSTEMS, LLC",121 PERIMETER CENTER W 250,DUNWOODY,GEORGIA,USA,"121 PERIMETER CENTER W 250 DUNWOODY, GEORGIA USA",,
4760,KAIKUDO MARTIAL ARTS ACADEMY,5501 CHAMBLEE DUNWOODY RD B,DUNWOODY,GEORGIA,USA,"5501 CHAMBLEE DUNWOODY RD B DUNWOODY, GEORGIA USA",,
4763,KRYSTAL CORPORATE OFFICE,1455 LINCOLN PKWY 600,DUNWOODY,GEORGIA,USA,"1455 LINCOLN PKWY 600 DUNWOODY, GEORGIA USA",,
4766,"CHIMERA INNOVATIONS, LLC",4470 CHAMBLEE DUNWOODY RD 480,DUNWOODY,GEORGIA,USA,"4470 CHAMBLEE DUNWOODY RD 480 DUNWOODY, GEORGIA USA",,
4767,"POINTCLEAR SOLUTIONS, INC",47 PERIMETER CENTER E 440,DUNWOODY,GEORGIA,USA,"47 PERIMETER CENTER E 440 DUNWOODY, GEORGIA USA",,
4770,"SYMPHONY EYC, LLC",1040 CROWN POINTE PKWY 905,DUNWOODY,GEORGIA,USA,"1040 CROWN POINTE PKWY 905 DUNWOODY, GEORGIA USA",,
4771,JOURNEYS #335,4400 ASHFORD DUNWOODY RD 2640,DUNWOODY,GEORGIA,USA,"4400 ASHFORD DUNWOODY RD 2640 DUNWOODY, GEORGIA USA",,
4776,THE PET RESORTS,4343 DUNWOODY PARK G,DUNWOODY,GEORGIA,USA,"4343 DUNWOODY PARK G DUNWOODY, GEORGIA USA",,
4778,FUNDAMENTAL LEARNING PROGRAMS,5054 NANDINA LANE A,DUNWOODY,GEORGIA,USA,"5054 NANDINA LANE A DUNWOODY, GEORGIA USA",,
4783,COWART RESIDENTIAL LLC,1370 CENTER DRIVE 102,DUNWOODY,GEORGIA,USA,"1370 CENTER DRIVE 102 DUNWOODY, GEORGIA USA",,
4794,CRICKET WIRELESS,6900 PEACHTREE IND BLVD G,DUNWOODY,GEORGIA,USA,"6900 PEACHTREE IND BLVD G DUNWOODY, GEORGIA USA",,
4796,"INTERGEN, LLC",2 RAVINIA DRIVE 500,DUNWOODY,GEORGIA,USA,"2 RAVINIA DRIVE 500 DUNWOODY, GEORGIA USA",,
4798,FIRST WATCH #127,1317 DUNWOODY VILLAGE PKW 106,DUNWOODY,GEORGIA,USA,"1317 DUNWOODY VILLAGE PKW 106 DUNWOODY, GEORGIA USA",,
4800,THE SHERWIN-WILLIAMS COMPANY,1300 DUNWOODY VILLAGE PKW,DUNWOODY,GEORGIA,USA,"1300 DUNWOODY VILLAGE PKW DUNWOODY, GEORGIA USA",,
4802,ANCHORS CHIROPRACTIC,2498 JETT FERRY RD 100,DUNWOODY,GEORGIA,USA,"2498 JETT FERRY RD 100 DUNWOODY, GEORGIA USA",,
4808,DRESS UP,4530 OLDE PERIMETER WAY,DUNWOODY,GEORGIA,USA,"4530 OLDE PERIMETER WAY DUNWOODY, GEORGIA USA",,
4809,KAMSTRUP WATER METERING LLC,1040 CROWN POINTE PKWY 320,DUNWOODY,GEORGIA,USA,"1040 CROWN POINTE PKWY 320 DUNWOODY, GEORGIA USA",,
4810,"KAMSTRUP, INC.",1040 CROWN POINTE PKWY 320,DUNWOODY,GEORGIA,USA,"1040 CROWN POINTE PKWY 320 DUNWOODY, GEORGIA USA",,
4813,JEFFREY ROTHENBERG,1872 INDEPENDENCE SQ B,DUNWOODY,GEORGIA,USA,"1872 INDEPENDENCE SQ B DUNWOODY, GEORGIA USA",,
4814,BONUS BUILDING CARE IN ATLANT,5 DUNWOODY PARK 108,DUNWOODY,GEORGIA,USA,"5 DUNWOODY PARK 108 DUNWOODY, GEORGIA USA",,
4821,GENESIS BIBLE CHURCH OF ATLAN,1832 INDEPENDENCE SQUARE B,DUNWOODY,GEORGIA,USA,"1832 INDEPENDENCE SQUARE B DUNWOODY, GEORGIA USA",,
4824,UFC GYM PERIMETER,4745 ASHFORD DUNWOODY RD D,DUNWOODY,GEORGIA,USA,"4745 ASHFORD DUNWOODY RD D DUNWOODY, GEORGIA USA",,
4825,ATLANTA ALL GOOD REALTY,1832 INDEPENDENCE SQ D,DUNWOODY,GEORGIA,USA,"1832 INDEPENDENCE SQ D DUNWOODY, GEORGIA USA",,
4826,MIMI'S CAFE,1221 ASHFORD CROSSING,DUNWOODY,GEORGIA,USA,"1221 ASHFORD CROSSING DUNWOODY, GEORGIA USA",,
4827,CAFE AT PHARR DUNWOODY,5533 CHAMBLEE DUNWOODY RD,DUNWOODY,GEORGIA,USA,"5533 CHAMBLEE DUNWOODY RD DUNWOODY, GEORGIA USA",,
4830,REFORM PHYSICAL THERAPY,1705 MT VERNON RD B,DUNWOODY,GEORGIA,USA,"1705 MT VERNON RD B DUNWOODY, GEORGIA USA",,
4836,CENTRAL TAXS & INSURANCE,6900 PEACHTREE IND. BLVD B,DUNWOODY,GEORGIA,USA,"6900 PEACHTREE IND. BLVD B DUNWOODY, GEORGIA USA",,
4839,KAINE LAW,1441 DUNWOODY VILLAGE PKW 100,DUNWOODY,GEORGIA,USA,"1441 DUNWOODY VILLAGE PKW 100 DUNWOODY, GEORGIA USA",,
4842,GLOBAL SOLUTIONS,4400 ASHFORD DUNWOODY RD 5520,DUNWOODY,GEORGIA,USA,"4400 ASHFORD DUNWOODY RD 5520 DUNWOODY, GEORGIA USA",,
4844,HORWATH HTL,1200 ASHWOOD PKWY 185,DUNWOODY,GEORGIA,USA,"1200 ASHWOOD PKWY 185 DUNWOODY, GEORGIA USA",,
4846,SIMPLY WANDA'S SALON,1151 HAMMOND DR NE 132,DUNWOODY,GEORGIA,USA,"1151 HAMMOND DR NE 132 DUNWOODY, GEORGIA USA",,
4848,CONCORD USA INC,1 DUNWOODY PARK 103,DUNWOODY,GEORGIA,USA,"1 DUNWOODY PARK 103 DUNWOODY, GEORGIA USA",,
4849,COMPASS FAMILY CHIROPRACTIC,1745 OLD SPRING HOUSE LN 410,DUNWOODY,GEORGIA,USA,"1745 OLD SPRING HOUSE LN 410 DUNWOODY, GEORGIA USA",,
4858,TOTAL MAKEOVER SALON,4705 ASHFORD DUNWOODY RD A2,DUNWOODY,GEORGIA,USA,"4705 ASHFORD DUNWOODY RD A2 DUNWOODY, GEORGIA USA",,
4862,THOMASVILLE,4550 OLDE PERIMETER WAY 200,DUNWOODY,GEORGIA,USA,"4550 OLDE PERIMETER WAY 200 DUNWOODY, GEORGIA USA",,
4863,HENREDON,4550 OLDE PERIMETER WAY 100,DUNWOODY,GEORGIA,USA,"4550 OLDE PERIMETER WAY 100 DUNWOODY, GEORGIA USA",,
4865,LULULEMON USA INC,4400 ASHFORD DUNWOODY RD 1405,DUNWOODY,GEORGIA,USA,"4400 ASHFORD DUNWOODY RD 1405 DUNWOODY, GEORGIA USA",,
4867,CAFE HAMMOND,1111 HAMMOND DR 175,DUNWOODY,GEORGIA,USA,"1111 HAMMOND DR 175 DUNWOODY, GEORGIA USA",,
4869,GREAT EXPRESSIONS DENTAL CENT,1720 OLD SPRING HOUSE LN 315,DUNWOODY,GEORGIA,USA,"1720 OLD SPRING HOUSE LN 315 DUNWOODY, GEORGIA USA",,
4873,WAKE UP IN MAKEUP,1720 OLD SPRING HOUSE LN 300B,DUNWOODY,GEORGIA,USA,"1720 OLD SPRING HOUSE LN 300B DUNWOODY, GEORGIA USA",,
4874,ARNOLD HOSPITALITY,1876 INDEPENDENCE SQ B,DUNWOODY,GEORGIA,USA,"1876 INDEPENDENCE SQ B DUNWOODY, GEORGIA USA",,
4875,SALON NIKKI,4705 ASHFORD DUNWOODY RD A/S 4,DUNWOODY,GEORGIA,USA,"4705 ASHFORD DUNWOODY RD A/S 4 DUNWOODY, GEORGIA USA",,
4878,VISION OF YOU!! BOUTIQUE SALO,4705 ASHFORD DUNWOODY RD A/S 4,DUNWOODY,GEORGIA,USA,"4705 ASHFORD DUNWOODY RD A/S 4 DUNWOODY, GEORGIA USA",,
4879,TOCCARA STYL STUDIO,4705 ASHFORD DUNWOODY RD A/S 4,DUNWOODY,GEORGIA,USA,"4705 ASHFORD DUNWOODY RD A/S 4 DUNWOODY, GEORGIA USA",,
4882,EAST INTERNATIONAL BANK,303 PERIMETER CENTER N 300,DUNWOODY,GEORGIA,USA,"303 PERIMETER CENTER N 300 DUNWOODY, GEORGIA USA",,
4884,TRU SERENITY SALON,4705 ASHFORD DUNWOODY RD A/S 4,DUNWOODY,GEORGIA,USA,"4705 ASHFORD DUNWOODY RD A/S 4 DUNWOODY, GEORGIA USA",,
4900,MEDICAL DEVELOPMENT CORP,4488 N. SHALLOWFORD RD 103,DUNWOODY,GEORGIA,USA,"4488 N. SHALLOWFORD RD 103 DUNWOODY, GEORGIA USA",,
4903,AUTOZONE #4970,4885 GLAZE RD,DUNWOODY,GEORGIA,USA,"4885 GLAZE RD DUNWOODY, GEORGIA USA",,
4909,VQ ORTHOCARE,1832 INDEPENDENCE SQ D,DUNWOODY,GEORGIA,USA,"1832 INDEPENDENCE SQ D DUNWOODY, GEORGIA USA",,
4910,FULCO PLUMBING CONTRACTORS,4470 CHAMBLEE DUNWOODY RD 300,DUNWOODY,GEORGIA,USA,"4470 CHAMBLEE DUNWOODY RD 300 DUNWOODY, GEORGIA USA",,
4911,THE NAILS OF DUNWOODY,5488 CHAMBLEE DUNWOODY RD,DUNWOODY,GEORGIA,USA,"5488 CHAMBLEE DUNWOODY RD DUNWOODY, GEORGIA USA",,
4913,PURE AESTHETICS SKIN CARE LLC,1745 OLD SPRING HOUSE LN,DUNWOODY,GEORGIA,USA,"1745 OLD SPRING HOUSE LN DUNWOODY, GEORGIA USA",,
4924,JOSH SPITALNICK PHD LLC,5591 CHAMBLEE DUNWOODY RD 319,DUNWOODY,GEORGIA,USA,"5591 CHAMBLEE DUNWOODY RD 319 DUNWOODY, GEORGIA USA",,
4925,"CITRINE TECHNOLOGIES, LLC",5591 CHAMBLEE DUNWOODY RD 319,DUNWOODY,GEORGIA,USA,"5591 CHAMBLEE DUNWOODY RD 319 DUNWOODY, GEORGIA USA",,
4930,WILLSON JONES CARTER & BAXLEY,4470 CHAMBLEE DUNWOODY RD 440,DUNWOODY,GEORGIA,USA,"4470 CHAMBLEE DUNWOODY RD 440 DUNWOODY, GEORGIA USA",,
4933,SETH SALON STUDIO LLC,4705 ASHFORD DUNWOODY RD A/S 4,DUNWOODY,GEORGIA,USA,"4705 ASHFORD DUNWOODY RD A/S 4 DUNWOODY, GEORGIA USA",,
4937,SALON LOFTS,4705 ASHFORD DUNWOODY RD A/S 4,DUNWOODY,GEORGIA,USA,"4705 ASHFORD DUNWOODY RD A/S 4 DUNWOODY, GEORGIA USA",,
4938,SAGITARIO,6890 PEACHTREE IND BLVD 6-B,DUNWOODY,GEORGIA,USA,"6890 PEACHTREE IND BLVD 6-B DUNWOODY, GEORGIA USA",,
4941,IMAGE IS EVERYTHING,4705 ASHFORD DUNWOODY RD A,DUNWOODY,GEORGIA,USA,"4705 ASHFORD DUNWOODY RD A DUNWOODY, GEORGIA USA",,
4944,MCDONNELL AND ASSOCIATES,47 PERIMETER CENTER E 425,DUNWOODY,GEORGIA,USA,"47 PERIMETER CENTER E 425 DUNWOODY, GEORGIA USA",,
4949,"ECOATM, INC",4725 ASHFORD DUNWOODY RD,DUNWOODY,GEORGIA,USA,"4725 ASHFORD DUNWOODY RD DUNWOODY, GEORGIA USA",,
4954,VANITY SALON,4705 ASHFORD DUNWOODY RD A/S 4,DUNWOODY,GEORGIA,USA,"4705 ASHFORD DUNWOODY RD A/S 4 DUNWOODY, GEORGIA USA",,
4958,DUNWOODY PUBLIC STORAGE #2598,4380 DUNWOODY PARK S,DUNWOODY,GEORGIA,USA,"4380 DUNWOODY PARK S DUNWOODY, GEORGIA USA",,
4967,EDGE BY KS,4400 ASHFORD DUNWOODY RD 2492,DUNWOODY,GEORGIA,USA,"4400 ASHFORD DUNWOODY RD 2492 DUNWOODY, GEORGIA USA",,
4972,"ML TERRACES, LLC",400 PERIMETER CENTER TER 45,DUNWOODY,GEORGIA,USA,"400 PERIMETER CENTER TER 45 DUNWOODY, GEORGIA USA",,
4976,ALZHEIMER'S ASSOCIATION - GA,41 PERIMETER CENTER E 550,DUNWOODY,GEORGIA,USA,"41 PERIMETER CENTER E 550 DUNWOODY, GEORGIA USA",,
4977,KPMG LLP,1050 CROWN POINTE PKWY 1500,DUNWOODY,GEORGIA,USA,"1050 CROWN POINTE PKWY 1500 DUNWOODY, GEORGIA USA",,
4978,TRIDENT ASSET MANAGEMENT LLC,53 PERIMETER CENTER E 440,DUNWOODY,GEORGIA,USA,"53 PERIMETER CENTER E 440 DUNWOODY, GEORGIA USA",,
4980,KEEPCALLING,4780 ASHFORD DUNWOODY RD A236,DUNWOODY,GEORGIA,USA,"4780 ASHFORD DUNWOODY RD A236 DUNWOODY, GEORGIA USA",,
4981,"THE ARUNA GROUP, LLC",7 DUNWOODY PARK 103,DUNWOODY,GEORGIA,USA,"7 DUNWOODY PARK 103 DUNWOODY, GEORGIA USA",,
4983,FSP ONE RAVINIA DRIVE LLC,1 RAVINIA DR 5FL,DUNWOODY,GEORGIA,USA,"1 RAVINIA DR 5FL DUNWOODY, GEORGIA USA",,
4985,DEKALB TIRE,5397 CHAMBLEE DUNWOODY RD,DUNWOODY,GEORGIA,USA,"5397 CHAMBLEE DUNWOODY RD DUNWOODY, GEORGIA USA",,
4989,TRINITY OUTREACH FOUNDATION,1455 LINCOLN PKWY 120,DUNWOODY,GEORGIA,USA,"1455 LINCOLN PKWY 120 DUNWOODY, GEORGIA USA",,
4992,SEIGLERS SALON,4705 ASHFORD DUNWOODY RD A,DUNWOODY,GEORGIA,USA,"4705 ASHFORD DUNWOODY RD A DUNWOODY, GEORGIA USA",,
4994,GENERAL CABLE INDUSTRIES INC,3 RAVINIA DR 1600,DUNWOODY,GEORGIA,USA,"3 RAVINIA DR 1600 DUNWOODY, GEORGIA USA",,
4995,TIDE DRY CLEANERS,1614 MT VERNON RD,DUNWOODY,GEORGIA,USA,"1614 MT VERNON RD DUNWOODY, GEORGIA USA",,
4997,KATHY'S NAIL CARE SALON,4705 ASHFORD DUNWOODY RD A/S 4,DUNWOODY,GEORGIA,USA,"4705 ASHFORD DUNWOODY RD A/S 4 DUNWOODY, GEORGIA USA",,
5002,"STRATACLOUD, INC",53 PERIMETER CENTER E 201,DUNWOODY,GEORGIA,USA,"53 PERIMETER CENTER E 201 DUNWOODY, GEORGIA USA",,
5003,HERBALIFE,6890 PEACHTREE IND BLVD B2,DUNWOODY,GEORGIA,USA,"6890 PEACHTREE IND BLVD B2 DUNWOODY, GEORGIA USA",,
5007,THE BARCLAY AT DUNWOODY,4580 BARCLAY DRIVE,DUNWOODY,GEORGIA,USA,"4580 BARCLAY DRIVE DUNWOODY, GEORGIA USA",,
5008,"KELLY MICHAEL HUNDLEY, LLC",2 RAVINIA DR 500,DUNWOODY,GEORGIA,USA,"2 RAVINIA DR 500 DUNWOODY, GEORGIA USA",,
5009,GENKI TO GO LLC,4770 N PEACHTREE RD,DUNWOODY,GEORGIA,USA,"4770 N PEACHTREE RD DUNWOODY, GEORGIA USA",,
5011,BENTO BUS,4770 N PEACHTREE RD,DUNWOODY,GEORGIA,USA,"4770 N PEACHTREE RD DUNWOODY, GEORGIA USA",,
5018,"ASHLI WALKER, LLC",4705 ASHFORD DUNWOODY RD A/S 4,DUNWOODY,GEORGIA,USA,"4705 ASHFORD DUNWOODY RD A/S 4 DUNWOODY, GEORGIA USA",,
5019,CHOPSTICKS II,4639 N SHALLOWFORD RD G,DUNWOODY,GEORGIA,USA,"4639 N SHALLOWFORD RD G DUNWOODY, GEORGIA USA",,
5020,DOLEX DOLLAR EXPRESS,6890 PEACHTREE IND BLVD 2A,DUNWOODY,GEORGIA,USA,"6890 PEACHTREE IND BLVD 2A DUNWOODY, GEORGIA USA",,
5022,EROSION MANAGEMENT SERVICES,4958 WINTERS CHAPEL RD A,DUNWOODY,GEORGIA,USA,"4958 WINTERS CHAPEL RD A DUNWOODY, GEORGIA USA",,
5024,ARGHA SERVICES INC,4488 N SHALLOWFORD RD 200,DUNWOODY,GEORGIA,USA,"4488 N SHALLOWFORD RD 200 DUNWOODY, GEORGIA USA",,
5025,ORAL SURGERY ASSOCIATES,4721 CHAMBLEE DUNWOODY RD 301,DUNWOODY,GEORGIA,USA,"4721 CHAMBLEE DUNWOODY RD 301 DUNWOODY, GEORGIA USA",,
5029,OLDE BLIND DOG FOOD TRUCK,4770 N PEACHTREE RD,DUNWOODY,GEORGIA,USA,"4770 N PEACHTREE RD DUNWOODY, GEORGIA USA",,
5032,JOINUS DELI 115,115 PERIMETER CENTER PL 120,DUNWOODY,GEORGIA,USA,"115 PERIMETER CENTER PL 120 DUNWOODY, GEORGIA USA",,
5033,"STEARNS LENDING, LLC",1868 INDEPENDENCE SQ C,DUNWOODY,GEORGIA,USA,"1868 INDEPENDENCE SQ C DUNWOODY, GEORGIA USA",,
5036,"ACE MEDIA DIRECT, LLC",2550 RIVERGLENN CIR,DUNWOODY,GEORGIA,USA,"2550 RIVERGLENN CIR DUNWOODY, GEORGIA USA",,
5037,WELLS FARGO ADVISORS,4570 ASHFORD DUNWOODY RD,DUNWOODY,GEORGIA,USA,"4570 ASHFORD DUNWOODY RD DUNWOODY, GEORGIA USA",,
5038,WELLS FARGO ADVISORS,1660 MT VERNON RD,DUNWOODY,GEORGIA,USA,"1660 MT VERNON RD DUNWOODY, GEORGIA USA",,
5039,PUB PERIMETER,4400 ASHFORD DUNWOODY RD 3015,DUNWOODY,GEORGIA,USA,"4400 ASHFORD DUNWOODY RD 3015 DUNWOODY, GEORGIA USA",,
5059,"LEVY TAX & CONSULTING, LLC",1040 CROWN POINTE PKWY 775,DUNWOODY,GEORGIA,USA,"1040 CROWN POINTE PKWY 775 DUNWOODY, GEORGIA USA",,
5065,SPROUTS FARMER'S MARKET #514,2480 MT VERNON RD,DUNWOODY,GEORGIA,USA,"2480 MT VERNON RD DUNWOODY, GEORGIA USA",,
5068,KING GEORGE TAVERN,4511 CHAMBLEE DUNWOODY RD C-4,DUNWOODY,GEORGIA,USA,"4511 CHAMBLEE DUNWOODY RD C-4 DUNWOODY, GEORGIA USA",,
5070,NOBLE SYSTEMS CORPORATION,1200 ASHWOOD PKWY 300,DUNWOODY,GEORGIA,USA,"1200 ASHWOOD PKWY 300 DUNWOODY, GEORGIA USA",,
5072,SCRAP DRAGON SOFTWARE,4470 CHAMBLEE DUNWOODY RD 380,DUNWOODY,GEORGIA,USA,"4470 CHAMBLEE DUNWOODY RD 380 DUNWOODY, GEORGIA USA",,
5076,TAKOREA,4474 CHAMBLEE DUNWOODY RD,DUNWOODY,GEORGIA,USA,"4474 CHAMBLEE DUNWOODY RD DUNWOODY, GEORGIA USA",,
5081,"RANDSTAD US, LP",115 PERIMETER CENTER PL 648,DUNWOODY,GEORGIA,USA,"115 PERIMETER CENTER PL 648 DUNWOODY, GEORGIA USA",,
5082,"TEXTILE GROUP, INC",1823 TROWBRIDGE COVE,DUNWOODY,GEORGIA,USA,"1823 TROWBRIDGE COVE DUNWOODY, GEORGIA USA",,
5092,SALON BAR,4705 ASHFORD DUNWOODY RD A/S 4,DUNWOODY,GEORGIA,USA,"4705 ASHFORD DUNWOODY RD A/S 4 DUNWOODY, GEORGIA USA",,
5093,UNLEASHED BY PETCO #5503,5566 CHAMBLEE DUNWOODY RD,DUNWOODY,GEORGIA,USA,"5566 CHAMBLEE DUNWOODY RD DUNWOODY, GEORGIA USA",,
5108,WINTERS CHAPEL ANIMAL HOSPITA,3017 PEELER RD,DUNWOODY,GEORGIA,USA,"3017 PEELER RD DUNWOODY, GEORGIA USA",,
5109,"FA SOUTHEAST, LLC",47 PERIMETER CENTER E 290,DUNWOODY,GEORGIA,USA,"47 PERIMETER CENTER E 290 DUNWOODY, GEORGIA USA",,
5110,"BRANDT INFORMATION SVCS., INC",301 PERIMETER CENTER N 175,DUNWOODY,GEORGIA,USA,"301 PERIMETER CENTER N 175 DUNWOODY, GEORGIA USA",,
5112,MEMPHIS BBQ COMPANY,4764 ASHFORD DUNWOODY RD,DUNWOODY,GEORGIA,USA,"4764 ASHFORD DUNWOODY RD DUNWOODY, GEORGIA USA",,
5114,THE PORTER LAW FIRM,2488 MADISON COMMONS,DUNWOODY,GEORGIA,USA,"2488 MADISON COMMONS DUNWOODY, GEORGIA USA",,
5118,THE OIL BAR,4400 ASHFORD DUNWOODY RD 2535,DUNWOODY,GEORGIA,USA,"4400 ASHFORD DUNWOODY RD 2535 DUNWOODY, GEORGIA USA",,
5125,H & M,4400 ASHFORD DUNWOODY RD 1220,DUNWOODY,GEORGIA,USA,"4400 ASHFORD DUNWOODY RD 1220 DUNWOODY, GEORGIA USA",,
5126,THE BERRY LAW GROUP,2 RAVINIA DR 500,DUNWOODY,GEORGIA,USA,"2 RAVINIA DR 500 DUNWOODY, GEORGIA USA",,
5131,"ASCOREL USA, LLC",115 PERIMETER CENTER PLA 495,DUNWOODY,GEORGIA,USA,"115 PERIMETER CENTER PLA 495 DUNWOODY, GEORGIA USA",,
5132,REGAL NAILS,4725 ASHFORD DUNWOODY RD B,DUNWOODY,GEORGIA,USA,"4725 ASHFORD DUNWOODY RD B DUNWOODY, GEORGIA USA",,
5133,WILD WING CAFE,4788 ASHFORD DUNWOODY RD,DUNWOODY,GEORGIA,USA,"4788 ASHFORD DUNWOODY RD DUNWOODY, GEORGIA USA",,
5136,ARTHUR J. GALLAGHER RISK MGMT,1040 CROWN POINTE PKWY 700,DUNWOODY,GEORGIA,USA,"1040 CROWN POINTE PKWY 700 DUNWOODY, GEORGIA USA",,
5137,GALLAGHER BENEFITS SVCS. INC.,1040 CROWN POINTE PKWY 700,DUNWOODY,GEORGIA,USA,"1040 CROWN POINTE PKWY 700 DUNWOODY, GEORGIA USA",,
5140,ALLIANCE CONSULTING SERVICES,1532 DUNWOODY VILLAGE PKW 200,DUNWOODY,GEORGIA,USA,"1532 DUNWOODY VILLAGE PKW 200 DUNWOODY, GEORGIA USA",,
5141,BENCHMARK PHYSICAL THERAPY,5500 CHAMBLEE DUNWOODY RD 5B,DUNWOODY,GEORGIA,USA,"5500 CHAMBLEE DUNWOODY RD 5B DUNWOODY, GEORGIA USA",,
5143,TOTAL WELLNESS SOLUTIONS,1705 MT VERNON RD A,DUNWOODY,GEORGIA,USA,"1705 MT VERNON RD A DUNWOODY, GEORGIA USA",,
5149,BOGGSVICKERS ARCHITECTS,41 PERIMETER CENTER E 630,DUNWOODY,GEORGIA,USA,"41 PERIMETER CENTER E 630 DUNWOODY, GEORGIA USA",,
5152,LANIER PARKING SOLUTIONS,3 RAVINIA DR,DUNWOODY,GEORGIA,USA,"3 RAVINIA DR DUNWOODY, GEORGIA USA",,
5154,BACK 2 BACK CHIROPRACTIC,1705 MT VERNON RD A,DUNWOODY,GEORGIA,USA,"1705 MT VERNON RD A DUNWOODY, GEORGIA USA",,
5156,EMBASSY SUITES MANAGEMENT LLC,1030 CROWN POINTE PKWY,DUNWOODY,GEORGIA,USA,"1030 CROWN POINTE PKWY DUNWOODY, GEORGIA USA",,
5160,GREGORY V SODERBERG ATTORNEY,1750 OLD SPRINGHOUSE LANE 203,DUNWOODY,GEORGIA,USA,"1750 OLD SPRINGHOUSE LANE 203 DUNWOODY, GEORGIA USA",,
5163,PARTNER ASSESSMENT CORPORATIO,1200 ASHWOOD PKWY 550,DUNWOODY,GEORGIA,USA,"1200 ASHWOOD PKWY 550 DUNWOODY, GEORGIA USA",,
5166,YOUR PIE,123 PERIMETER CENTER W 200,DUNWOODY,GEORGIA,USA,"123 PERIMETER CENTER W 200 DUNWOODY, GEORGIA USA",,
5168,DAVE'S PHILLY WATER ICE,5020 WINTERS CHAPEL RD A,DUNWOODY,GEORGIA,USA,"5020 WINTERS CHAPEL RD A DUNWOODY, GEORGIA USA",,
5175,BARRIE HUNTER SALON,4515 CHAMBLEE DUNWOODY RD,DUNWOODY,GEORGIA,USA,"4515 CHAMBLEE DUNWOODY RD DUNWOODY, GEORGIA USA",,
5180,EMBASSY SUITES 69611,1030 CROWNE POINTE PKWY,DUNWOODY,GEORGIA,USA,"1030 CROWNE POINTE PKWY DUNWOODY, GEORGIA USA",,
5182,"DELUXE FINANCIAL SERVICES, LL",100 ASHFORD CENTER N 460,DUNWOODY,GEORGIA,USA,"100 ASHFORD CENTER N 460 DUNWOODY, GEORGIA USA",,
5185,MR. TIRE,1333 DUNWOODY VILLAGE PKW,DUNWOODY,GEORGIA,USA,"1333 DUNWOODY VILLAGE PKW DUNWOODY, GEORGIA USA",,
5186,PRIMROSE SCHOOL OF DUNWOODY,5050 NANDINA LN,DUNWOODY,GEORGIA,USA,"5050 NANDINA LN DUNWOODY, GEORGIA USA",,
5187,BELAGIO,4400 ASHFORD DUNWOODY RD 5548,DUNWOODY,GEORGIA,USA,"4400 ASHFORD DUNWOODY RD 5548 DUNWOODY, GEORGIA USA",,
5188,HAVOLINE XPRESS LUBE,5528 CHAMBLEE DUNWOODY RD,DUNWOODY,GEORGIA,USA,"5528 CHAMBLEE DUNWOODY RD DUNWOODY, GEORGIA USA",,
5191,PLANET BEACH,5529 CHAMBLEE DUNWOODY RD 260B,DUNWOODY,GEORGIA,USA,"5529 CHAMBLEE DUNWOODY RD 260B DUNWOODY, GEORGIA USA",,
5194,PANERA BREAD #1812,4400 ASHFORD DUNWOODY RD 1370,DUNWOODY,GEORGIA,USA,"4400 ASHFORD DUNWOODY RD 1370 DUNWOODY, GEORGIA USA",,
5195,"FACE HAVEN, LLC",2462 JETT FERRY RD 310,DUNWOODY,GEORGIA,USA,"2462 JETT FERRY RD 310 DUNWOODY, GEORGIA USA",,
5196,DOGWOOD HEALING ARTS,11 DUNWOODY PARK 120,DUNWOODY,GEORGIA,USA,"11 DUNWOODY PARK 120 DUNWOODY, GEORGIA USA",,
5198,"DIGITAL CONTRACTS, INC",115 PERIMETER CENTER PL 170,DUNWOODY,GEORGIA,USA,"115 PERIMETER CENTER PL 170 DUNWOODY, GEORGIA USA",,
5201,SCHACHTER PORTNOY LLC,7 DUNWOODY PARK 111,DUNWOODY,GEORGIA,USA,"7 DUNWOODY PARK 111 DUNWOODY, GEORGIA USA",,
5202,SPONTANEOUS NETWORKS INC,2 RAVINIA DR 500,DUNWOODY,GEORGIA,USA,"2 RAVINIA DR 500 DUNWOODY, GEORGIA USA",,
5205,TOE 2 TOE BOXING GYM,6900 PEACHTREE IND BLVD H,DUNWOODY,GEORGIA,USA,"6900 PEACHTREE IND BLVD H DUNWOODY, GEORGIA USA",,
5206,PITA BY THE BEIRUT D,4709 ASHFORD DUNWOODY RD B,DUNWOODY,GEORGIA,USA,"4709 ASHFORD DUNWOODY RD B DUNWOODY, GEORGIA USA",,
5207,INFINITE FAMILY RESOURCES,3 DUNWOODY PARK 103,DUNWOODY,GEORGIA,USA,"3 DUNWOODY PARK 103 DUNWOODY, GEORGIA USA",,
5208,ASIAN CAFE,2462 JETT FERRY RD,DUNWOODY,GEORGIA,USA,"2462 JETT FERRY RD DUNWOODY, GEORGIA USA",,
5211,KID TO KID,4498 CHAMBLEE DUNWOODY RD,DUNWOODY,GEORGIA,USA,"4498 CHAMBLEE DUNWOODY RD DUNWOODY, GEORGIA USA",,
5213,"ROMAN LIGHT STUDIOS, LLC",1 DUNWOODY PARK 235,DUNWOODY,GEORGIA,USA,"1 DUNWOODY PARK 235 DUNWOODY, GEORGIA USA",,
5215,MOMMY ANGELS DAYCARE,1 DUNWOODY PARK 111,DUNWOODY,GEORGIA,USA,"1 DUNWOODY PARK 111 DUNWOODY, GEORGIA USA",,
5217,HIGHLAND APOTHECARY,2458 JETT FERRY RD 200,DUNWOODY,GEORGIA,USA,"2458 JETT FERRY RD 200 DUNWOODY, GEORGIA USA",,
5219,CINNABON,4400 ASHFORD DUNWOODY RD 5548,DUNWOODY,GEORGIA,USA,"4400 ASHFORD DUNWOODY RD 5548 DUNWOODY, GEORGIA USA",,
5220,PRIMA CLINICAL SKIN CARE,1750 OLD SPRING HOUSE LN 200A,DUNWOODY,GEORGIA,USA,"1750 OLD SPRING HOUSE LN 200A DUNWOODY, GEORGIA USA",,
5220,PRIMA CLINICAL SKIN CARE,1745 OLD SPRING HOUSE LN 425,DUNWOODY,GEORGIA,USA,"1745 OLD SPRING HOUSE LN 425 DUNWOODY, GEORGIA USA",,
5224,THE INTEGRATED BODY,11 DUNWOODY PARK 120,DUNWOODY,GEORGIA,USA,"11 DUNWOODY PARK 120 DUNWOODY, GEORGIA USA",,
5225,ALEXANDRIA JOSEPH STUDIOS,1151 HAMMOND DR 200 105,DUNWOODY,GEORGIA,USA,"1151 HAMMOND DR 200 105 DUNWOODY, GEORGIA USA",,
5228,HUAWEI DEVICE USA INC,303 PERIMETER CENTER N 300,DUNWOODY,GEORGIA,USA,"303 PERIMETER CENTER N 300 DUNWOODY, GEORGIA USA",,
5230,LOTUS WHOLE BODY CARE,1867 INDEPENDENCE SQ 155,DUNWOODY,GEORGIA,USA,"1867 INDEPENDENCE SQ 155 DUNWOODY, GEORGIA USA",,
5231,SHANE'S RIB SHACK,123 PERIMETER CENTER W 400,DUNWOODY,GEORGIA,USA,"123 PERIMETER CENTER W 400 DUNWOODY, GEORGIA USA",,
5242,BABY HAVEN LLC,4400 ASHFORD DUNWOODY RD 5548,DUNWOODY,GEORGIA,USA,"4400 ASHFORD DUNWOODY RD 5548 DUNWOODY, GEORGIA USA",,
5257,"LONDON MED SPA, LLC",4520 OLDE PERIMETER WAY 200,DUNWOODY,GEORGIA,USA,"4520 OLDE PERIMETER WAY 200 DUNWOODY, GEORGIA USA",,
5259,BERMAN COMMONS ASSISTED LIVIN,2026 WOMACK RD,DUNWOODY,GEORGIA,USA,"2026 WOMACK RD DUNWOODY, GEORGIA USA",,
5260,VASQUEZ HAND CARWASH LLC,4369 N PEACHTREE RD,DUNWOODY,GEORGIA,USA,"4369 N PEACHTREE RD DUNWOODY, GEORGIA USA",,
5263,SUPERCUTS OF DUNWOODY,5550 CHAMBLEE DUNWOODY RD,DUNWOODY,GEORGIA,USA,"5550 CHAMBLEE DUNWOODY RD DUNWOODY, GEORGIA USA",,
5267,"PD GLADIATORS, INC",4561 OLDE PERIMETER WAY 1101,DUNWOODY,GEORGIA,USA,"4561 OLDE PERIMETER WAY 1101 DUNWOODY, GEORGIA USA",,
5274,"PANKEY & HORLOCK, LLC",1441 DUNWOODY VILLAGE PKW 200,DUNWOODY,GEORGIA,USA,"1441 DUNWOODY VILLAGE PKW 200 DUNWOODY, GEORGIA USA",,
5277,ADULT DAY CARE OF DUNWOODY,1 DUNWOODY PARK 123,DUNWOODY,GEORGIA,USA,"1 DUNWOODY PARK 123 DUNWOODY, GEORGIA USA",,
5282,"ORION PORTFOLIO SERVICES, LLC",53 PERIMETER CENTER E 450,DUNWOODY,GEORGIA,USA,"53 PERIMETER CENTER E 450 DUNWOODY, GEORGIA USA",,
5286,EASTER SEALS NORTH GEORGIA IN,53 PERIMETER CENTER E 550,DUNWOODY,GEORGIA,USA,"53 PERIMETER CENTER E 550 DUNWOODY, GEORGIA USA",,
5287,STROZIER AUTISM CENTER,1851 PEELER RD B,DUNWOODY,GEORGIA,USA,"1851 PEELER RD B DUNWOODY, GEORGIA USA",,
5290,SYNERGY SECURITY,400 PERIMETER CTR TER N 900,DUNWOODY,GEORGIA,USA,"400 PERIMETER CTR TER N 900 DUNWOODY, GEORGIA USA",,
5295,"ARROW EXTERMINATORS, INC",5591 CHAMBLEE DUNWOODY RD 200,DUNWOODY,GEORGIA,USA,"5591 CHAMBLEE DUNWOODY RD 200 DUNWOODY, GEORGIA USA",,
5302,LIGHT BRIGHT SMILE,4400 ASHFORD DUNWOODY RD 1340,DUNWOODY,GEORGIA,USA,"4400 ASHFORD DUNWOODY RD 1340 DUNWOODY, GEORGIA USA",,
5303,BARRY L. BROUNER PC,1776 OLD SPRINGHOUSE LN 303,DUNWOODY,GEORGIA,USA,"1776 OLD SPRINGHOUSE LN 303 DUNWOODY, GEORGIA USA",,
5304,NOVO PIZZA,5592 CHAMBLEE DUNWOODY RD,DUNWOODY,GEORGIA,USA,"5592 CHAMBLEE DUNWOODY RD DUNWOODY, GEORGIA USA",,
5308,MILLENIUM INVESTMENT GROUP LL,1849 PEELER RD D,DUNWOODY,GEORGIA,USA,"1849 PEELER RD D DUNWOODY, GEORGIA USA",,
5309,ELIMILICE,7 DUNWOODY PARK 104,DUNWOODY,GEORGIA,USA,"7 DUNWOODY PARK 104 DUNWOODY, GEORGIA USA",,
5310,MELAN FINANCIAL,1867 INDEPENDENCE SQ 200,DUNWOODY,GEORGIA,USA,"1867 INDEPENDENCE SQ 200 DUNWOODY, GEORGIA USA",,
5312,"OBRIEN INSURANCE AGENCY, LLC",1733 MT VERNON RD 110,DUNWOODY,GEORGIA,USA,"1733 MT VERNON RD 110 DUNWOODY, GEORGIA USA",,
5316,ESCENTUAL BODY,1745 OLD SPRING HOUSE LN 425,DUNWOODY,GEORGIA,USA,"1745 OLD SPRING HOUSE LN 425 DUNWOODY, GEORGIA USA",,
5319,"CHARLES NORD PHD, P.C.",2150 PEACHFORD RD E,DUNWOODY,GEORGIA,USA,"2150 PEACHFORD RD E DUNWOODY, GEORGIA USA",,
5320,MICHAELS STORES INC #5082,100 PERIMETER CENTER PL,DUNWOODY,GEORGIA,USA,"100 PERIMETER CENTER PL DUNWOODY, GEORGIA USA",,
5322,BESPOKE BY VANESSA BLAKE COSM,4400 ASHFORD DUNWOODY RD 5548,DUNWOODY,GEORGIA,USA,"4400 ASHFORD DUNWOODY RD 5548 DUNWOODY, GEORGIA USA",,
5323,CRABB RADERMACHER LLC,115 PERIMETER CENTER PL 949,DUNWOODY,GEORGIA,USA,"115 PERIMETER CENTER PL 949 DUNWOODY, GEORGIA USA",,
5325,ROYALTY WAIST,4400 ASHFORD DUNWOODY RD 6520,DUNWOODY,GEORGIA,USA,"4400 ASHFORD DUNWOODY RD 6520 DUNWOODY, GEORGIA USA",,
5328,ENERGY & ENVIRONMENTAL TECHNO,400 PERIMETER CENTER TER 105,DUNWOODY,GEORGIA,USA,"400 PERIMETER CENTER TER 105 DUNWOODY, GEORGIA USA",,
5330,"GA PSYCHIATRIC SERVICES, LLC",2150 PEACHFORD RD K,DUNWOODY,GEORGIA,USA,"2150 PEACHFORD RD K DUNWOODY, GEORGIA USA",,
5333,ATRILOGY SOLUTIONS GROUP INC,41 PERIMETER CENTER E 615,DUNWOODY,GEORGIA,USA,"41 PERIMETER CENTER E 615 DUNWOODY, GEORGIA USA",,
5335,CYPRESS HCM,1050 CROWN POINTE PKWY 100,DUNWOODY,GEORGIA,USA,"1050 CROWN POINTE PKWY 100 DUNWOODY, GEORGIA USA",,
5336,"WATERFORD PARK, LLC",4480 N SHALLOWFORD RD,DUNWOODY,GEORGIA,USA,"4480 N SHALLOWFORD RD DUNWOODY, GEORGIA USA",,
5339,VANITY SALON,4705 ASHFORD DUNWOODY RD,DUNWOODY,GEORGIA,USA,"4705 ASHFORD DUNWOODY RD DUNWOODY, GEORGIA USA",,
5341,"UG RETAIL AND FOOD, LLC",4400 ASHFORD DUNWOODY RD 6530,DUNWOODY,GEORGIA,USA,"4400 ASHFORD DUNWOODY RD 6530 DUNWOODY, GEORGIA USA",,
5344,"HOWARD EVANS, ATTORNEY",4488 N SHALLOWFORD RD 216,DUNWOODY,GEORGIA,USA,"4488 N SHALLOWFORD RD 216 DUNWOODY, GEORGIA USA",,
5346,"INFINITY YOGA, LLC",1705 MT VERNON RD E,DUNWOODY,GEORGIA,USA,"1705 MT VERNON RD E DUNWOODY, GEORGIA USA",,
5347,"BAND OF CODERS, LLC",1643 MT VERNON RD,DUNWOODY,GEORGIA,USA,"1643 MT VERNON RD DUNWOODY, GEORGIA USA",,
5348,FATHERS INCORPORATED,2394 MT VERNON RD 210,DUNWOODY,GEORGIA,USA,"2394 MT VERNON RD 210 DUNWOODY, GEORGIA USA",,
5349,ATLANTA VISION INSTITUTE PC,1611 MT VERNON RD,DUNWOODY,GEORGIA,USA,"1611 MT VERNON RD DUNWOODY, GEORGIA USA",,
5350,SKIPPING STONE LLC,200 ASHFORD CENTER N 175,DUNWOODY,GEORGIA,USA,"200 ASHFORD CENTER N 175 DUNWOODY, GEORGIA USA",,
5352,BHHS GA PROPERTIES,5481 CHAMBLEE DUNWOODY RD,DUNWOODY,GEORGIA,USA,"5481 CHAMBLEE DUNWOODY RD DUNWOODY, GEORGIA USA",,
5358,LIBERTY HOME MORTGAGES LLC,303 PERIMETER CENTER N 300,DUNWOODY,GEORGIA,USA,"303 PERIMETER CENTER N 300 DUNWOODY, GEORGIA USA",,
5360,GOTTA HAVE IT FOOD TRUCK,4770 N PEACHTREE RD,DUNWOODY,GEORGIA,USA,"4770 N PEACHTREE RD DUNWOODY, GEORGIA USA",,
5364,NATIONWIDE INSURANCE,1370 CENTER DR 106,DUNWOODY,GEORGIA,USA,"1370 CENTER DR 106 DUNWOODY, GEORGIA USA",,
5366,RCS PRODUCTIONS,2312 PEACHFORD ROAD A,DUNWOODY,GEORGIA,USA,"2312 PEACHFORD ROAD A DUNWOODY, GEORGIA USA",,
5370,A STITCH IN TIME,2492 MOUNT VERNON RD C,DUNWOODY,GEORGIA,USA,"2492 MOUNT VERNON RD C DUNWOODY, GEORGIA USA",,
5374,BLOOM ORTHODONTICS,5501 CHAMBLEE DUNWOODY RD,DUNWOODY,GEORGIA,USA,"5501 CHAMBLEE DUNWOODY RD DUNWOODY, GEORGIA USA",,
5375,MORRIS MEDIA NETWORK/WHERE MA,1820 INDEPENDENCE SQ A/B,DUNWOODY,GEORGIA,USA,"1820 INDEPENDENCE SQ A/B DUNWOODY, GEORGIA USA",,
5378,GE INDUSTRIAL SOLUTIONS INC,303 PERIMETER CENTER N 300,DUNWOODY,GEORGIA,USA,"303 PERIMETER CENTER N 300 DUNWOODY, GEORGIA USA",,
5379,SOUTH COAST REAL ESTATE,1845 PEELER RD A,DUNWOODY,GEORGIA,USA,"1845 PEELER RD A DUNWOODY, GEORGIA USA",,
5380,CONSORTIUM FOR GLOBAL EDUCATI,1633 MOUNT VERNON RD 200,DUNWOODY,GEORGIA,USA,"1633 MOUNT VERNON RD 200 DUNWOODY, GEORGIA USA",,
5384,SUBURBAN PROPANE L.P.,53 PERIMETER CENTER E 100,DUNWOODY,GEORGIA,USA,"53 PERIMETER CENTER E 100 DUNWOODY, GEORGIA USA",,
5385,CPT PERIMETER CENTER DREXEL,100 DREXEL PT,DUNWOODY,GEORGIA,USA,"100 DREXEL PT DUNWOODY, GEORGIA USA",,
5386,CPT PERIMETER CENTER LOFTS,100 PERIMETER LOFTS CIRC,DUNWOODY,GEORGIA,USA,"100 PERIMETER LOFTS CIRC DUNWOODY, GEORGIA USA",,
5388,CPT PERIMETER CENTER HEIGHTS,100 PERIMETER TRACE,DUNWOODY,GEORGIA,USA,"100 PERIMETER TRACE DUNWOODY, GEORGIA USA",,
5389,THE RENOVATION SPECIALISTS,4828 ASHFORD DUNWOODY RD 100,DUNWOODY,GEORGIA,USA,"4828 ASHFORD DUNWOODY RD 100 DUNWOODY, GEORGIA USA",,
5392,LAVISH LUXXE,1151 HAMMOND DR NE 200 102,DUNWOODY,GEORGIA,USA,"1151 HAMMOND DR NE 200 102 DUNWOODY, GEORGIA USA",,
5393,VINTAGE FROZEN CUSTARD,4770 N PEACHTREE RD,DUNWOODY,GEORGIA,USA,"4770 N PEACHTREE RD DUNWOODY, GEORGIA USA",,
5394,HINDU TEMPLE OF DUNWOODY,2029 PERNOSHAL CT,DUNWOODY,GEORGIA,USA,"2029 PERNOSHAL CT DUNWOODY, GEORGIA USA",,
5396,LOVE HOTEL MANAGEMENT COMPANY,1050 CROWN POINTE PKWY 960,DUNWOODY,GEORGIA,USA,"1050 CROWN POINTE PKWY 960 DUNWOODY, GEORGIA USA",,
5397,LOVE INVESTMENT COMPANY,1050 CROWN POINTE PKWY 960,DUNWOODY,GEORGIA,USA,"1050 CROWN POINTE PKWY 960 DUNWOODY, GEORGIA USA",,
5398,"PIANOSFOREDUCATION.ORG, INC",1263 FAIRFIELD EAST,DUNWOODY,GEORGIA,USA,"1263 FAIRFIELD EAST DUNWOODY, GEORGIA USA",,
5399,"TREETOP QUEST DUNWOODY, LLC",4770 N PEACHTREE RD,DUNWOODY,GEORGIA,USA,"4770 N PEACHTREE RD DUNWOODY, GEORGIA USA",,
5400,MCRAE BERTSCHI & COLE LLC,1350 CENTER DR 200,DUNWOODY,GEORGIA,USA,"1350 CENTER DR 200 DUNWOODY, GEORGIA USA",,
5401,MOSQUITO JOE,7 DUNWOODY PARK 105,DUNWOODY,GEORGIA,USA,"7 DUNWOODY PARK 105 DUNWOODY, GEORGIA USA",,
5408,TRUE WORTH PROPERTY LLC,4675 N SHALLOWFORD RD 104,DUNWOODY,GEORGIA,USA,"4675 N SHALLOWFORD RD 104 DUNWOODY, GEORGIA USA",,
5409,SAFARI HOME BUYERS LLC,4675 N SHALLOWFORD RD 109,DUNWOODY,GEORGIA,USA,"4675 N SHALLOWFORD RD 109 DUNWOODY, GEORGIA USA",,
5410,"SCIMENTUM, INC",2 RAVINIA DR 600,DUNWOODY,GEORGIA,USA,"2 RAVINIA DR 600 DUNWOODY, GEORGIA USA",,
5416,PURE BARRE DUNWOODY,5539 CHAMBLEE DUNWOODY RD,DUNWOODY,GEORGIA,USA,"5539 CHAMBLEE DUNWOODY RD DUNWOODY, GEORGIA USA",,
5417,IIICAREER,1050 CROWN POINTE PKWY 975,DUNWOODY,GEORGIA,USA,"1050 CROWN POINTE PKWY 975 DUNWOODY, GEORGIA USA",,
5418,"RIGHTPATIENT, LLC",1050 CROWN POINTE PKWY 850,DUNWOODY,GEORGIA,USA,"1050 CROWN POINTE PKWY 850 DUNWOODY, GEORGIA USA",,
5419,"COINSTAR, LLC",5025 WINTERS CHAPEL RD,DUNWOODY,GEORGIA,USA,"5025 WINTERS CHAPEL RD DUNWOODY, GEORGIA USA",,
5420,"COINSTAR, LLC",4725 ASHFORD DUNWOODY RD,DUNWOODY,GEORGIA,USA,"4725 ASHFORD DUNWOODY RD DUNWOODY, GEORGIA USA",,
5421,"COINSTAR, LLC",4498 CHAMBLEE DUNWOODY RD,DUNWOODY,GEORGIA,USA,"4498 CHAMBLEE DUNWOODY RD DUNWOODY, GEORGIA USA",,
5422,"BORNELUS INSURANCE AGENCY, IN",3 DUNWOODY PARK 121,DUNWOODY,GEORGIA,USA,"3 DUNWOODY PARK 121 DUNWOODY, GEORGIA USA",,
5430,SALON COCO COIF,4705 ASHFORD DUNWOODY RD 10,DUNWOODY,GEORGIA,USA,"4705 ASHFORD DUNWOODY RD 10 DUNWOODY, GEORGIA USA",,
5432,IVOX INC,5501 PERIMETER LOFTS CIR,DUNWOODY,GEORGIA,USA,"5501 PERIMETER LOFTS CIR DUNWOODY, GEORGIA USA",,
5435,PEACH CLEANERS,3 RAVINIA DR 180,DUNWOODY,GEORGIA,USA,"3 RAVINIA DR 180 DUNWOODY, GEORGIA USA",,
5438,"REST, RELAX & REWIND, LLC",1750 OLD SPRING HOUSE LN 200A,DUNWOODY,GEORGIA,USA,"1750 OLD SPRING HOUSE LN 200A DUNWOODY, GEORGIA USA",,
5439,TUMI STORES INC,4400 ASHFORD DUNWOODY RD 5548,DUNWOODY,GEORGIA,USA,"4400 ASHFORD DUNWOODY RD 5548 DUNWOODY, GEORGIA USA",,
5440,JON BAKER FINANCIAL GROUP,1050 CROWN POINTE PKWY 1590,DUNWOODY,GEORGIA,USA,"1050 CROWN POINTE PKWY 1590 DUNWOODY, GEORGIA USA",,
5442,CHARISMA HAIR SALON,5484 CHAMBLEE DUNWOODY RD 19,DUNWOODY,GEORGIA,USA,"5484 CHAMBLEE DUNWOODY RD 19 DUNWOODY, GEORGIA USA",,
5447,HUNT MORTGAGE GROUP LLC,1 RAVINIA DR 625,DUNWOODY,GEORGIA,USA,"1 RAVINIA DR 625 DUNWOODY, GEORGIA USA",,
5448,AT&T AUTHORIZED RETAILER #851,4400 ASHFORD DUNWOODY RD 2215,DUNWOODY,GEORGIA,USA,"4400 ASHFORD DUNWOODY RD 2215 DUNWOODY, GEORGIA USA",,
5449,ANGELFIRE7 BBQ,4770 N PEACHTREE RD,DUNWOODY,GEORGIA,USA,"4770 N PEACHTREE RD DUNWOODY, GEORGIA USA",,
5451,IMORTGAGE,115 PERIMETER CENTER PL 800,DUNWOODY,GEORGIA,USA,"115 PERIMETER CENTER PL 800 DUNWOODY, GEORGIA USA",,
5452,"BARRY LEVIN & ASSOCIATES, INC",301 PERIMETER CENTER N 100,DUNWOODY,GEORGIA,USA,"301 PERIMETER CENTER N 100 DUNWOODY, GEORGIA USA",,
5454,"MEYER OPTIK USA, .",11 DUNWOODY PARK 145,DUNWOODY,GEORGIA,USA,"11 DUNWOODY PARK 145 DUNWOODY, GEORGIA USA",,
5457,KAY WIRELESS & NOVELTY INC,4931 ASHFORD DUNWOODY RD,DUNWOODY,GEORGIA,USA,"4931 ASHFORD DUNWOODY RD DUNWOODY, GEORGIA USA",,
5458,"PT SOLUTIONS HOLDINGS, LLC",4516 B CHAMBLEE DUNWOODY RD 22,DUNWOODY,GEORGIA,USA,"4516 B CHAMBLEE DUNWOODY RD 22 DUNWOODY, GEORGIA USA",,
5461,LENNY'S SUB SHOP,4511 OLDE PERIMETER WAY 700,DUNWOODY,GEORGIA,USA,"4511 OLDE PERIMETER WAY 700 DUNWOODY, GEORGIA USA",,
5469,ATLANTA FAMILY COUNSELING,1867 INDEPENDENCE SQ 200,DUNWOODY,GEORGIA,USA,"1867 INDEPENDENCE SQ 200 DUNWOODY, GEORGIA USA",,
5470,GA LATINO ALLIANCE HUMAN RIGH,7 DUNWOODY PARK 110,DUNWOODY,GEORGIA,USA,"7 DUNWOODY PARK 110 DUNWOODY, GEORGIA USA",,
5471,"TECHLAW, INC",1050 CROWN POINTE PKWY 920,DUNWOODY,GEORGIA,USA,"1050 CROWN POINTE PKWY 920 DUNWOODY, GEORGIA USA",,
5472,TESCOM USA,400 PERIMETER CENTER TER 900,DUNWOODY,GEORGIA,USA,"400 PERIMETER CENTER TER 900 DUNWOODY, GEORGIA USA",,
5473,"MED REHAB SPECIALIST, P.A.",400 PERIMETER CNTR TERR 900,DUNWOODY,GEORGIA,USA,"400 PERIMETER CNTR TERR 900 DUNWOODY, GEORGIA USA",,
5474,JACKSON PIERCE PUBLIC AFFAIRS,41 PERIMETER CENTER E 650,DUNWOODY,GEORGIA,USA,"41 PERIMETER CENTER E 650 DUNWOODY, GEORGIA USA",,
5476,SOUTHERN INS ASSOC OF DUNWOOD,2394 MT. VERNON RD 150,DUNWOODY,GEORGIA,USA,"2394 MT. VERNON RD 150 DUNWOODY, GEORGIA USA",,
5481,GILLY'S,4343 DUNWOODY PARK K,DUNWOODY,GEORGIA,USA,"4343 DUNWOODY PARK K DUNWOODY, GEORGIA USA",,
5482,"COLLEEN J. TAYLOR, PH.D",1830 INDEPENDENCE SQUARE A,DUNWOODY,GEORGIA,USA,"1830 INDEPENDENCE SQUARE A DUNWOODY, GEORGIA USA",,
5486,LIFE FIT EXERCISE STUDIO,4470 CHAMBLEE DUNWOODY RD 460,DUNWOODY,GEORGIA,USA,"4470 CHAMBLEE DUNWOODY RD 460 DUNWOODY, GEORGIA USA",,
5489,WING FACTORY,5500 CHAMBLEE DUNWOODY RD 3-A,DUNWOODY,GEORGIA,USA,"5500 CHAMBLEE DUNWOODY RD 3-A DUNWOODY, GEORGIA USA",,
5492,DUNWOODY SPEECH & FEEDING,1720 OLD SPRING HOUSE LAN 302,DUNWOODY,GEORGIA,USA,"1720 OLD SPRING HOUSE LAN 302 DUNWOODY, GEORGIA USA",,
5498,UNCLE MADDIO'S PIZZA JOINT,4745 ASHFORD DUNWOODY RD C,DUNWOODY,GEORGIA,USA,"4745 ASHFORD DUNWOODY RD C DUNWOODY, GEORGIA USA",,
5507,BHARATH GROCERIES,4719 ASHFORD DUNWOODY RD 202B,DUNWOODY,GEORGIA,USA,"4719 ASHFORD DUNWOODY RD 202B DUNWOODY, GEORGIA USA",,
5509,THE BRASS TAP,4505 ASHFORD DUNWOODY RD 32,DUNWOODY,GEORGIA,USA,"4505 ASHFORD DUNWOODY RD 32 DUNWOODY, GEORGIA USA",,
5517,"JKABA, LLC",4828 ASHFORD DUNWOODY RD,DUNWOODY,GEORGIA,USA,"4828 ASHFORD DUNWOODY RD DUNWOODY, GEORGIA USA",,
5518,THE LONDON,350 PERIMETER CENTER N,DUNWOODY,GEORGIA,USA,"350 PERIMETER CENTER N DUNWOODY, GEORGIA USA",,
5522,"DAVACO, INC",4400 ASHFORD DUNWOODY RD 5548,DUNWOODY,GEORGIA,USA,"4400 ASHFORD DUNWOODY RD 5548 DUNWOODY, GEORGIA USA",,
5524,ATLANTA PSYCHIATRY & SLEEP ME,2150 PEACHFORD RD. T,DUNWOODY,GEORGIA,USA,"2150 PEACHFORD RD. T DUNWOODY, GEORGIA USA",,
5527,BONEHEADS,4511 OLDE PERIMETER WAY 100,DUNWOODY,GEORGIA,USA,"4511 OLDE PERIMETER WAY 100 DUNWOODY, GEORGIA USA",,
5531,PERFECT ACCESSORYS,1770 OLD SPRINGHOUSE LN 110,DUNWOODY,GEORGIA,USA,"1770 OLD SPRINGHOUSE LN 110 DUNWOODY, GEORGIA USA",,
5532,CRH CANADA FINANCE LUXEMBOURG,900 ASHWOOD PARKWAY 600,DUNWOODY,GEORGIA,USA,"900 ASHWOOD PARKWAY 600 DUNWOODY, GEORGIA USA",,
5534,TASTEE SPOON INC.,4400 ASHFORD DUNWOODY RD 1405,DUNWOODY,GEORGIA,USA,"4400 ASHFORD DUNWOODY RD 1405 DUNWOODY, GEORGIA USA",,
5535,WICHMAN INTERGRATIVE MEDICAL,4426 TILLY MILL RD,DUNWOODY,GEORGIA,USA,"4426 TILLY MILL RD DUNWOODY, GEORGIA USA",,
5539,S COUTURE SALON,1770 OLD SPRING HOUSE LN 107,DUNWOODY,GEORGIA,USA,"1770 OLD SPRING HOUSE LN 107 DUNWOODY, GEORGIA USA",,
5543,THE PHOENIX AT DUNWOODY,4484 N. SHALLOWFORD RD,DUNWOODY,GEORGIA,USA,"4484 N. SHALLOWFORD RD DUNWOODY, GEORGIA USA",,
5546,"MAXIM HEALTHCARE SERVICES, IN",211 PERIMETER CENTER PKY 200,DUNWOODY,GEORGIA,USA,"211 PERIMETER CENTER PKY 200 DUNWOODY, GEORGIA USA",,
5549,FLATS AT PERIMETER PLACE,60 PERIMETER CENTER PL,DUNWOODY,GEORGIA,USA,"60 PERIMETER CENTER PL DUNWOODY, GEORGIA USA",,
5550,FLATS AT PERIMETER GARDENS,100 AZALEA GARDEN DRIVE,DUNWOODY,GEORGIA,USA,"100 AZALEA GARDEN DRIVE DUNWOODY, GEORGIA USA",,
5553,UNDER THE PECAN TREE,5482 CHAMBLEE DUNWOODY RD 27-A,DUNWOODY,GEORGIA,USA,"5482 CHAMBLEE DUNWOODY RD 27-A DUNWOODY, GEORGIA USA",,
5557,BEYOND STUDIO SALON,1151 HAMMOND DRIVE ST 200 106,DUNWOODY,GEORGIA,USA,"1151 HAMMOND DRIVE ST 200 106 DUNWOODY, GEORGIA USA",,
5560,PCE ATLANTA OFFICE LLC,"41, 47,53 PERIMETER CENTER E",DUNWOODY,GEORGIA,USA,"41, 47,53 PERIMETER CENTER E DUNWOODY, GEORGIA USA",,
5561,"GRUBB MANAGEMENT, INC","41,47,53 PERIMETER CENTER E",DUNWOODY,GEORGIA,USA,"41,47,53 PERIMETER CENTER E DUNWOODY, GEORGIA USA",,
5562,PACIFIC KITCHEN AND HOME #503,1201 HAMMOND DR. C,DUNWOODY,GEORGIA,USA,"1201 HAMMOND DR. C DUNWOODY, GEORGIA USA",,
5565,CFA AT PERIMETER AT HAMMOND,4350 ASHFORD DUNWOODY RD,DUNWOODY,GEORGIA,USA,"4350 ASHFORD DUNWOODY RD DUNWOODY, GEORGIA USA",,
5566,"BLUEBIRD HOMECARE OF GA, INC.",303 PERIMETER CENTER N 300,DUNWOODY,GEORGIA,USA,"303 PERIMETER CENTER N 300 DUNWOODY, GEORGIA USA",,
5567,THE COCA COLA COMPANY,40 PERIMETER CENTER E.,DUNWOODY,GEORGIA,USA,"40 PERIMETER CENTER E. DUNWOODY, GEORGIA USA",,
5572,DUNWOODY NORTHEAST DENTISTRY,4675 N. SHALLOWFORD RD 118,DUNWOODY,GEORGIA,USA,"4675 N. SHALLOWFORD RD 118 DUNWOODY, GEORGIA USA",,
5574,FCN MEDICAL GROUP LLC,303 PERIMETER CENTER N. 300,DUNWOODY,GEORGIA,USA,"303 PERIMETER CENTER N. 300 DUNWOODY, GEORGIA USA",,
5576,LINCOLN LUXURY,4400 ASHFORD DUNWOODY RD 5549,DUNWOODY,GEORGIA,USA,"4400 ASHFORD DUNWOODY RD 5549 DUNWOODY, GEORGIA USA",,
5580,"RUIN, INC.",5521 CHAMBLEE DUNWOODY RD,DUNWOODY,GEORGIA,USA,"5521 CHAMBLEE DUNWOODY RD DUNWOODY, GEORGIA USA",,
5585,SALON LUSINE,1151 HAMMOND DR. NE 200 129,DUNWOODY,GEORGIA,USA,"1151 HAMMOND DR. NE 200 129 DUNWOODY, GEORGIA USA",,
5587,MCCI MEDICAL GROUP,1200 ASHWOOD PARKWAY 540,DUNWOODY,GEORGIA,USA,"1200 ASHWOOD PARKWAY 540 DUNWOODY, GEORGIA USA",,
5589,"G. BUCKALEW CAPITAL, LLC",115 PERIMETER CENTER PL 920,DUNWOODY,GEORGIA,USA,"115 PERIMETER CENTER PL 920 DUNWOODY, GEORGIA USA",,
5590,THE SHANE GROUP,1151 HAMMOND DRIVE 240,DUNWOODY,GEORGIA,USA,"1151 HAMMOND DRIVE 240 DUNWOODY, GEORGIA USA",,
5594,SUNBELT BUSINESS BROKERS,4470 CHAMBLEE DUNWOODY RD 460,DUNWOODY,GEORGIA,USA,"4470 CHAMBLEE DUNWOODY RD 460 DUNWOODY, GEORGIA USA",,
5597,RAISE YOUR VOICE,1874 INDEPENDENCE SQUARE B,DUNWOODY,GEORGIA,USA,"1874 INDEPENDENCE SQUARE B DUNWOODY, GEORGIA USA",,
5598,"PRIME COMMUNICATIONS, LP",2488 MT. VERNON RD.,DUNWOODY,GEORGIA,USA,"2488 MT. VERNON RD. DUNWOODY, GEORGIA USA",,
5606,WINTERS CHAPEL KINDERGARTEN,4942 WINTERS CHAPEL RD.,DUNWOODY,GEORGIA,USA,"4942 WINTERS CHAPEL RD. DUNWOODY, GEORGIA USA",,
5610,ALL DOLLAR STORE INC.,6806 PEACHTREE INDUSTRIAL C,DUNWOODY,GEORGIA,USA,"6806 PEACHTREE INDUSTRIAL C DUNWOODY, GEORGIA USA",,
5614,ATLANTA DUPLICATE BRIDGE CLUB,5 DUNWOODY PARK 118,DUNWOODY,GEORGIA,USA,"5 DUNWOODY PARK 118 DUNWOODY, GEORGIA USA",,
5617,SPORTS ZONE,4400 ASHFORD DUNWOODY RD 5570,DUNWOODY,GEORGIA,USA,"4400 ASHFORD DUNWOODY RD 5570 DUNWOODY, GEORGIA USA",,
5618,"ICONIC GROUP, INC",4400 ASHFORD DUNWOODY RD 5548,DUNWOODY,GEORGIA,USA,"4400 ASHFORD DUNWOODY RD 5548 DUNWOODY, GEORGIA USA",,
5621,PHONE SPA,4400 ASHFORD DUNWOODY RD 5548,DUNWOODY,GEORGIA,USA,"4400 ASHFORD DUNWOODY RD 5548 DUNWOODY, GEORGIA USA",,
5623,EXPRESS FOODMART,4939 WINTERS CHAPEL RD 500,DUNWOODY,GEORGIA,USA,"4939 WINTERS CHAPEL RD 500 DUNWOODY, GEORGIA USA",,
5626,BURGER KING #4133,5468 CHAMBLEE DUNWOODY RD,DUNWOODY,GEORGIA,USA,"5468 CHAMBLEE DUNWOODY RD DUNWOODY, GEORGIA USA",,
5627,BURGER KING #5385,4537 CHAMBLEE DUNWOODY RD,DUNWOODY,GEORGIA,USA,"4537 CHAMBLEE DUNWOODY RD DUNWOODY, GEORGIA USA",,
5628,CHICK-FIL-A PERIMETER MALL,4400 ASHFORD DUNWOODY RD,DUNWOODY,GEORGIA,USA,"4400 ASHFORD DUNWOODY RD DUNWOODY, GEORGIA USA",,
5631,ETJ (ENJOY THE JOURNEY),4400 ASHFORD DUNWOODY RD 6545,DUNWOODY,GEORGIA,USA,"4400 ASHFORD DUNWOODY RD 6545 DUNWOODY, GEORGIA USA",,
5633,BAYBOL PEDIATRICS,5 DUNWOODY PARK 113,DUNWOODY,GEORGIA,USA,"5 DUNWOODY PARK 113 DUNWOODY, GEORGIA USA",,
5634,"LEE BRANT WATCH CO., INC.",127 PERIMETER CENTER W C,DUNWOODY,GEORGIA,USA,"127 PERIMETER CENTER W C DUNWOODY, GEORGIA USA",,
5636,OBERWERTH INC.,11 DUNWOODY PARK 145,DUNWOODY,GEORGIA,USA,"11 DUNWOODY PARK 145 DUNWOODY, GEORGIA USA",,
5637,FSP TWO RAVINIA DRIVE LLC,TWO RAVINIA DRIVE,DUNWOODY,GEORGIA,USA,"TWO RAVINIA DRIVE DUNWOODY, GEORGIA USA",,
5649,PROVIDENCE WOMENS HEALTH CARE,2398 MT VERNON RD,DUNWOODY,GEORGIA,USA,"2398 MT VERNON RD DUNWOODY, GEORGIA USA",,
5650,"EASY SOLUTIONS, INC.",2 RAVINIA DR 410,DUNWOODY,GEORGIA,USA,"2 RAVINIA DR 410 DUNWOODY, GEORGIA USA",,
5651,LAW OFFICE OF GENEVIEVE H DAM,1872 INDEPENDENCE SQUARE B,DUNWOODY,GEORGIA,USA,"1872 INDEPENDENCE SQUARE B DUNWOODY, GEORGIA USA",,
5652,FIRST CLINICAL NETWORK,303 PERIMETER CENTER N 300,DUNWOODY,GEORGIA,USA,"303 PERIMETER CENTER N 300 DUNWOODY, GEORGIA USA",,
5661,SEASON'S 52 #4507,90 PERIMETER CENTER W,DUNWOODY,GEORGIA,USA,"90 PERIMETER CENTER W DUNWOODY, GEORGIA USA",,
5665,NEWK'S EATERY,1181 HAMMOND DR NE 1000,DUNWOODY,GEORGIA,USA,"1181 HAMMOND DR NE 1000 DUNWOODY, GEORGIA USA",,
5666,DATA EMISSIONS,5020 WINTERS CHAPEL ROAD,DUNWOODY,GEORGIA,USA,"5020 WINTERS CHAPEL ROAD DUNWOODY, GEORGIA USA",,
5669,CYCLE BAR,4794 ASHFORD DUNWOODY RD,DUNWOODY,GEORGIA,USA,"4794 ASHFORD DUNWOODY RD DUNWOODY, GEORGIA USA",,
5676,CORNER BAKERY CAFE,4585 ASHFROD DUNWOODY RD.,DUNWOODY,GEORGIA,USA,"4585 ASHFROD DUNWOODY RD. DUNWOODY, GEORGIA USA",,
5677,PUB GRADE INC.,11 DUNWOODY PARK 145,DUNWOODY,GEORGIA,USA,"11 DUNWOODY PARK 145 DUNWOODY, GEORGIA USA",,
5678,VALERIE'S SALON,4705 ASHFORD DUNWOODY RD 6,DUNWOODY,GEORGIA,USA,"4705 ASHFORD DUNWOODY RD 6 DUNWOODY, GEORGIA USA",,
5680,MINI MART TIENDA,6890 PEACHTREE IND BLVD 3B,DUNWOODY,GEORGIA,USA,"6890 PEACHTREE IND BLVD 3B DUNWOODY, GEORGIA USA",,
5688,AEGIS GROUP PRACTICE LLC,4484 N SHALLOWFORD RD,DUNWOODY,GEORGIA,USA,"4484 N SHALLOWFORD RD DUNWOODY, GEORGIA USA",,
5689,"SUPERSYSTEMS HEALTH, LLC",1534 DUNWOODY VILLAGE PKW 100,DUNWOODY,GEORGIA,USA,"1534 DUNWOODY VILLAGE PKW 100 DUNWOODY, GEORGIA USA",,
5690,ESSENTIA NATURAL MEMORY FOAM,4400 ASHFORD DUNWOODY RD 2492,DUNWOODY,GEORGIA,USA,"4400 ASHFORD DUNWOODY RD 2492 DUNWOODY, GEORGIA USA",,
5691,"SANTA ROSA ENTERPRISES, INC",3 DUNWOODY PARK 103,DUNWOODY,GEORGIA,USA,"3 DUNWOODY PARK 103 DUNWOODY, GEORGIA USA",,
5694,"MODIS E&T, LLC",1040 CROWN POINTE PKWY 810,DUNWOODY,GEORGIA,USA,"1040 CROWN POINTE PKWY 810 DUNWOODY, GEORGIA USA",,
5695,SKIN AFFAIR,4468 CHAMBLEE DUNWOODY RD,DUNWOODY,GEORGIA,USA,"4468 CHAMBLEE DUNWOODY RD DUNWOODY, GEORGIA USA",,
5699,HALEH'S STUDIO,1151 HAMMOND DRIVE NE 200 103,DUNWOODY,GEORGIA,USA,"1151 HAMMOND DRIVE NE 200 103 DUNWOODY, GEORGIA USA",,
5701,HAPPY COIN LAUNDRY,6806 PEACHTREE IND BLVD 1-A,DUNWOODY,GEORGIA,USA,"6806 PEACHTREE IND BLVD 1-A DUNWOODY, GEORGIA USA",,
5705,GEORGIA EXPRESS TAXI,4470 CHAMBLEE DUNWOODY RD 305,DUNWOODY,GEORGIA,USA,"4470 CHAMBLEE DUNWOODY RD 305 DUNWOODY, GEORGIA USA",,
5706,"DAYNINE CONSULTING, INC",2 RAVINIA DRIVE 1205,DUNWOODY,GEORGIA,USA,"2 RAVINIA DRIVE 1205 DUNWOODY, GEORGIA USA",,
5708,HIBACHI WORLD,47 PERIMTER CENTER E,DUNWOODY,GEORGIA,USA,"47 PERIMTER CENTER E DUNWOODY, GEORGIA USA",,
5711,"IRM TECHNOLOGY CONSULTING, IN",1876 INDEPENDENCE SQ E,DUNWOODY,GEORGIA,USA,"1876 INDEPENDENCE SQ E DUNWOODY, GEORGIA USA",,
5713,FRAN MILLAR LLC,1862 INDEPENDENCE SQUARE A,DUNWOODY,GEORGIA,USA,"1862 INDEPENDENCE SQUARE A DUNWOODY, GEORGIA USA",,
5716,DUNWOODY FOOD MART,4639 N SHALLOWFORD RD,DUNWOODY,GEORGIA,USA,"4639 N SHALLOWFORD RD DUNWOODY, GEORGIA USA",,
5718,AMERICA'S BEST CONTACTS & EYE,4745 ASHFORD DUNWOODY RD E,DUNWOODY,GEORGIA,USA,"4745 ASHFORD DUNWOODY RD E DUNWOODY, GEORGIA USA",,
5719,WHAT WAIST,4400 ASHFORD DUNWOODY RD,DUNWOODY,GEORGIA,USA,"4400 ASHFORD DUNWOODY RD DUNWOODY, GEORGIA USA",,
5721,"PM UNLIMITED, LLC",47 PERIMETER CENTER EAS 460,DUNWOODY,GEORGIA,USA,"47 PERIMETER CENTER EAS 460 DUNWOODY, GEORGIA USA",,
5722,"DUNWOODY MED SPA, LLC",1611 MOUNT VERNON RD,DUNWOODY,GEORGIA,USA,"1611 MOUNT VERNON RD DUNWOODY, GEORGIA USA",,
5725,STUDIO 4515 SALON,4515 CHAMBLEE DUNWOODY RD 200,DUNWOODY,GEORGIA,USA,"4515 CHAMBLEE DUNWOODY RD 200 DUNWOODY, GEORGIA USA",,
5729,"IN & OUT TAX SERVICE, INC",4947 WINTERS CHAPEL RD 6,DUNWOODY,GEORGIA,USA,"4947 WINTERS CHAPEL RD 6 DUNWOODY, GEORGIA USA",,
5731,KAPLAN INTELLECTUAL PROPERTY,2310 PEACHFORD ROAD,DUNWOODY,GEORGIA,USA,"2310 PEACHFORD ROAD DUNWOODY, GEORGIA USA",,
5735,JEFFERSON AT PERIMETER,4867 ASHFORD DUNWOODY RD,DUNWOODY,GEORGIA,USA,"4867 ASHFORD DUNWOODY RD DUNWOODY, GEORGIA USA",,
5736,BADGE PASS INC,3 DUNWOODY PLACE 112,DUNWOODY,GEORGIA,USA,"3 DUNWOODY PLACE 112 DUNWOODY, GEORGIA USA",,
5738,THE WOODHOUSE DAY SPA,4400 ASHFORD DUNWOODY RD 1805,DUNWOODY,GEORGIA,USA,"4400 ASHFORD DUNWOODY RD 1805 DUNWOODY, GEORGIA USA",,
5743,CITY NAILS BAR,2492 MT VERNON RD A,DUNWOODY,GEORGIA,USA,"2492 MT VERNON RD A DUNWOODY, GEORGIA USA",,
5744,SCIENTIFIC IMAGIN AND VISUALI,2498 JETT FERRY RD 101,DUNWOODY,GEORGIA,USA,"2498 JETT FERRY RD 101 DUNWOODY, GEORGIA USA",,
5745,REVIVAL HAIR BOUTIQUE SALON,4705 ASHFORD DUNWOODY RD A,DUNWOODY,GEORGIA,USA,"4705 ASHFORD DUNWOODY RD A DUNWOODY, GEORGIA USA",,
5748,DELONG HANDY LLC,5582 CHAMBLEE DUNWOODY,DUNWOODY,GEORGIA,USA,"5582 CHAMBLEE DUNWOODY DUNWOODY, GEORGIA USA",,
5749,2ENGAGE FINANCIAL MEDIA,400 PERIMETER CTR TERR N,DUNWOODY,GEORGIA,USA,"400 PERIMETER CTR TERR N DUNWOODY, GEORGIA USA",,
5753,DOCTOR'S EXCHANGE OF GA PC,4745 ASHFORD DUNWOODY RD E,DUNWOODY,GEORGIA,USA,"4745 ASHFORD DUNWOODY RD E DUNWOODY, GEORGIA USA",,
5755,PRESTIGE URGENT CARE CENTER,1745 OLD SPRINGHOUSE LANE 440,DUNWOODY,GEORGIA,USA,"1745 OLD SPRINGHOUSE LANE 440 DUNWOODY, GEORGIA USA",,
5768,MEDI-WEIGHTLOSS,5475 CHAMBLLEE DUNWOODY R,DUNWOODY,GEORGIA,USA,"5475 CHAMBLLEE DUNWOODY R DUNWOODY, GEORGIA USA",,
5769,ZAZEN PHOTO,2683 FLEUR DE LIS PLACE,DUNWOODY,GEORGIA,USA,"2683 FLEUR DE LIS PLACE DUNWOODY, GEORGIA USA",,
5770,THE LAWRENCE AGENCY,2498 JETT FERRY RD 102,DUNWOODY,GEORGIA,USA,"2498 JETT FERRY RD 102 DUNWOODY, GEORGIA USA",,
5771,DUNWOODY NAILS,4522 CHAMBLEE DUNWOODY RD,DUNWOODY,GEORGIA,USA,"4522 CHAMBLEE DUNWOODY RD DUNWOODY, GEORGIA USA",,
5772,"NECTAR FOODS TWO, INC",2 RAVINIA DR,DUNWOODY,GEORGIA,USA,"2 RAVINIA DR DUNWOODY, GEORGIA USA",,
5773,SALON SAMIRAH,4705 ASHFORD DUNWOODY RD 21,DUNWOODY,GEORGIA,USA,"4705 ASHFORD DUNWOODY RD 21 DUNWOODY, GEORGIA USA",,
5774,CARTER'S/OSHKOSH B'GOSH,4737-A ASHFORD DUNWOODY RD BOH,DUNWOODY,GEORGIA,USA,"4737-A ASHFORD DUNWOODY RD BOH DUNWOODY, GEORGIA USA",,
5775,EAGLE HOME MORTGAGE,1050 CROWN POINTE PARKWAY 800,DUNWOODY,GEORGIA,USA,"1050 CROWN POINTE PARKWAY 800 DUNWOODY, GEORGIA USA",,
5776,CMC ATLANTA/L5 MUSIC CENTER,5518 CHAMBLEE DUNWOODY RD,DUNWOODY,GEORGIA,USA,"5518 CHAMBLEE DUNWOODY RD DUNWOODY, GEORGIA USA",,
5777,PRE-VAIL NATURAL HAIR SALON,1151 HAMMOND DR NE 200 119,DUNWOODY,GEORGIA,USA,"1151 HAMMOND DR NE 200 119 DUNWOODY, GEORGIA USA",,
5779,"R2T, INC",1841 PEELER RD D,DUNWOODY,GEORGIA,USA,"1841 PEELER RD D DUNWOODY, GEORGIA USA",,
5781,CASTLES TECHNOLOGY INTERNATIO,53 PERIMETER CENTR EAST 275,DUNWOODY,GEORGIA,USA,"53 PERIMETER CENTR EAST 275 DUNWOODY, GEORGIA USA",,
5783,SOJA FASHION,4400 ASHFORD DUNWOODY RD,DUNWOODY,GEORGIA,USA,"4400 ASHFORD DUNWOODY RD DUNWOODY, GEORGIA USA",,
5784,COLTIN ELECTRICAL SERVICES LL,4695 DUNWOODY RD,DUNWOODY,GEORGIA,USA,"4695 DUNWOODY RD DUNWOODY, GEORGIA USA",,
5785,CROWN DIAMOND,1200 ASHWOOD PARKWAY 405,DUNWOODY,GEORGIA,USA,"1200 ASHWOOD PARKWAY 405 DUNWOODY, GEORGIA USA",,
5786,CLIFTONLARSONALLEN LLP,1834 INDEPENDENCE SQUARE,DUNWOODY,GEORGIA,USA,"1834 INDEPENDENCE SQUARE DUNWOODY, GEORGIA USA",,
5790,"BOHLER ENGINEERING GA, LLC",211 PERIMETER CTR PKWY N 1070,DUNWOODY,GEORGIA,USA,"211 PERIMETER CTR PKWY N 1070 DUNWOODY, GEORGIA USA",,
5792,SOUTHERN TALENT MANAGEMENT,303 PERIMETER CENTER N 300,DUNWOODY,GEORGIA,USA,"303 PERIMETER CENTER N 300 DUNWOODY, GEORGIA USA",,
5793,"NEA, INC",100 ASHFORD CENTER NORTH 300,DUNWOODY,GEORGIA,USA,"100 ASHFORD CENTER NORTH 300 DUNWOODY, GEORGIA USA",,
5794,VESI KAY'S BOUTIQUE,1151 HAMMOND DRIVE NE,DUNWOODY,GEORGIA,USA,"1151 HAMMOND DRIVE NE DUNWOODY, GEORGIA USA",,
5796,TOKYO MASSAGE & SPA,4780 ASHFORD DUNWOODY RD 530,DUNWOODY,GEORGIA,USA,"4780 ASHFORD DUNWOODY RD 530 DUNWOODY, GEORGIA USA",,
5800,MATHNASIUM OF DUNWOOY,5552 CHAMBLEE DUNWOODY RD B,DUNWOODY,GEORGIA,USA,"5552 CHAMBLEE DUNWOODY RD B DUNWOODY, GEORGIA USA",,
5802,"CAROL STREAM AMUSEMENTS, INC",4400 ASHFORD DUNWOODY RD,DUNWOODY,GEORGIA,USA,"4400 ASHFORD DUNWOODY RD DUNWOODY, GEORGIA USA",,
5803,"THE PACKAGED GOOD, INC",5517 CHAMBLEE DUNWOODY RD,DUNWOODY,GEORGIA,USA,"5517 CHAMBLEE DUNWOODY RD DUNWOODY, GEORGIA USA",,
5804,GEORGIA BIO BEHAVIORAL ASSOC,4546 BARCLAY DRIVE B,DUNWOODY,GEORGIA,USA,"4546 BARCLAY DRIVE B DUNWOODY, GEORGIA USA",,
5805,THE POINT AT PERIMETER,100 ASHFORD GABLES DR,DUNWOODY,GEORGIA,USA,"100 ASHFORD GABLES DR DUNWOODY, GEORGIA USA",,
5806,TORRID #5498,4400 ASHFORD DUNWOODY RD 1705,DUNWOODY,GEORGIA,USA,"4400 ASHFORD DUNWOODY RD 1705 DUNWOODY, GEORGIA USA",,
5807,MCDONALD'S,4540 ASHFORD DUNWOODY RD,DUNWOODY,GEORGIA,USA,"4540 ASHFORD DUNWOODY RD DUNWOODY, GEORGIA USA",,
5808,CAPE PIES,4770 N PEACHTREE RD,DUNWOODY,GEORGIA,USA,"4770 N PEACHTREE RD DUNWOODY, GEORGIA USA",,
5810,FOGO DE CHAO CHURRASCARIA,4671 ASHFORD DUNWOODY RD,DUNWOODY,GEORGIA,USA,"4671 ASHFORD DUNWOODY RD DUNWOODY, GEORGIA USA",,
5817,FLATBREAD BISTRO,2 RAVINIA DR,DUNWOODY,GEORGIA,USA,"2 RAVINIA DR DUNWOODY, GEORGIA USA",,
5818,HAMPTON INN & SUITES ATL PER,4565 ASHFORD DUNWOODY RD,DUNWOODY,GEORGIA,USA,"4565 ASHFORD DUNWOODY RD DUNWOODY, GEORGIA USA",,
5820,BRODSON CONSTRUCTION,4400 ASHFORD DUNWOODY RD,DUNWOODY,GEORGIA,USA,"4400 ASHFORD DUNWOODY RD DUNWOODY, GEORGIA USA",,
5823,"CHRIS MORRIS & ASSOCIATES, PC",1 DUNWOODY PARK SOUTH 105,DUNWOODY,GEORGIA,USA,"1 DUNWOODY PARK SOUTH 105 DUNWOODY, GEORGIA USA",,
5825,ELITE RADIOLOGY OF GEORGIA,4800 ASHFORD DUNWOODY RD 140,DUNWOODY,GEORGIA,USA,"4800 ASHFORD DUNWOODY RD 140 DUNWOODY, GEORGIA USA",,
5826,TERMINAL VELOCITY AEROSPACE,1050 CROWN POINTE PKWY 1400,DUNWOODY,GEORGIA,USA,"1050 CROWN POINTE PKWY 1400 DUNWOODY, GEORGIA USA",,
5828,KAY JEWELERS #3416,4400 ASHFORD DUNWOODY RD 2065,DUNWOODY,GEORGIA,USA,"4400 ASHFORD DUNWOODY RD 2065 DUNWOODY, GEORGIA USA",,
5849,MARRIOTT ATLANTA PERIMETER CT,246 PERIMETER CTR PKWY NE,DUNWOODY,GEORGIA,USA,"246 PERIMETER CTR PKWY NE DUNWOODY, GEORGIA USA",,
5852,DPPC,2150 PEACHFORD RD V,DUNWOODY,GEORGIA,USA,"2150 PEACHFORD RD V DUNWOODY, GEORGIA USA",,
5853,TEX'S TACOS,188 HOWELL ST NE,DUNWOODY,GEORGIA,USA,"188 HOWELL ST NE DUNWOODY, GEORGIA USA",,
5854,STYLE OF NORCROSS,6890 PEACHTREE INV BLVD 1B,DUNWOODY,GEORGIA,USA,"6890 PEACHTREE INV BLVD 1B DUNWOODY, GEORGIA USA",,
5855,YOUNG MINDS PSYCHIATRY,2150 PEACHFORD RD Q,DUNWOODY,GEORGIA,USA,"2150 PEACHFORD RD Q DUNWOODY, GEORGIA USA",,
5859,TJW SALON STUDIO,1151 HAMMOND DR NE 200 117,DUNWOODY,GEORGIA,USA,"1151 HAMMOND DR NE 200 117 DUNWOODY, GEORGIA USA",,
5860,PAHO FOUNDATION,2 RAVINIA DR 1540,DUNWOODY,GEORGIA,USA,"2 RAVINIA DR 1540 DUNWOODY, GEORGIA USA",,
5865,"I ONE HOME, INC",200 ASHFORD CENTER N 335,DUNWOODY,GEORGIA,USA,"200 ASHFORD CENTER N 335 DUNWOODY, GEORGIA USA",,
5866,LIGHTNING CAR WASH,5020 WINTERS CHAPEL RD,DUNWOODY,GEORGIA,USA,"5020 WINTERS CHAPEL RD DUNWOODY, GEORGIA USA",,
5867,ASPYRETECH INC,1854 INDEPENDENCE SQ C,DUNWOODY,GEORGIA,USA,"1854 INDEPENDENCE SQ C DUNWOODY, GEORGIA USA",,
5869,KIDS FOOT LOCKER #48550,4400 ASHFORD DUNWOODY RD,DUNWOODY,GEORGIA,USA,"4400 ASHFORD DUNWOODY RD DUNWOODY, GEORGIA USA",,
5870,BEST BRAINS,1730 MT VERNON RD N,DUNWOODY,GEORGIA,USA,"1730 MT VERNON RD N DUNWOODY, GEORGIA USA",,
5872,BOX LUNCH,4400 ASHFORD DUNWOODY RD 1595,DUNWOODY,GEORGIA,USA,"4400 ASHFORD DUNWOODY RD 1595 DUNWOODY, GEORGIA USA",,
5874,FLYING LLC,4780 ASHFORD DUNWOODY RD A236,DUNWOODY,GEORGIA,USA,"4780 ASHFORD DUNWOODY RD A236 DUNWOODY, GEORGIA USA",,
5877,SILVERTON MORTGAGE SPECIALIST,4170 ASHFORD DUNWOODY RD 580,DUNWOODY,GEORGIA,USA,"4170 ASHFORD DUNWOODY RD 580 DUNWOODY, GEORGIA USA",,
5878,THE COWFISH ATLANTA,4400 ASHFORD DUNWOODY RD 3010,DUNWOODY,GEORGIA,USA,"4400 ASHFORD DUNWOODY RD 3010 DUNWOODY, GEORGIA USA",,
5880,LAW OFFICES OF VILLARD BASTIE,200 ASHFORD CENTER N 215,DUNWOODY,GEORGIA,USA,"200 ASHFORD CENTER N 215 DUNWOODY, GEORGIA USA",,
5885,"DIVINE SPINE & WELLNESS, LLC",5591 CHAMBLEE DUNWOODY RD 302,DUNWOODY,GEORGIA,USA,"5591 CHAMBLEE DUNWOODY RD 302 DUNWOODY, GEORGIA USA",,
5886,WARREN REFRIGERTION CORP,1340 CENTER DR,DUNWOODY,GEORGIA,USA,"1340 CENTER DR DUNWOODY, GEORGIA USA",,
5888,"IZUNOME ASSOCIATION, USA",9 DUNWOODY PARK 133,DUNWOODY,GEORGIA,USA,"9 DUNWOODY PARK 133 DUNWOODY, GEORGIA USA",,
5889,"STAR PUBLISHING USA, INC",303 PERIMETER CENTER N 300,DUNWOODY,GEORGIA,USA,"303 PERIMETER CENTER N 300 DUNWOODY, GEORGIA USA",,
5890,LA CASA DE LAS TORTAS #2,6900 PEACHTREE IND BLVD A,DUNWOODY,GEORGIA,USA,"6900 PEACHTREE IND BLVD A DUNWOODY, GEORGIA USA",,
5891,EXPERT TECH WORX,3 DUNWOODY PARK 103,DUNWOODY,GEORGIA,USA,"3 DUNWOODY PARK 103 DUNWOODY, GEORGIA USA",,
5892,"S&H SYSTEMS, LLC",100 ASHFORD CENTER NORTH 440,DUNWOODY,GEORGIA,USA,"100 ASHFORD CENTER NORTH 440 DUNWOODY, GEORGIA USA",,
5894,HUNTINGTON LEARNING CENTER,5500 CHAMBLEE DUNWOODY RD 5A,DUNWOODY,GEORGIA,USA,"5500 CHAMBLEE DUNWOODY RD 5A DUNWOODY, GEORGIA USA",,
5896,"THE GC NET LEASE INVESTORS, L",64 PERIMETER CENTER E,DUNWOODY,GEORGIA,USA,"64 PERIMETER CENTER E DUNWOODY, GEORGIA USA",,
5897,THE GC NET LEASE INVESTORS LL,66 PERIMETER CENTER E,DUNWOODY,GEORGIA,USA,"66 PERIMETER CENTER E DUNWOODY, GEORGIA USA",,
5898,"FORD AUDIO-VIDEO SYSTEMS, LLC",236 PERIMETER CENTER PKW,DUNWOODY,GEORGIA,USA,"236 PERIMETER CENTER PKW DUNWOODY, GEORGIA USA",,
5899,"SILVER SUN AUTOS, LLC",2 RAVINIA DR 500,DUNWOODY,GEORGIA,USA,"2 RAVINIA DR 500 DUNWOODY, GEORGIA USA",,
5903,STREET TREATS ATLANTA,4770 N PEACHTREE RD,DUNWOODY,GEORGIA,USA,"4770 N PEACHTREE RD DUNWOODY, GEORGIA USA",,
5909,DOOSAN POWER SERVICES AMERICA,1050 CROWN POINTE PKWY 1200,DUNWOODY,GEORGIA,USA,"1050 CROWN POINTE PKWY 1200 DUNWOODY, GEORGIA USA",,
5912,"JRS FINANCIAL, INC",5 DUNWOODY PARK 101,DUNWOODY,GEORGIA,USA,"5 DUNWOODY PARK 101 DUNWOODY, GEORGIA USA",,
5916,"SEVERN TRENT SERVICES, INC.",41 PERIMETER CENTER EAS 250,DUNWOODY,GEORGIA,USA,"41 PERIMETER CENTER EAS 250 DUNWOODY, GEORGIA USA",,
5917,SELFISH BY MIMI KENNEDY,4719 ASHFORD DUNWOODY RD E,DUNWOODY,GEORGIA,USA,"4719 ASHFORD DUNWOODY RD E DUNWOODY, GEORGIA USA",,
5918,LOLLI AND POPS,4400 ASHFORD DUNWOODY RD 1355,DUNWOODY,GEORGIA,USA,"4400 ASHFORD DUNWOODY RD 1355 DUNWOODY, GEORGIA USA",,
5921,SLEEP NUMBER,4595 ASHFORD DUNWOODY RD A,DUNWOODY,GEORGIA,USA,"4595 ASHFORD DUNWOODY RD A DUNWOODY, GEORGIA USA",,
5922,LOFT XXI,4705 ASHFORD DUNWOODY RD 21,DUNWOODY,GEORGIA,USA,"4705 ASHFORD DUNWOODY RD 21 DUNWOODY, GEORGIA USA",,
5923,SWEET JEANIUS,3300 MARJAN DR,DUNWOODY,GEORGIA,USA,"3300 MARJAN DR DUNWOODY, GEORGIA USA",,
5928,METROPCS,4400 ASHFORD DUNWOODY RD 1360,DUNWOODY,GEORGIA,USA,"4400 ASHFORD DUNWOODY RD 1360 DUNWOODY, GEORGIA USA",,
5929,COMPLETE CARE AT HOME,11 DUNWOODY PARK 140,DUNWOODY,GEORGIA,USA,"11 DUNWOODY PARK 140 DUNWOODY, GEORGIA USA",,
5930,PEACHTREE OFFICES AT PERIMETE,1050 CROWNE POINTE PKWY 500,DUNWOODY,GEORGIA,USA,"1050 CROWNE POINTE PKWY 500 DUNWOODY, GEORGIA USA",,
5932,KNOTTI KNEADS MASSAGE AND SPA,1151 HAMMOND DR. 200,DUNWOODY,GEORGIA,USA,"1151 HAMMOND DR. 200 DUNWOODY, GEORGIA USA",,
5933,DUNWOODY GLEN APARTMENTS,6750 PEACHTREE IND BLVD,DUNWOODY,GEORGIA,USA,"6750 PEACHTREE IND BLVD DUNWOODY, GEORGIA USA",,
5934,LIFE ORTHO PAEDIC AND SPINE,4426 TILLY MILL RD,DUNWOODY,GEORGIA,USA,"4426 TILLY MILL RD DUNWOODY, GEORGIA USA",,
5935,SHAKE SHACK,4400 ASHFORD DUNWOODY RD 3025,DUNWOODY,GEORGIA,USA,"4400 ASHFORD DUNWOODY RD 3025 DUNWOODY, GEORGIA USA",,
5938,THE TILE SHOP,1201 HAMMOND DR B,DUNWOODY,GEORGIA,USA,"1201 HAMMOND DR B DUNWOODY, GEORGIA USA",,
5940,A KOSHER TOUCH,5342 TILLY MILL RD,DUNWOODY,GEORGIA,USA,"5342 TILLY MILL RD DUNWOODY, GEORGIA USA",,
5941,RABBIT CONSULTING LLC,303 PERIMETER CENTER NOR 300,DUNWOODY,GEORGIA,USA,"303 PERIMETER CENTER NOR 300 DUNWOODY, GEORGIA USA",,
5946,LACOTA,6664 PEACHTREE IND BLVD,DUNWOODY,GEORGIA,USA,"6664 PEACHTREE IND BLVD DUNWOODY, GEORGIA USA",,
5947,HOME INSTEAD SENIOR CARE #105,4511 CHAMBLEE DUNWOODY RD A-4,DUNWOODY,GEORGIA,USA,"4511 CHAMBLEE DUNWOODY RD A-4 DUNWOODY, GEORGIA USA",,
5957,PARISA'S SALON,1151 HAMMOND DR NE 200 110,DUNWOODY,GEORGIA,USA,"1151 HAMMOND DR NE 200 110 DUNWOODY, GEORGIA USA",,
5958,"PLANTATION SOUTH DUNWOODY, LL",4594 BARCLAY DR,DUNWOODY,GEORGIA,USA,"4594 BARCLAY DR DUNWOODY, GEORGIA USA",,
5959,"EARLY AUTISM PROJECT, INC",5500 CHAMBLEE DUNWOODY RD,DUNWOODY,GEORGIA,USA,"5500 CHAMBLEE DUNWOODY RD DUNWOODY, GEORGIA USA",,
5960,"INTERNATIONAL GIVING, INC",4561 OLDE PERIMETER WAY 701,DUNWOODY,GEORGIA,USA,"4561 OLDE PERIMETER WAY 701 DUNWOODY, GEORGIA USA",,
5961,CAPSTONE CENTER FOR COUNSELIN,9 DUNWOODY PARK 136,DUNWOODY,GEORGIA,USA,"9 DUNWOODY PARK 136 DUNWOODY, GEORGIA USA",,
5962,"ANDY FRAIN SERVICES, INC",4400 ASHFORD DUNWOODY RD,DUNWOODY,GEORGIA,USA,"4400 ASHFORD DUNWOODY RD DUNWOODY, GEORGIA USA",,
5963,GREAT WRAPS,4400 ASHFORD DUNWOODY RD,DUNWOODY,GEORGIA,USA,"4400 ASHFORD DUNWOODY RD DUNWOODY, GEORGIA USA",,
5967,AXIOM INSURANCE MGMT LTD,1709 MT VERNON RD,DUNWOODY,GEORGIA,USA,"1709 MT VERNON RD DUNWOODY, GEORGIA USA",,
5970,OUMI SUSHI #514,2480 MT VERNON RD,DUNWOODY,GEORGIA,USA,"2480 MT VERNON RD DUNWOODY, GEORGIA USA",,
5973,KINGS FINANCIAL SERVICES,1050 CROWN POINTE PKWY 500,DUNWOODY,GEORGIA,USA,"1050 CROWN POINTE PKWY 500 DUNWOODY, GEORGIA USA",,
5977,COMPASS GROUP/EUREST DINING,236 PERIMETER CENTER PKW,DUNWOODY,GEORGIA,USA,"236 PERIMETER CENTER PKW DUNWOODY, GEORGIA USA",,
5979,MALU,6806 PEACHTREE IND BLVD D,DUNWOODY,GEORGIA,USA,"6806 PEACHTREE IND BLVD D DUNWOODY, GEORGIA USA",,
5980,BELL PERIMETER CENTER,70 PERIMETER CENTER E,DUNWOODY,GEORGIA,USA,"70 PERIMETER CENTER E DUNWOODY, GEORGIA USA",,
5982,VILLAGE ANIMAL CLINIC,1410 DUNWOODY VILLAGE PKW,DUNWOODY,GEORGIA,USA,"1410 DUNWOODY VILLAGE PKW DUNWOODY, GEORGIA USA",,
5988,PASSCO,4000 DUNWOODY PARK,DUNWOODY,GEORGIA,USA,"4000 DUNWOODY PARK DUNWOODY, GEORGIA USA",,
5989,A&A WILDLIFE AND HOME SOLUTIO,303 PERIMETER NORTH 300,DUNWOODY,GEORGIA,USA,"303 PERIMETER NORTH 300 DUNWOODY, GEORGIA USA",,
5990,EL SAGITARIO POOL HALL LLC,6890 PEACHTREE INDUSTRIAL 3-A,DUNWOODY,GEORGIA,USA,"6890 PEACHTREE INDUSTRIAL 3-A DUNWOODY, GEORGIA USA",,
5992,REAL WEIGHT LOSS & WELLNESS A,4553 N. SHALLOWFORD RD C90,DUNWOODY,GEORGIA,USA,"4553 N. SHALLOWFORD RD C90 DUNWOODY, GEORGIA USA",,
5994,TAQUITO EXPRESS,4485 CHAMBLEE DUNWOODY RD,DUNWOODY,GEORGIA,USA,"4485 CHAMBLEE DUNWOODY RD DUNWOODY, GEORGIA USA",,
5995,LATINA FOOD INC,6806 PEACHTREE IND BLVD ABF,DUNWOODY,GEORGIA,USA,"6806 PEACHTREE IND BLVD ABF DUNWOODY, GEORGIA USA",,
5997,SUBWAY #27864,5590 CHAMBLEE DUNWOODY RD 1,DUNWOODY,GEORGIA,USA,"5590 CHAMBLEE DUNWOODY RD 1 DUNWOODY, GEORGIA USA",,
6000,"NORMAN & ASSOCIATES, LLC",115 PERIMETER CENTER PL 100-A,DUNWOODY,GEORGIA,USA,"115 PERIMETER CENTER PL 100-A DUNWOODY, GEORGIA USA",,
6002,"RELAX THE BACK 305, LLC",4530 OLDE PERIMETER WAY 110,DUNWOODY,GEORGIA,USA,"4530 OLDE PERIMETER WAY 110 DUNWOODY, GEORGIA USA",,
6004,MACARON QUEEN,4400 ASHFORD DUNWOODY,DUNWOODY,GEORGIA,USA,"4400 ASHFORD DUNWOODY DUNWOODY, GEORGIA USA",,
6005,JUICE ANALYTICS,100 ASHFORD CENTER N 130,DUNWOODY,GEORGIA,USA,"100 ASHFORD CENTER N 130 DUNWOODY, GEORGIA USA",,
6006,"IMPACT CRYOTHERAPHY, INC",53 PERIMETER CENTER E 230,DUNWOODY,GEORGIA,USA,"53 PERIMETER CENTER E 230 DUNWOODY, GEORGIA USA",,
6009,SUBWAY #67119,4725 ASHFORD DUNWOODY RD,DUNWOODY,GEORGIA,USA,"4725 ASHFORD DUNWOODY RD DUNWOODY, GEORGIA USA",,
6010,COLIN TURNER COUTURE,4400 ASHFORD DUNWOODY RD 2400,DUNWOODY,GEORGIA,USA,"4400 ASHFORD DUNWOODY RD 2400 DUNWOODY, GEORGIA USA",,
6012,"BRICKS PERIMETER CENTER, LLC",302 PERIMETER CENTER N,DUNWOODY,GEORGIA,USA,"302 PERIMETER CENTER N DUNWOODY, GEORGIA USA",,
6014,PIB FOOD INC,"6900 PEACHTREE IND BLVD B,C,D",DUNWOODY,GEORGIA,USA,"6900 PEACHTREE IND BLVD B,C,D DUNWOODY, GEORGIA USA",,
6018,CENTRO DE INFORMACION MULTINI,4947 WINTERS CHAPEL RD 3,DUNWOODY,GEORGIA,USA,"4947 WINTERS CHAPEL RD 3 DUNWOODY, GEORGIA USA",,
6019,EL SAGITARIO,6890 PEACHTREE IND BLVD 6B,DUNWOODY,GEORGIA,USA,"6890 PEACHTREE IND BLVD 6B DUNWOODY, GEORGIA USA",,
6021,"MERCHANTS METALS, LLC",211 PERIMETER CTR PKWY 250,DUNWOODY,GEORGIA,USA,"211 PERIMETER CTR PKWY 250 DUNWOODY, GEORGIA USA",,
6022,ASIAN FUSION CAFE,4957 WINTERS CHAPEL RD,DUNWOODY,GEORGIA,USA,"4957 WINTERS CHAPEL RD DUNWOODY, GEORGIA USA",,
6025,"WARRANTY LOGISTICS, LLC",127 PERIMETER CENTER W B,DUNWOODY,GEORGIA,USA,"127 PERIMETER CENTER W B DUNWOODY, GEORGIA USA",,
6026,DAVINCI'S DONUTS,5537 CHAMBLEE DUNWOODY RD,DUNWOODY,GEORGIA,USA,"5537 CHAMBLEE DUNWOODY RD DUNWOODY, GEORGIA USA",,
6029,SOUTHEAST TELECOM OF GEORGIA,1643 MOUNT VERNON RD,DUNWOODY,GEORGIA,USA,"1643 MOUNT VERNON RD DUNWOODY, GEORGIA USA",,
6030,TOV,4400 ASHFORD DUNWOODY RD 2240,DUNWOODY,GEORGIA,USA,"4400 ASHFORD DUNWOODY RD 2240 DUNWOODY, GEORGIA USA",,
6031,LONGITUDE 84 BAR/PORTICO REST,111 PERIMETER CENTER W,DUNWOODY,GEORGIA,USA,"111 PERIMETER CENTER W DUNWOODY, GEORGIA USA",,
6032,"SCHULTE HOSPITALITY GROUP, IN",111 PERIMETER CENTER W,DUNWOODY,GEORGIA,USA,"111 PERIMETER CENTER W DUNWOODY, GEORGIA USA",,
6035,BIG C'S CHICAGO KITCHEN,47 PERIMETER CENTER E,DUNWOODY,GEORGIA,USA,"47 PERIMETER CENTER E DUNWOODY, GEORGIA USA",,
6036,LE MERIDIEN ATLANTA PERIMETER,111 PERIMETER CENTER W,DUNWOODY,GEORGIA,USA,"111 PERIMETER CENTER W DUNWOODY, GEORGIA USA",,
6039,"ARAUCO WOOD PRODUCTS, INC.",400 PERIMETER CENTER TER 750,DUNWOODY,GEORGIA,USA,"400 PERIMETER CENTER TER 750 DUNWOODY, GEORGIA USA",,
6040,LEGACY PARKING COMPANY,236 PERIMETER CENTER PWY,DUNWOODY,GEORGIA,USA,"236 PERIMETER CENTER PWY DUNWOODY, GEORGIA USA",,
6041,"PACE MANAGEMENT, LLC",47 PERIMETER CENTER EAS 460,DUNWOODY,GEORGIA,USA,"47 PERIMETER CENTER EAS 460 DUNWOODY, GEORGIA USA",,
6045,"CLAMORGAN HOLDINGS, LLC",1050 CROWN POINTE PARKWAY 500,DUNWOODY,GEORGIA,USA,"1050 CROWN POINTE PARKWAY 500 DUNWOODY, GEORGIA USA",,
6052,AMAZING LASH STUDIO,1280 ASHFORD XING,DUNWOODY,GEORGIA,USA,"1280 ASHFORD XING DUNWOODY, GEORGIA USA",,
6054,"MASJID UTHMAN, INC.",11 DUNWOODY PARK 165,DUNWOODY,GEORGIA,USA,"11 DUNWOODY PARK 165 DUNWOODY, GEORGIA USA",,
6055,SHOP DERRICK JAXN LLC,4400 ASHFORD DUNWOODY RD,DUNWOODY,GEORGIA,USA,"4400 ASHFORD DUNWOODY RD DUNWOODY, GEORGIA USA",,
6056,JESSICA SCHIFFER,5482 CHAMBLEE DUNWOODY RD 25,DUNWOODY,GEORGIA,USA,"5482 CHAMBLEE DUNWOODY RD 25 DUNWOODY, GEORGIA USA",,
6059,MCGREGOR SHOTT,4470 CHAMBLEE DUNWOODY RD 510,DUNWOODY,GEORGIA,USA,"4470 CHAMBLEE DUNWOODY RD 510 DUNWOODY, GEORGIA USA",,
6061,ACADEMY OF ADVANCED COSMETICS,4470 CHAMBLEE DUNWOODY RD 290,DUNWOODY,GEORGIA,USA,"4470 CHAMBLEE DUNWOODY RD 290 DUNWOODY, GEORGIA USA",,
6062,REAL PROPERTY MANAGEMENT GROU,2408 MT. VERNON ROAD 150,DUNWOODY,GEORGIA,USA,"2408 MT. VERNON ROAD 150 DUNWOODY, GEORGIA USA",,
6064,DUNWOODY VILLAGE,2311 DUNWOODY XING,DUNWOODY,GEORGIA,USA,"2311 DUNWOODY XING DUNWOODY, GEORGIA USA",,
6065,THE MUENSTER TRUCK,47 PERIMETER CENTER E,DUNWOODY,GEORGIA,USA,"47 PERIMETER CENTER E DUNWOODY, GEORGIA USA",,
6066,EMB ATLANTA PERIMETER CENTER,1030 CROWN POINTE PKWY,DUNWOODY,GEORGIA,USA,"1030 CROWN POINTE PKWY DUNWOODY, GEORGIA USA",,
6068,KELLY MORGAN MASSAGE THERAPIS,1776 OLD SPRING HOUSE LN 104,DUNWOODY,GEORGIA,USA,"1776 OLD SPRING HOUSE LN 104 DUNWOODY, GEORGIA USA",,
6072,BRAINFOOD,4343 DUNWOODY PARK B,DUNWOODY,GEORGIA,USA,"4343 DUNWOODY PARK B DUNWOODY, GEORGIA USA",,
6076,CRUNCH PERIMETER,4540 OLDE PERIMETER WAY,DUNWOODY,GEORGIA,USA,"4540 OLDE PERIMETER WAY DUNWOODY, GEORGIA USA",,
6077,BLOOM DESIGNS,4400 ASHFORD DUNWOODY RD 5562,DUNWOODY,GEORGIA,USA,"4400 ASHFORD DUNWOODY RD 5562 DUNWOODY, GEORGIA USA",,
6078,GOURMET CAFE,303 PERIMETER CENTER N 100,DUNWOODY,GEORGIA,USA,"303 PERIMETER CENTER N 100 DUNWOODY, GEORGIA USA",,
6079,LAW OFFICE CHARLES BOWLING LL,1050 CROWNE POINTE PKWY 500,DUNWOODY,GEORGIA,USA,"1050 CROWNE POINTE PKWY 500 DUNWOODY, GEORGIA USA",,
6080,"CAREERSTAFF UNLIMITED, LLC",100 ASHFORD CENTER N 180,DUNWOODY,GEORGIA,USA,"100 ASHFORD CENTER N 180 DUNWOODY, GEORGIA USA",,
6081,"R2T, INC.",1841 PEELER RD C,DUNWOODY,GEORGIA,USA,"1841 PEELER RD C DUNWOODY, GEORGIA USA",,
6082,ANTHONY G. SALON,4705 ASHFORD DUNWOODY RD A,DUNWOODY,GEORGIA,USA,"4705 ASHFORD DUNWOODY RD A DUNWOODY, GEORGIA USA",,
6084,LICE LADIES,1725 MT VERNON RD 4,DUNWOODY,GEORGIA,USA,"1725 MT VERNON RD 4 DUNWOODY, GEORGIA USA",,
6086,SWEET MASSAGE LLC,5064 NANDINA LN,DUNWOODY,GEORGIA,USA,"5064 NANDINA LN DUNWOODY, GEORGIA USA",,
6088,"Q SOLUTIONS, INC.",303 PERIMETER CENTER N 300,DUNWOODY,GEORGIA,USA,"303 PERIMETER CENTER N 300 DUNWOODY, GEORGIA USA",,
6089,NATIONAL TEAM SPORTS,4400 ASHFORD DUNWOODY RD 536,DUNWOODY,GEORGIA,USA,"4400 ASHFORD DUNWOODY RD 536 DUNWOODY, GEORGIA USA",,
6090,H&R BLOCK,4768 ASHFORD DUNWOODY RD 200,DUNWOODY,GEORGIA,USA,"4768 ASHFORD DUNWOODY RD 200 DUNWOODY, GEORGIA USA",,
6091,"N&D SPORTS, INC",4479 CHAMBLEE DUNWOODY RD,DUNWOODY,GEORGIA,USA,"4479 CHAMBLEE DUNWOODY RD DUNWOODY, GEORGIA USA",,
6094,FISHER INVESTMENTS,1200 ASHWOOD PKWY 520,DUNWOODY,GEORGIA,USA,"1200 ASHWOOD PKWY 520 DUNWOODY, GEORGIA USA",,
6095,RESIDENCE INN ATLANTA PERIMET,4695 ASHFORD DUNWOODY RD,DUNWOODY,GEORGIA,USA,"4695 ASHFORD DUNWOODY RD DUNWOODY, GEORGIA USA",,
6097,WEEKEND THRIFT & BEAUTY LLC,4947 WINTERS CHAPEL RD 5,DUNWOODY,GEORGIA,USA,"4947 WINTERS CHAPEL RD 5 DUNWOODY, GEORGIA USA",,
6106,BLOOM DESIGNS BY NAT,4400 ASHFORD DUNWOODY RD 5504,DUNWOODY,GEORGIA,USA,"4400 ASHFORD DUNWOODY RD 5504 DUNWOODY, GEORGIA USA",,
6107,"SUSAN E TUTTY,  LCSW",1776 OLD SPRING HOUSE LN 100,DUNWOODY,GEORGIA,USA,"1776 OLD SPRING HOUSE LN 100 DUNWOODY, GEORGIA USA",,
6111,"VACO ATLANTA, LLC",2 RAVINIA DRIVE 1776,DUNWOODY,GEORGIA,USA,"2 RAVINIA DRIVE 1776 DUNWOODY, GEORGIA USA",,
6112,BRAIN FOOD,4343 DUNWOODY PARK B,DUNWOODY,GEORGIA,USA,"4343 DUNWOODY PARK B DUNWOODY, GEORGIA USA",,
6113,MS. HEEL BOUTIQUE,4400 ASHFORD DUNWOODY RD 1605,DUNWOODY,GEORGIA,USA,"4400 ASHFORD DUNWOODY RD 1605 DUNWOODY, GEORGIA USA",,
6114,CELLAIRIS,4400 ASHFORD DUNWOODY RD 1635,DUNWOODY,GEORGIA,USA,"4400 ASHFORD DUNWOODY RD 1635 DUNWOODY, GEORGIA USA",,
6117,WATKINS MCGOWAN LLC,200 ASHFORD CENTER N 205,DUNWOODY,GEORGIA,USA,"200 ASHFORD CENTER N 205 DUNWOODY, GEORGIA USA",,
6118,ATLANTA RECOVERY PARK,5039 CHESTNUT FOREST CT,DUNWOODY,GEORGIA,USA,"5039 CHESTNUT FOREST CT DUNWOODY, GEORGIA USA",,
6119,SOLUTION FOCUSED THERAPY SVCS,1845 PEELER RD C,DUNWOODY,GEORGIA,USA,"1845 PEELER RD C DUNWOODY, GEORGIA USA",,
6120,ATLANTA CENTER FOR EATING DIS,4536 BARCLAY DRIVE,DUNWOODY,GEORGIA,USA,"4536 BARCLAY DRIVE DUNWOODY, GEORGIA USA",,
6122,MARRIOTT ATLANTA PERIMETER CT,246 PERIMETER CTR PKWY NE,DUNWOODY,GEORGIA,USA,"246 PERIMETER CTR PKWY NE DUNWOODY, GEORGIA USA",,
6123,VIVI BOUTIQUE,4400 ASHFORD DUNWOODY RD 1360,DUNWOODY,GEORGIA,USA,"4400 ASHFORD DUNWOODY RD 1360 DUNWOODY, GEORGIA USA",,
6125,ROAM PERIMETER,1151 HAMMOND DR 240,DUNWOODY,GEORGIA,USA,"1151 HAMMOND DR 240 DUNWOODY, GEORGIA USA",,
6127,PERIMETER BOTTLE SHOP,4719 ASHFORD DUNWOODY RD 103,DUNWOODY,GEORGIA,USA,"4719 ASHFORD DUNWOODY RD 103 DUNWOODY, GEORGIA USA",,
6128,"ZEN EYEWEAR, LLC",1611 MOUNT VERNON RD A,DUNWOODY,GEORGIA,USA,"1611 MOUNT VERNON RD A DUNWOODY, GEORGIA USA",,
6129,"RLH CONSTRUCTION, LLC",1050 CROWN POINTE PKWY 500,DUNWOODY,GEORGIA,USA,"1050 CROWN POINTE PKWY 500 DUNWOODY, GEORGIA USA",,
6130,SANDERS RAINMAKER INC,303 PERIMETER CENTER N 300,DUNWOODY,GEORGIA,USA,"303 PERIMETER CENTER N 300 DUNWOODY, GEORGIA USA",,
6132,NANOSAVE TECHNOLOGIES INC,115 PERIMETER CENTER PL 820,DUNWOODY,GEORGIA,USA,"115 PERIMETER CENTER PL 820 DUNWOODY, GEORGIA USA",,
6133,METRO ATLANTA INS AGENCY INC,1730 MT VERNON RD C,DUNWOODY,GEORGIA,USA,"1730 MT VERNON RD C DUNWOODY, GEORGIA USA",,
6136,IMPOBE USA LLC,1838 INDEPENDENCE SQUARE D,DUNWOODY,GEORGIA,USA,"1838 INDEPENDENCE SQUARE D DUNWOODY, GEORGIA USA",,
6140,"TRXS, LLC",1050 CROWN POINTE PARKWAY 500,DUNWOODY,GEORGIA,USA,"1050 CROWN POINTE PARKWAY 500 DUNWOODY, GEORGIA USA",,
6142,REVOLUTION TECHNOLOGIES LLC,303 PERIMETER CTR N 120,DUNWOODY,GEORGIA,USA,"303 PERIMETER CTR N 120 DUNWOODY, GEORGIA USA",,
6143,MUNDO HISPANICO ACQUISITION L,223 PERIMETER CTR PKWY,DUNWOODY,GEORGIA,USA,"223 PERIMETER CTR PKWY DUNWOODY, GEORGIA USA",,
6144,SOUTHERN KITCHEN,223 PERIMETER CTR PKWY,DUNWOODY,GEORGIA,USA,"223 PERIMETER CTR PKWY DUNWOODY, GEORGIA USA",,
6145,MM BROWS SALON,1151 HAMMOND DR NE 200,DUNWOODY,GEORGIA,USA,"1151 HAMMOND DR NE 200 DUNWOODY, GEORGIA USA",,
6146,"OMNI TECH TRANS, LLC",1455 LINCOLN PKWY 460,DUNWOODY,GEORGIA,USA,"1455 LINCOLN PKWY 460 DUNWOODY, GEORGIA USA",,
6147,CERTAPRO PAINTERS OF DUNWOODY,1818 INDEPENDENCE SQUARE B,DUNWOODY,GEORGIA,USA,"1818 INDEPENDENCE SQUARE B DUNWOODY, GEORGIA USA",,
6150,LIFE STORAGE SOLUTIONS #847,1274 CROWN POINTE PKWY,DUNWOODY,GEORGIA,USA,"1274 CROWN POINTE PKWY DUNWOODY, GEORGIA USA",,
6151,EPITOME MANAGEMENT SERVICES,303 PERIMETER CENTER N 300,DUNWOODY,GEORGIA,USA,"303 PERIMETER CENTER N 300 DUNWOODY, GEORGIA USA",,
6153,BASSETT FURNITURE DIRECT,120 PERIMETER CENTER W,DUNWOODY,GEORGIA,USA,"120 PERIMETER CENTER W DUNWOODY, GEORGIA USA",,
6154,"KMC SURFACES, LLC",1050 CROWN POINTE PKWY 500,DUNWOODY,GEORGIA,USA,"1050 CROWN POINTE PKWY 500 DUNWOODY, GEORGIA USA",,
6156,"ELEMENT PROS, LLC",5579-B CHAMBLEE DUNWOODY RD 20,DUNWOODY,GEORGIA,USA,"5579-B CHAMBLEE DUNWOODY RD 20 DUNWOODY, GEORGIA USA",,
6158,PMRG,1040 CROWN POINTE PKWY 100,DUNWOODY,GEORGIA,USA,"1040 CROWN POINTE PKWY 100 DUNWOODY, GEORGIA USA",,
6159,TRANSWORLD BUSINESS ADVISORS,3 DUNWOODY PARK 103,DUNWOODY,GEORGIA,USA,"3 DUNWOODY PARK 103 DUNWOODY, GEORGIA USA",,
6160,REFRESHED SHOE CLEANER,4400 ASHFORD DUNWOODY RD 1360,DUNWOODY,GEORGIA,USA,"4400 ASHFORD DUNWOODY RD 1360 DUNWOODY, GEORGIA USA",,
6163,PICKUPTRUCKS-R-US,1050 CROWN POINTE PKWY 500,DUNWOODY,GEORGIA,USA,"1050 CROWN POINTE PKWY 500 DUNWOODY, GEORGIA USA",,
6164,CURA COUPLES THERAPY CENTER,3 DUNWOODY PARK S 126,DUNWOODY,GEORGIA,USA,"3 DUNWOODY PARK S 126 DUNWOODY, GEORGIA USA",,
6165,CUSHMAN & WAKEFIELD,3 RAVINIA DRIVE 1930,DUNWOODY,GEORGIA,USA,"3 RAVINIA DRIVE 1930 DUNWOODY, GEORGIA USA",,
6166,PREFERRED OFFICE PROPERTIES,3 RAVINIA DRIVE 1930,DUNWOODY,GEORGIA,USA,"3 RAVINIA DRIVE 1930 DUNWOODY, GEORGIA USA",,
6168,CALANCE,200 ASHFORD CENTER N 300,DUNWOODY,GEORGIA,USA,"200 ASHFORD CENTER N 300 DUNWOODY, GEORGIA USA",,
6169,COX MEDIA GROUP DIGITAL DEV I,223 PERIMETER CTR PKWY,DUNWOODY,GEORGIA,USA,"223 PERIMETER CTR PKWY DUNWOODY, GEORGIA USA",,
6170,COOL SHADES,4400 ASHFORD DUNWOODY RD,DUNWOODY,GEORGIA,USA,"4400 ASHFORD DUNWOODY RD DUNWOODY, GEORGIA USA",,
6172,VINTAGE PIZZERIA,5510 CHAMBLEE DUNWOODY RD,DUNWOODY,GEORGIA,USA,"5510 CHAMBLEE DUNWOODY RD DUNWOODY, GEORGIA USA",,
6174,HAN FENG GLOBAL INC,1050 CROWN POINTE PKWY 1750,DUNWOODY,GEORGIA,USA,"1050 CROWN POINTE PKWY 1750 DUNWOODY, GEORGIA USA",,
6176,ETECHNOLOGIEN CORPORATION,2 RAVINIA DR 500,DUNWOODY,GEORGIA,USA,"2 RAVINIA DR 500 DUNWOODY, GEORGIA USA",,
6178,"LUXURY HAND CARWASH SVC, LLC",4479 CHAMBLEE DUNWOODY RD,DUNWOODY,GEORGIA,USA,"4479 CHAMBLEE DUNWOODY RD DUNWOODY, GEORGIA USA",,
6180,"MIDAMERICAN ENERGY SVCS, LLC",7 DUNWOODY PARK 116,DUNWOODY,GEORGIA,USA,"7 DUNWOODY PARK 116 DUNWOODY, GEORGIA USA",,
6182,"SUNDANCE REHAB AGENCY, LLC",1240 ASHFORD CENTER PKWY,DUNWOODY,GEORGIA,USA,"1240 ASHFORD CENTER PKWY DUNWOODY, GEORGIA USA",,
6183,INTERCAX LLC,47 PERIMETER CENTER E 410,DUNWOODY,GEORGIA,USA,"47 PERIMETER CENTER E 410 DUNWOODY, GEORGIA USA",,
6184,DICED,1432 DUNWOODY VILLAGE PKW,DUNWOODY,GEORGIA,USA,"1432 DUNWOODY VILLAGE PKW DUNWOODY, GEORGIA USA",,
6185,"ARCHSPEC, INC",4470 CHAMBLEE DUNWOODY 510,DUNWOODY,GEORGIA,USA,"4470 CHAMBLEE DUNWOODY 510 DUNWOODY, GEORGIA USA",,
6188,PEACE OF PITA,4770 N PEACHTREE RD,DUNWOODY,GEORGIA,USA,"4770 N PEACHTREE RD DUNWOODY, GEORGIA USA",,
6189,"SAVANNAH AT PARK PLACE, LLC",31 PERIMETER CENTER E,DUNWOODY,GEORGIA,USA,"31 PERIMETER CENTER E DUNWOODY, GEORGIA USA",,
6194,BLUE ORCHID,4515 CHAMBLEE DUNWOODY RD 200,DUNWOODY,GEORGIA,USA,"4515 CHAMBLEE DUNWOODY RD 200 DUNWOODY, GEORGIA USA",,
6195,SHALAJA` SWIMWEAR,4400 ASHFORD DUNWOODY RD 2360,DUNWOODY,GEORGIA,USA,"4400 ASHFORD DUNWOODY RD 2360 DUNWOODY, GEORGIA USA",,
6197,VILLAGE ORTHODONTICS,5488 CHAMBLEE DUNWOODY RD 8,DUNWOODY,GEORGIA,USA,"5488 CHAMBLEE DUNWOODY RD 8 DUNWOODY, GEORGIA USA",,
6198,AARIA HOLDINGS INC,4780 ASHFORD DUNWOODY RD A-111,DUNWOODY,GEORGIA,USA,"4780 ASHFORD DUNWOODY RD A-111 DUNWOODY, GEORGIA USA",,
6199,LIFT SOURCING,1050 CROWNE POINT PKWY 500,DUNWOODY,GEORGIA,USA,"1050 CROWNE POINT PKWY 500 DUNWOODY, GEORGIA USA",,
6201,TAQUITO EXPRESS MT. VERNON,5418 CHAMBLEE DUNWOODY RD,DUNWOODY,GEORGIA,USA,"5418 CHAMBLEE DUNWOODY RD DUNWOODY, GEORGIA USA",,
6202,SILVERTON MORTGAGE SPECIALIST,4470 CHAMBLEE DUNWOODY RD 340,DUNWOODY,GEORGIA,USA,"4470 CHAMBLEE DUNWOODY RD 340 DUNWOODY, GEORGIA USA",,
6205,MOONDOG GROWLERS,5064 NANDINA LANE D,DUNWOODY,GEORGIA,USA,"5064 NANDINA LANE D DUNWOODY, GEORGIA USA",,
6207,PRODUCE CASTRO,6900 PEACHTREE IND BLVD,DUNWOODY,GEORGIA,USA,"6900 PEACHTREE IND BLVD DUNWOODY, GEORGIA USA",,
6209,CUSTOM TEES,4400 ASHFORD DUNWOODY RD,DUNWOODY,GEORGIA,USA,"4400 ASHFORD DUNWOODY RD DUNWOODY, GEORGIA USA",,
6210,ALTERATION SCENE,2482 JETT FERRY RD 630,DUNWOODY,GEORGIA,USA,"2482 JETT FERRY RD 630 DUNWOODY, GEORGIA USA",,
6211,PROSPERITY HEALTHCARE STAFFIN,1050 CROWN POINTE PARKWAY 500,DUNWOODY,GEORGIA,USA,"1050 CROWN POINTE PARKWAY 500 DUNWOODY, GEORGIA USA",,
6212,"REDHAWK GROUP INTERNATIONAL,",4470 CHAMBLEE DUNWOODY RD,DUNWOODY,GEORGIA,USA,"4470 CHAMBLEE DUNWOODY RD DUNWOODY, GEORGIA USA",,
6215,MARQ EIGHT,8 PERIMETER CENTER E,DUNWOODY,GEORGIA,USA,"8 PERIMETER CENTER E DUNWOODY, GEORGIA USA",,
6216,THE BERMAN CENTER,1200 ASHWOOD PARKWAY 400,DUNWOODY,GEORGIA,USA,"1200 ASHWOOD PARKWAY 400 DUNWOODY, GEORGIA USA",,
6217,"BRIGHT BOLD & BEAUTIFUL, LLC",1050 CROWN POINTE PKWY 500,DUNWOODY,GEORGIA,USA,"1050 CROWN POINTE PKWY 500 DUNWOODY, GEORGIA USA",,
6218,ORANGETHEORY FITNESS,2480 JETT FERRY RD 500,DUNWOODY,GEORGIA,USA,"2480 JETT FERRY RD 500 DUNWOODY, GEORGIA USA",,
6220,SUBWAY 13389,4511 CHAMBLEE DUNWOODY RD C-1,DUNWOODY,GEORGIA,USA,"4511 CHAMBLEE DUNWOODY RD C-1 DUNWOODY, GEORGIA USA",,
6221,"ZELIA MILAN, LLC",4400 ASHFORD DUNWOODY RD 1360,DUNWOODY,GEORGIA,USA,"4400 ASHFORD DUNWOODY RD 1360 DUNWOODY, GEORGIA USA",,
6222,"AJAA NATURALS, LLC",4400 ASHFORD DUNWOODY RD,DUNWOODY,GEORGIA,USA,"4400 ASHFORD DUNWOODY RD DUNWOODY, GEORGIA USA",,
6223,JERK BROTHERS,47 PERIMTER CENTER E,DUNWOODY,GEORGIA,USA,"47 PERIMTER CENTER E DUNWOODY, GEORGIA USA",,
6227,"GEORGIA CVS PHARMACY, LLC",100 PERIMETER CTR PLAZA,DUNWOODY,GEORGIA,USA,"100 PERIMETER CTR PLAZA DUNWOODY, GEORGIA USA",,
6229,NATIONAL FINANCIAL SVCS GROUP,1050 CROWN POINTE PKWY 1700,DUNWOODY,GEORGIA,USA,"1050 CROWN POINTE PKWY 1700 DUNWOODY, GEORGIA USA",,
6231,MAX'S COAL OVEN PIZZERIA,4400 ASHFORD DUNWOODY RD 2090,DUNWOODY,GEORGIA,USA,"4400 ASHFORD DUNWOODY RD 2090 DUNWOODY, GEORGIA USA",,
6234,COWART/BERKOW INVESTMENTS LLC,4720 CHAMBLEE DUNWOODY RD 200,DUNWOODY,GEORGIA,USA,"4720 CHAMBLEE DUNWOODY RD 200 DUNWOODY, GEORGIA USA",,
6235,PRIME COMMUNICATIONS LLP,4516 CHAMBLEE DUNWOODY RD 21,DUNWOODY,GEORGIA,USA,"4516 CHAMBLEE DUNWOODY RD 21 DUNWOODY, GEORGIA USA",,
6236,NLB NORTHWINDS LLC,4720 CHAMBLEE DUNWOODY RD 200,DUNWOODY,GEORGIA,USA,"4720 CHAMBLEE DUNWOODY RD 200 DUNWOODY, GEORGIA USA",,
6238,B&B AMLAJACK INVESTORS LLC,4720 CHAMBLEE DUNWOODY RD 200,DUNWOODY,GEORGIA,USA,"4720 CHAMBLEE DUNWOODY RD 200 DUNWOODY, GEORGIA USA",,
6239,BF BUSINESS LLC,4720 CHAMBLEE DUNWOODY RD 200,DUNWOODY,GEORGIA,USA,"4720 CHAMBLEE DUNWOODY RD 200 DUNWOODY, GEORGIA USA",,
6240,COWART/BERKOW LLC,4720 CHAMBLEE DUNWOODY RD 200,DUNWOODY,GEORGIA,USA,"4720 CHAMBLEE DUNWOODY RD 200 DUNWOODY, GEORGIA USA",,
6241,LAUREL CANYON LLC,4720 CHAMBLEE DUNWOODY RD 200,DUNWOODY,GEORGIA,USA,"4720 CHAMBLEE DUNWOODY RD 200 DUNWOODY, GEORGIA USA",,
6242,GEORGE BERKOW INC,4720 CHAMBLEE DUNWOODY RD 200,DUNWOODY,GEORGIA,USA,"4720 CHAMBLEE DUNWOODY RD 200 DUNWOODY, GEORGIA USA",,
6244,ONELIFE FITNESS PERIMETER,1181 HAMMOND DRIVE 1010,DUNWOODY,GEORGIA,USA,"1181 HAMMOND DRIVE 1010 DUNWOODY, GEORGIA USA",,
6245,THE CONCERNED BEAUTY PRO,2408 MOUNT VERNON RD 120,DUNWOODY,GEORGIA,USA,"2408 MOUNT VERNON RD 120 DUNWOODY, GEORGIA USA",,
6246,DELIDO,4685 CHAMBLEE DUNWOODY RD,DUNWOODY,GEORGIA,USA,"4685 CHAMBLEE DUNWOODY RD DUNWOODY, GEORGIA USA",,
6247,PREMIUM STEAMER,4400 ASHFORD DUNWOODY RD 5545,DUNWOODY,GEORGIA,USA,"4400 ASHFORD DUNWOODY RD 5545 DUNWOODY, GEORGIA USA",,
6248,PHANTOM FIREWORKS STAND OF DU,4400 ASHFORD DUNWOODY RD LOT,DUNWOODY,GEORGIA,USA,"4400 ASHFORD DUNWOODY RD LOT DUNWOODY, GEORGIA USA",,
6249,DADDY'S GIRL GOURMET DOGS,4770 N PEACHTREE RD,DUNWOODY,GEORGIA,USA,"4770 N PEACHTREE RD DUNWOODY, GEORGIA USA",,
6250,KIMBERLY PARKER,2590 BENTBROOK CT,DUNWOODY,GEORGIA,USA,"2590 BENTBROOK CT DUNWOODY, GEORGIA USA",,
6251,TEXAS INSTRUMENTS INCORPORATE,900 ASHWOOD PKY 110,DUNWOODY,GEORGIA,USA,"900 ASHWOOD PKY 110 DUNWOODY, GEORGIA USA",,
6253,BER-BANK LLC,4720 CHAMBLEE DUWOODY 200,DUNWOODY,GEORGIA,USA,"4720 CHAMBLEE DUWOODY 200 DUNWOODY, GEORGIA USA",,
6254,OPREMA OPTIK JENA INC,11 DUNWOODY PARK 145,DUNWOODY,GEORGIA,USA,"11 DUNWOODY PARK 145 DUNWOODY, GEORGIA USA",,
6255,MAGIC TOUCH HEALTHCARE INC,303 PERIMETER CENTER NOR 300,DUNWOODY,GEORGIA,USA,"303 PERIMETER CENTER NOR 300 DUNWOODY, GEORGIA USA",,
6256,BLUE SKY MASSAGE,4639 N. SHALLOWFORD RD. B,DUNWOODY,GEORGIA,USA,"4639 N. SHALLOWFORD RD. B DUNWOODY, GEORGIA USA",,
6258,NONSTOP LOCAL LOCKSMITH LLC,5591 CHAMBLEE DUNWOODY RD 303,DUNWOODY,GEORGIA,USA,"5591 CHAMBLEE DUNWOODY RD 303 DUNWOODY, GEORGIA USA",,
6259,PMC RENOVATIONS LLC,4514 CHAMBLEE DUNWOODY RD 168,DUNWOODY,GEORGIA,USA,"4514 CHAMBLEE DUNWOODY RD 168 DUNWOODY, GEORGIA USA",,
6260,EMIL BUSH RATHENOW INC,11 DUNWOODY PARK 145,DUNWOODY,GEORGIA,USA,"11 DUNWOODY PARK 145 DUNWOODY, GEORGIA USA",,
6261,C.P.GOERZ AMERICAN OPTICAL CO,11 DUWNOODY PARK 145,DUNWOODY,GEORGIA,USA,"11 DUWNOODY PARK 145 DUNWOODY, GEORGIA USA",,
6262,REGAL NAILS SALON,4725 ASHFORD DUNWOODY RD B,DUNWOODY,GEORGIA,USA,"4725 ASHFORD DUNWOODY RD B DUNWOODY, GEORGIA USA",,
6263,KENYA MOORE HAIR CARE,4400 ASHFORD DUNWOODY RD. 5524,DUNWOODY,GEORGIA,USA,"4400 ASHFORD DUNWOODY RD. 5524 DUNWOODY, GEORGIA USA",,
6264,"vRIDE ENTERTAINMENT, LLC",4400 ASHFORD DUNWOODY RD,DUNWOODY,GEORGIA,USA,"4400 ASHFORD DUNWOODY RD DUNWOODY, GEORGIA USA",,
6265,LOCOSTARTER INC,11 DUNWOODY PARK 145,DUNWOODY,GEORGIA,USA,"11 DUNWOODY PARK 145 DUNWOODY, GEORGIA USA",,
6266,"BRIAN P. JAYE, CPA",303 PERIMETER CENTER NOR 300,DUNWOODY,GEORGIA,USA,"303 PERIMETER CENTER NOR 300 DUNWOODY, GEORGIA USA",,
6267,DECON LLC TX,1050 CROWN POINTE PKWY 500,DUNWOODY,GEORGIA,USA,"1050 CROWN POINTE PKWY 500 DUNWOODY, GEORGIA USA",,
6268,CROWNE PLAZA RAVINIA,4355 ASHFORD DUNWOODY RD,DUNWOODY,GEORGIA,USA,"4355 ASHFORD DUNWOODY RD DUNWOODY, GEORGIA USA",,
6270,JAKES FIREWORKS INC,5025 WINTERS CHAPEL RD LOT,DUNWOODY,GEORGIA,USA,"5025 WINTERS CHAPEL RD LOT DUNWOODY, GEORGIA USA",,
6271,ATLANTA RECOVERY PLACE,1742 MT VERNON RD 100,DUNWOODY,GEORGIA,USA,"1742 MT VERNON RD 100 DUNWOODY, GEORGIA USA",,
6273,THE BLACK TUX,501 BROADWAY,DUNWOODY,GEORGIA,USA,"501 BROADWAY DUNWOODY, GEORGIA USA",,
6274,EMBREE CONSTRUCTION GROUP,4400 ASHFORD DUNWOODY RD,DUNWOODY,GEORGIA,USA,"4400 ASHFORD DUNWOODY RD DUNWOODY, GEORGIA USA",,
6275,MOLLY GREEN,4400 ASHFORD DUNWOODY RD 2335,DUNWOODY,GEORGIA,USA,"4400 ASHFORD DUNWOODY RD 2335 DUNWOODY, GEORGIA USA",,
6282,"UNITED LC CAPITAL, LLC",4400 ASHFORD DUNWOODY ROA 2030,DUNWOODY,GEORGIA,USA,"4400 ASHFORD DUNWOODY ROA 2030 DUNWOODY, GEORGIA USA",,
6286,PAINTING WITH A TWIST,4512-A CHAMBLEE DUNWOODY RD,DUNWOODY,GEORGIA,USA,"4512-A CHAMBLEE DUNWOODY RD DUNWOODY, GEORGIA USA",,
6291,OJANINC,2 RAVINIA DRIVE 140,DUNWOODY,GEORGIA,USA,"2 RAVINIA DRIVE 140 DUNWOODY, GEORGIA USA",,
6292,JEWELRY GALORE,4400 ASHFORD DUNWOODY 1360,DUNWOODY,GEORGIA,USA,"4400 ASHFORD DUNWOODY 1360 DUNWOODY, GEORGIA USA",,
6293,JADE BROWN DOES BROWS,4705-A ASHFORD DUNWOODY 12,DUNWOODY,GEORGIA,USA,"4705-A ASHFORD DUNWOODY 12 DUNWOODY, GEORGIA USA",,
6294,"PLUCKED, LLC.",1050 CROWNE POINTE PKWY 500,DUNWOODY,GEORGIA,USA,"1050 CROWNE POINTE PKWY 500 DUNWOODY, GEORGIA USA",,
6295,"T.V. JOHN & SON, INC.",5515 CHAMBLEE DUNWOODY RD,DUNWOODY,GEORGIA,USA,"5515 CHAMBLEE DUNWOODY RD DUNWOODY, GEORGIA USA",,
6296,COLD STONE CREAMERY,1270 ASHFORD CROSSING,DUNWOODY,GEORGIA,USA,"1270 ASHFORD CROSSING DUNWOODY, GEORGIA USA",,
6297,BY DESIGN DENTAL STUDIO,4488 N. SHALLOWFORD RD NW 210,DUNWOODY,GEORGIA,USA,"4488 N. SHALLOWFORD RD NW 210 DUNWOODY, GEORGIA USA",,
6299,LD REALTY CAPITAL LLC,1651 MT. VERNON ROAD 200,DUNWOODY,GEORGIA,USA,"1651 MT. VERNON ROAD 200 DUNWOODY, GEORGIA USA",,
6302,"THE MUSIC CLASS, INC",1404 DUNWOODY VILLAGE PKW,DUNWOODY,GEORGIA,USA,"1404 DUNWOODY VILLAGE PKW DUNWOODY, GEORGIA USA",,
6303,JIMMY JOHNS SUB,5479 CHAMBLEE DUNWOODY RD B,DUNWOODY,GEORGIA,USA,"5479 CHAMBLEE DUNWOODY RD B DUNWOODY, GEORGIA USA",,
6305,CENTER FOR DISCOVERY-DUNWOODY,1364 MANGET WAY,DUNWOODY,GEORGIA,USA,"1364 MANGET WAY DUNWOODY, GEORGIA USA",,
6306,SKINFINITY ESTHETICS,1750 OLD SPRINGHOUSE LN 204,DUNWOODY,GEORGIA,USA,"1750 OLD SPRINGHOUSE LN 204 DUNWOODY, GEORGIA USA",,
6307,DB HOWL,5486 CHAMBLEE DUNWOODY RD,DUNWOODY,GEORGIA,USA,"5486 CHAMBLEE DUNWOODY RD DUNWOODY, GEORGIA USA",,
6309,DUNWOODY PERSONAL HEALTH CARE,5471 CHAMBLEE DUNWOODY RD,DUNWOODY,GEORGIA,USA,"5471 CHAMBLEE DUNWOODY RD DUNWOODY, GEORGIA USA",,
6310,MOTT MACDONALD LLC,1040 CROWN POINTE PKWY 150,DUNWOODY,GEORGIA,USA,"1040 CROWN POINTE PKWY 150 DUNWOODY, GEORGIA USA",,
6311,ARRIVE PERIMETER,2000 ASBURY SQUARE,DUNWOODY,GEORGIA,USA,"2000 ASBURY SQUARE DUNWOODY, GEORGIA USA",,
6312,"BETTER HEALTH BETTER LIFE, LL",2398 MT VERNON RD 150,DUNWOODY,GEORGIA,USA,"2398 MT VERNON RD 150 DUNWOODY, GEORGIA USA",,
6313,YOUNG HEARTS ACADEMY AT DUNWO,5477 ROBERTS DR,DUNWOODY,GEORGIA,USA,"5477 ROBERTS DR DUNWOODY, GEORGIA USA",,
6314,Q RESEARCH SOLUTIONS,1231 ASHFORD CROSSING,DUNWOODY,GEORGIA,USA,"1231 ASHFORD CROSSING DUNWOODY, GEORGIA USA",,
6315,NAMI,4400 ASHFORD DUNWOODY RD 1285,DUNWOODY,GEORGIA,USA,"4400 ASHFORD DUNWOODY RD 1285 DUNWOODY, GEORGIA USA",,
6316,"ATL OFF INV PHASE I, LLC",236 PERIMETER CTR PKWY,DUNWOODY,GEORGIA,USA,"236 PERIMETER CTR PKWY DUNWOODY, GEORGIA USA",,
6317,"CORP PROP TRUST II REIT, LLC",236 PERIMETER CTR PKWY,DUNWOODY,GEORGIA,USA,"236 PERIMETER CTR PKWY DUNWOODY, GEORGIA USA",,
6319,MORLOGIC INC,1 RAVINIA DR 5FL,DUNWOODY,GEORGIA,USA,"1 RAVINIA DR 5FL DUNWOODY, GEORGIA USA",,
6320,HOLLYWOOD FEED,2480 MT VERNON RD A,DUNWOODY,GEORGIA,USA,"2480 MT VERNON RD A DUNWOODY, GEORGIA USA",,
6321,BPE INC,4947 WINTERS CHAPEL,DUNWOODY,GEORGIA,USA,"4947 WINTERS CHAPEL DUNWOODY, GEORGIA USA",,
6322,CROSFIT DUNWOODY,5525 CHAMBLEE DUNWOODY RD,DUNWOODY,GEORGIA,USA,"5525 CHAMBLEE DUNWOODY RD DUNWOODY, GEORGIA USA",,
6323,WASH VALET,4400 ASHFORD DUNWOODY RD LOT,DUNWOODY,GEORGIA,USA,"4400 ASHFORD DUNWOODY RD LOT DUNWOODY, GEORGIA USA",,
6324,KRATZ & BARRY LLP,1050 CROWN POINTE PKWY 500,DUNWOODY,GEORGIA,USA,"1050 CROWN POINTE PKWY 500 DUNWOODY, GEORGIA USA",,
6325,"1455 LINCOLN, LLC",1455 LINCOLN PKWY,DUNWOODY,GEORGIA,USA,"1455 LINCOLN PKWY DUNWOODY, GEORGIA USA",,
6326,"200 ASHFORD, LLC",200 ASHFORD CENTER N 130,DUNWOODY,GEORGIA,USA,"200 ASHFORD CENTER N 130 DUNWOODY, GEORGIA USA",,
6327,"900 ATLANTA OFFICE, LLC",900 ASHWOOD PKWY 150,DUNWOODY,GEORGIA,USA,"900 ASHWOOD PKWY 150 DUNWOODY, GEORGIA USA",,
6331,CONTEMPORARY RESTORATIONS,5042 WINTER CHAPEL RD A,DUNWOODY,GEORGIA,USA,"5042 WINTER CHAPEL RD A DUNWOODY, GEORGIA USA",,
6332,"RICK SHIPMAN CONSTRUCTION, IN",4725 ASHFORD DUNWOODY RD,DUNWOODY,GEORGIA,USA,"4725 ASHFORD DUNWOODY RD DUNWOODY, GEORGIA USA",,
6333,STOUTKAISER MATTESON PEAKE &,4675 N SHALLOWFORD RD 200,DUNWOODY,GEORGIA,USA,"4675 N SHALLOWFORD RD 200 DUNWOODY, GEORGIA USA",,
6334,MT VERNON FURNITURE CONSIGNME,2482 JETT FERRY RD 520,DUNWOODY,GEORGIA,USA,"2482 JETT FERRY RD 520 DUNWOODY, GEORGIA USA",,
6336,SMART STYLE HAIR SALON,4725 ASHFORD DUNWOODY RD,DUNWOODY,GEORGIA,USA,"4725 ASHFORD DUNWOODY RD DUNWOODY, GEORGIA USA",,
