ID,BUSINESS_NAME,PROPERTY_ADDRESS,CITY,STATE,COUNTRY,FULL_ADDRESS,STATUS,NOTES
2,OASIS IRRIGATION SYSTEMS,4958 WINTERS CHAPEL ROAD,DUNWOODY,GEORGIA,USA,"4958 WINTERS CHAPEL ROAD DUNWOODY, GEORGIA USA",,
7,"PREMO PROPERTY GROUP, LLC",1858 INDEPENDENCE SQUARE D,DUNWOODY,GEORGIA,USA,"1858 INDEPENDENCE SQUARE D DUNWOODY, GEORGIA USA",,
13,BILL GRANT PROPERTIES INC,1711-A MT VERNON RD,DUNWOODY,GEORGIA,USA,"1711-A MT VERNON RD DUNWOODY, GEORGIA USA",,
18,ALLIED CONSTRUCTION CO,4514 CHAMBLEE DUNWOODY RD 176,DUNWOODY,GEORGIA,USA,"4514 CHAMBLEE DUNWOODY RD 176 DUNWOODY, GEORGIA USA",,
42,ONEIDA BUILDERS INC,4675 N SHALLOWFORD RD 200,DUNWOODY,GEORGIA,USA,"4675 N SHALLOWFORD RD 200 DUNWOODY, GEORGIA USA",,
44,PORTIS BUILDING & INTERIORS,4681 N SHALLOWFORD RD,DUNWOODY,GEORGIA,USA,"4681 N SHALLOWFORD RD DUNWOODY, GEORGIA USA",,
70,DUNWOODY'S CHOICE HVAC,1340 CENTER DR 204,DUNWOODY,GEORGIA,USA,"1340 CENTER DR 204 DUNWOODY, GEORGIA USA",,
80,HPP MANAGEMENT CORP,3 DUNWOODY PARK 103,DUNWOODY,GEORGIA,USA,"3 DUNWOODY PARK 103 DUNWOODY, GEORGIA USA",,
97,JUDY'S ALTERATION,4511 CHAMBLEE DUNWOODY RD C-3,DUNWOODY,GEORGIA,USA,"4511 CHAMBLEE DUNWOODY RD C-3 DUNWOODY, GEORGIA USA",,
98,THE ALTERATION SCENE,2482 JETT FERRY RD,DUNWOODY,GEORGIA,USA,"2482 JETT FERRY RD DUNWOODY, GEORGIA USA",,
106,DUNWOODY ATLANTA PRINTING,1720 MT VERNON RD,DUNWOODY,GEORGIA,USA,"1720 MT VERNON RD DUNWOODY, GEORGIA USA",,
117,ANALYTICS IQ,115 PERIMETER CENTER PL 635,DUNWOODY,GEORGIA,USA,"115 PERIMETER CENTER PL 635 DUNWOODY, GEORGIA USA",,
123,PURCHASING PARTNERS INC,2398 MOUNT VERNON RD 200,DUNWOODY,GEORGIA,USA,"2398 MOUNT VERNON RD 200 DUNWOODY, GEORGIA USA",,
138,KAMIN & ASSOCIATES INC,1843 PEELER RD,DUNWOODY,GEORGIA,USA,"1843 PEELER RD DUNWOODY, GEORGIA USA",,
140,DAVIS ENERGY PRODUCTS INC,1876 INDEPENDENCE SQ C,DUNWOODY,GEORGIA,USA,"1876 INDEPENDENCE SQ C DUNWOODY, GEORGIA USA",,
145,SCIENTIFIC POLYMERS INC,1534 DUNWOODY VILLAGE PKY 225,DUNWOODY,GEORGIA,USA,"1534 DUNWOODY VILLAGE PKY 225 DUNWOODY, GEORGIA USA",,
148,SESBELLA,1320 CENTER DRIVE 202,DUNWOODY,GEORGIA,USA,"1320 CENTER DRIVE 202 DUNWOODY, GEORGIA USA",,
149,MASON & ELMORE SALES CO,2394 MT VERNON ROAD 100,DUNWOODY,GEORGIA,USA,"2394 MT VERNON ROAD 100 DUNWOODY, GEORGIA USA",,
151,CMPC USA INC,1040 CROWN POINTE PKWY 800,DUNWOODY,GEORGIA,USA,"1040 CROWN POINTE PKWY 800 DUNWOODY, GEORGIA USA",,
157,WFN ENTERPRISES INC,5579-B CHAMBLEE DUNWOODY RD 21,DUNWOODY,GEORGIA,USA,"5579-B CHAMBLEE DUNWOODY RD 21 DUNWOODY, GEORGIA USA",,
164,HADDON MCCLELLAN ASSOCIATES P,1838 INDEPENDENCE SQ B,DUNWOODY,GEORGIA,USA,"1838 INDEPENDENCE SQ B DUNWOODY, GEORGIA USA",,
165,NEW SOUTH POLYMERS INC,1340 CENTER DRIVE 101,DUNWOODY,GEORGIA,USA,"1340 CENTER DRIVE 101 DUNWOODY, GEORGIA USA",,
168,EUROWERKS,1250 DUNWOODY VILLAGE PKW,DUNWOODY,GEORGIA,USA,"1250 DUNWOODY VILLAGE PKW DUNWOODY, GEORGIA USA",,
170,FIRESTONE COMPLETE AUTO CARE,201 PERIMETER CENTER PKY A,DUNWOODY,GEORGIA,USA,"201 PERIMETER CENTER PKY A DUNWOODY, GEORGIA USA",,
175,SOUTHERN COMFORTS,2510 MT VERNON RD,DUNWOODY,GEORGIA,USA,"2510 MT VERNON RD DUNWOODY, GEORGIA USA",,
177,LAZY BOY FURNITURE GALLERY,4551 OLDE PERIMETER WAY,DUNWOODY,GEORGIA,USA,"4551 OLDE PERIMETER WAY DUNWOODY, GEORGIA USA",,
183,HAVERTY FURNITURE COMPANIES,132 PERIMETER CTR W,DUNWOODY,GEORGIA,USA,"132 PERIMETER CTR W DUNWOODY, GEORGIA USA",,
189,SUR LA TABLE,4400 ASHFORD DUNWOODY RD 2310,DUNWOODY,GEORGIA,USA,"4400 ASHFORD DUNWOODY RD 2310 DUNWOODY, GEORGIA USA",,
190,BED BATH & BEYOND #57,130 PERIMETER CENTER W,DUNWOODY,GEORGIA,USA,"130 PERIMETER CENTER W DUNWOODY, GEORGIA USA",,
193,T MOBILE,4400 ASHFORD DUNWOODY RD 1445,DUNWOODY,GEORGIA,USA,"4400 ASHFORD DUNWOODY RD 1445 DUNWOODY, GEORGIA USA",,
195,T MOBILE,1161 HAMMOND DR,DUNWOODY,GEORGIA,USA,"1161 HAMMOND DR DUNWOODY, GEORGIA USA",,
198,VERIZON WIRELESS,123 PERIMETER CENTER WES,DUNWOODY,GEORGIA,USA,"123 PERIMETER CENTER WES DUNWOODY, GEORGIA USA",,
199,T MOBILE,1 RAVINIA DR,DUNWOODY,GEORGIA,USA,"1 RAVINIA DR DUNWOODY, GEORGIA USA",,
204,APPLE INC,4400 ASHFORD DUNWOODY RD 2395,DUNWOODY,GEORGIA,USA,"4400 ASHFORD DUNWOODY RD 2395 DUNWOODY, GEORGIA USA",,
206,THE SHERWIN WILLIAMS CO #3300,4490 CHAMBLEE DUNWOODY RD C,DUNWOODY,GEORGIA,USA,"4490 CHAMBLEE DUNWOODY RD C DUNWOODY, GEORGIA USA",,
207,WORKBENCH ACE HARDWARE,1316 DUNWOODY VILLAGE PKW,DUNWOODY,GEORGIA,USA,"1316 DUNWOODY VILLAGE PKW DUNWOODY, GEORGIA USA",,
209,PELLA WINDOW & DOOR OF GA INC,4772 ASHFORD DUNWOODY RD 300,DUNWOODY,GEORGIA,USA,"4772 ASHFORD DUNWOODY RD 300 DUNWOODY, GEORGIA USA",,
210,BIG JOHN'S CHRISTMAS TREES IN,5419 CHAMBLEE DUNWOODY RD,DUNWOODY,GEORGIA,USA,"5419 CHAMBLEE DUNWOODY RD DUNWOODY, GEORGIA USA",,
212,MEXICAN SUPERMARKET LLC,6806 PEACHTREE IND. BLVD 1-A,DUNWOODY,GEORGIA,USA,"6806 PEACHTREE IND. BLVD 1-A DUNWOODY, GEORGIA USA",,
214,INDIAN BAZAAR,4639 N SHALLOWFORD RD,DUNWOODY,GEORGIA,USA,"4639 N SHALLOWFORD RD DUNWOODY, GEORGIA USA",,
216,THE FRESH MARKET,5515 CHAMBLEE DUNWOODY RD,DUNWOODY,GEORGIA,USA,"5515 CHAMBLEE DUNWOODY RD DUNWOODY, GEORGIA USA",,
217,KROGER CO #210,4498 CHAMBLEE DUNWOODY RD,DUNWOODY,GEORGIA,USA,"4498 CHAMBLEE DUNWOODY RD DUNWOODY, GEORGIA USA",,
218,PUBLIX SUPER MARKETS INC #765,5550 CHAMBLEE DUNWOODY RD,DUNWOODY,GEORGIA,USA,"5550 CHAMBLEE DUNWOODY RD DUNWOODY, GEORGIA USA",,
219,EXITOS LATINOS,6806 PEACHTREE IND. BLVD C,DUNWOODY,GEORGIA,USA,"6806 PEACHTREE IND. BLVD C DUNWOODY, GEORGIA USA",,
220,BP GAS STATION,4485 CHAMBLEE DUNWOODY RD,DUNWOODY,GEORGIA,USA,"4485 CHAMBLEE DUNWOODY RD DUNWOODY, GEORGIA USA",,
221,BP GAS STATION,5418 CHAMBLEE DUNWOODY RD,DUNWOODY,GEORGIA,USA,"5418 CHAMBLEE DUNWOODY RD DUNWOODY, GEORGIA USA",,
222,CIRCLE M #32,77 PERIMETER CTR E,DUNWOODY,GEORGIA,USA,"77 PERIMETER CTR E DUNWOODY, GEORGIA USA",,
223,CHEVRON FOOD MART,4249 DUNWOODY CLUB DRIVE,DUNWOODY,GEORGIA,USA,"4249 DUNWOODY CLUB DRIVE DUNWOODY, GEORGIA USA",,
225,PROCTOR PRODUCE,2490 JETT FERRY RD,DUNWOODY,GEORGIA,USA,"2490 JETT FERRY RD DUNWOODY, GEORGIA USA",,
227,SEE'S CANDY SHOP,4400 ASHFORD DUNWOODY RD 5548,DUNWOODY,GEORGIA,USA,"4400 ASHFORD DUNWOODY RD 5548 DUNWOODY, GEORGIA USA",,
228,GODIVA CHOCOLATIER INC,4400 ASHFORD DUNWOODY RD 1445,DUNWOODY,GEORGIA,USA,"4400 ASHFORD DUNWOODY RD 1445 DUNWOODY, GEORGIA USA",,
232,TEAVANA #28433,4400 ASHFORD DUNWOODY RD 2230,DUNWOODY,GEORGIA,USA,"4400 ASHFORD DUNWOODY RD 2230 DUNWOODY, GEORGIA USA",,
236,TOTAL WINE & MORE,124 PERIMETER CENTER WES,DUNWOODY,GEORGIA,USA,"124 PERIMETER CENTER WES DUNWOODY, GEORGIA USA",,
238,CARLTON'S PHARMACY,5484 CHAMBLEE DUNWOODY RD,DUNWOODY,GEORGIA,USA,"5484 CHAMBLEE DUNWOODY RD DUNWOODY, GEORGIA USA",,
239,ECKERD DBA RITE AID #11798,5556 CHAMBLEE DUNWOODY RD,DUNWOODY,GEORGIA,USA,"5556 CHAMBLEE DUNWOODY RD DUNWOODY, GEORGIA USA",,
240,ECKERD DBA RITE AID #11799,4621 NORTH SHALLOWFORD RD,DUNWOODY,GEORGIA,USA,"4621 NORTH SHALLOWFORD RD DUNWOODY, GEORGIA USA",,
241,CVS PHARMACY #4733,2500 MOUNT VERNON RD,DUNWOODY,GEORGIA,USA,"2500 MOUNT VERNON RD DUNWOODY, GEORGIA USA",,
242,CVS PHARMACY # 4537,1610 MOUNT VERNON RD 100,DUNWOODY,GEORGIA,USA,"1610 MOUNT VERNON RD 100 DUNWOODY, GEORGIA USA",,
244,WALGREENS #07167,5511 CHAMBLEE DUNWOODY RD A,DUNWOODY,GEORGIA,USA,"5511 CHAMBLEE DUNWOODY RD A DUNWOODY, GEORGIA USA",,
245,DUNWOODY PHARMACY,4675 N SHALLOWFORD RD 101,DUNWOODY,GEORGIA,USA,"4675 N SHALLOWFORD RD 101 DUNWOODY, GEORGIA USA",,
257,LUSH COSMETICS NY LLC,4400 ASHFORD DUNWOODY RD 2360,DUNWOODY,GEORGIA,USA,"4400 ASHFORD DUNWOODY RD 2360 DUNWOODY, GEORGIA USA",,
258,L'OCCITANE INC,4400 ASHFORD DUNWOODY RD 1445,DUNWOODY,GEORGIA,USA,"4400 ASHFORD DUNWOODY RD 1445 DUNWOODY, GEORGIA USA",,
259,THE BODY SHOP,4400 ASHFORD DUNWOODY RD 2312,DUNWOODY,GEORGIA,USA,"4400 ASHFORD DUNWOODY RD 2312 DUNWOODY, GEORGIA USA",,
260,AVEDA EXPERIENCE CENTERS INC,4400 ASHFORD DUNWOODY RD 1575,DUNWOODY,GEORGIA,USA,"4400 ASHFORD DUNWOODY RD 1575 DUNWOODY, GEORGIA USA",,
261,BARE ESCENTUALS BEAUTY,4400 ASHFORD DUNWOODY RD 2355,DUNWOODY,GEORGIA,USA,"4400 ASHFORD DUNWOODY RD 2355 DUNWOODY, GEORGIA USA",,
262,BATH & BODY WORKS LLC #210,4400 ASHFORD DUNWOODY RD 1445,DUNWOODY,GEORGIA,USA,"4400 ASHFORD DUNWOODY RD 1445 DUNWOODY, GEORGIA USA",,
263,MAC COSMETICS INC,4400 ASHFORD DUNWOODY RD 1600,DUNWOODY,GEORGIA,USA,"4400 ASHFORD DUNWOODY RD 1600 DUNWOODY, GEORGIA USA",,
264,ULTA SALON COSMETICS & FRAGRA,120 PERIMETER CENTER W 200,DUNWOODY,GEORGIA,USA,"120 PERIMETER CENTER W 200 DUNWOODY, GEORGIA USA",,
265,SEPHORA USA LLC,4400 ASHFORD DUNWOODY RD 1585,DUNWOODY,GEORGIA,USA,"4400 ASHFORD DUNWOODY RD 1585 DUNWOODY, GEORGIA USA",,
269,LENSCRAFTERS #156,4400 ASHFORD DUNWOODY RD 1280,DUNWOODY,GEORGIA,USA,"4400 ASHFORD DUNWOODY RD 1280 DUNWOODY, GEORGIA USA",,
270,GENERAL NUTRITION CORPORATION,4400 ASHFORD DUNWOODY RD 1445,DUNWOODY,GEORGIA,USA,"4400 ASHFORD DUNWOODY RD 1445 DUNWOODY, GEORGIA USA",,
271,ATLANTIS NATURAL FOODS,2458 JETT FERRY RD 240,DUNWOODY,GEORGIA,USA,"2458 JETT FERRY RD 240 DUNWOODY, GEORGIA USA",,
273,ASCENT TO HEALTH,4488 N SHALLOWFORD RD 218,DUNWOODY,GEORGIA,USA,"4488 N SHALLOWFORD RD 218 DUNWOODY, GEORGIA USA",,
275,"MR NEB, LLC",5076 WINTERS CHAPEL RD 200,DUNWOODY,GEORGIA,USA,"5076 WINTERS CHAPEL RD 200 DUNWOODY, GEORGIA USA",,
277,1 A SMART START OF DUNWOODY,5465 CHAMBLEE DUNWOODY RD,DUNWOODY,GEORGIA,USA,"5465 CHAMBLEE DUNWOODY RD DUNWOODY, GEORGIA USA",,
279,BP N PEACHTREE,4368 N PEACHTREE RD,DUNWOODY,GEORGIA,USA,"4368 N PEACHTREE RD DUNWOODY, GEORGIA USA",,
280,DUNWOODY CHEVRON,5465 CHAMBLEE DUNWOODY RD,DUNWOODY,GEORGIA,USA,"5465 CHAMBLEE DUNWOODY RD DUNWOODY, GEORGIA USA",,
283,SAVVI FORMAL WEAR,4511 OLDE PERIMETER WAY 200,DUNWOODY,GEORGIA,USA,"4511 OLDE PERIMETER WAY 200 DUNWOODY, GEORGIA USA",,
285,JOS A BANK CLOTHIERS INC,4500 OLDE PERIMETER WAY 1200,DUNWOODY,GEORGIA,USA,"4500 OLDE PERIMETER WAY 1200 DUNWOODY, GEORGIA USA",,
288,THE MEN'S WEARHOUSE #3109,1121 HAMMOND DR,DUNWOODY,GEORGIA,USA,"1121 HAMMOND DR DUNWOODY, GEORGIA USA",,
289,H STOCKTON PARK PLACE INC,4505 ASHFORD DUNWOODY RD,DUNWOODY,GEORGIA,USA,"4505 ASHFORD DUNWOODY RD DUNWOODY, GEORGIA USA",,
290,AMERICAN EAGLE OUTFITTERS #21,4400 ASHFORD DUNWOODY RD 1025,DUNWOODY,GEORGIA,USA,"4400 ASHFORD DUNWOODY RD 1025 DUNWOODY, GEORGIA USA",,
297,NANCY'S SHOPPE,5482 CHAMBLEE DUNWOODY RD 23A,DUNWOODY,GEORGIA,USA,"5482 CHAMBLEE DUNWOODY RD 23A DUNWOODY, GEORGIA USA",,
301,DESTINATION MATERNITY #1145,4400 ASHFORD DUNWOODY RD,DUNWOODY,GEORGIA,USA,"4400 ASHFORD DUNWOODY RD DUNWOODY, GEORGIA USA",,
303,LANE BRYANT INC #6637,4400 ASHFORD DUNWOODY RD 1010,DUNWOODY,GEORGIA,USA,"4400 ASHFORD DUNWOODY RD 1010 DUNWOODY, GEORGIA USA",,
304,SOMA INTIMATES #5024,4400 ASHFORD DUNWOODY RD 3025,DUNWOODY,GEORGIA,USA,"4400 ASHFORD DUNWOODY RD 3025 DUNWOODY, GEORGIA USA",,
306,J JILL,4400 ASHFORD DUNWOODY RD 1445,DUNWOODY,GEORGIA,USA,"4400 ASHFORD DUNWOODY RD 1445 DUNWOODY, GEORGIA USA",,
308,WHITE HOUSE/BLACK MARKET #305,4400 ASHFORD DUNWOODY RD 1450,DUNWOODY,GEORGIA,USA,"4400 ASHFORD DUNWOODY RD 1450 DUNWOODY, GEORGIA USA",,
309,GUESS,4400 ASHFORD DUNWOODY RD 2128,DUNWOODY,GEORGIA,USA,"4400 ASHFORD DUNWOODY RD 2128 DUNWOODY, GEORGIA USA",,
310,BCBG MAX AZRIA GROUP INC #630,4400 ASHFORD DUNWOODY RD 1455,DUNWOODY,GEORGIA,USA,"4400 ASHFORD DUNWOODY RD 1455 DUNWOODY, GEORGIA USA",,
312,ABERCROMBIE & FITCH #10683,4400 ASHFORD DUNWOODY RD 227,DUNWOODY,GEORGIA,USA,"4400 ASHFORD DUNWOODY RD 227 DUNWOODY, GEORGIA USA",,
315,NEW YORK & CO #5,4400 ASHFORD DUNWOODY RD,DUNWOODY,GEORGIA,USA,"4400 ASHFORD DUNWOODY RD DUNWOODY, GEORGIA USA",,
317,LOFT #1456,4400 ASHFORD DUNWOODY RD 1445,DUNWOODY,GEORGIA,USA,"4400 ASHFORD DUNWOODY RD 1445 DUNWOODY, GEORGIA USA",,
318,EXPRESS LLC #939,4400 ASHFORD DUNWOODY RD 1445,DUNWOODY,GEORGIA,USA,"4400 ASHFORD DUNWOODY RD 1445 DUNWOODY, GEORGIA USA",,
319,VICTORIA'S SECRET #96,4400 ASHFORD DUNWOODY RD,DUNWOODY,GEORGIA,USA,"4400 ASHFORD DUNWOODY RD DUNWOODY, GEORGIA USA",,
320,GRACE HOLMES/J CREW RETAIL #5,4400 ASHFORD DUNWOODY RD 2416,DUNWOODY,GEORGIA,USA,"4400 ASHFORD DUNWOODY RD 2416 DUNWOODY, GEORGIA USA",,
321,FOREVER XXI,4400 ASHFORD DUNWOODY RD 1315,DUNWOODY,GEORGIA,USA,"4400 ASHFORD DUNWOODY RD 1315 DUNWOODY, GEORGIA USA",,
327,GYMBOREE RETAIL STORES INC #9,4400 ASHFORD DUNWOODY RD 1610,DUNWOODY,GEORGIA,USA,"4400 ASHFORD DUNWOODY RD 1610 DUNWOODY, GEORGIA USA",,
329,HANNA ANDERSON LLC.,4400 ASHFORD DUNWOODY RD 1345,DUNWOODY,GEORGIA,USA,"4400 ASHFORD DUNWOODY RD 1345 DUNWOODY, GEORGIA USA",,
333,"BROOKS BROTHERS GROUP, INC",4400 ASHFORD DUNWOODY RD 1445,DUNWOODY,GEORGIA,USA,"4400 ASHFORD DUNWOODY RD 1445 DUNWOODY, GEORGIA USA",,
334,ZARA USA INC,4400 ASHFORD DUNWOODY RD 1445,DUNWOODY,GEORGIA,USA,"4400 ASHFORD DUNWOODY RD 1445 DUNWOODY, GEORGIA USA",,
335,ROSS DRESS FOR LESS,110 PERIMETER CENTER PL,DUNWOODY,GEORGIA,USA,"110 PERIMETER CENTER PL DUNWOODY, GEORGIA USA",,
336,OLD NAVY #5792,1161 HAMMOND DR 140,DUNWOODY,GEORGIA,USA,"1161 HAMMOND DR 140 DUNWOODY, GEORGIA USA",,
337,THE GAP #1302,4400 ASHFORD DUNWOODY RD 1122,DUNWOODY,GEORGIA,USA,"4400 ASHFORD DUNWOODY RD 1122 DUNWOODY, GEORGIA USA",,
338,MARSHALLS INC #563,1131 HAMMOND DR,DUNWOODY,GEORGIA,USA,"1131 HAMMOND DR DUNWOODY, GEORGIA USA",,
339,T J MAXX #104,134 PERIMETER CTR W,DUNWOODY,GEORGIA,USA,"134 PERIMETER CTR W DUNWOODY, GEORGIA USA",,
342,IT'S ABOUT TIME,4400 ASHFORD DUNWOODY RD 1445,DUNWOODY,GEORGIA,USA,"4400 ASHFORD DUNWOODY RD 1445 DUNWOODY, GEORGIA USA",,
343,SWIM N SPORT RETAIL INC,4400 ASHFORD DUNWOODY RD 2480,DUNWOODY,GEORGIA,USA,"4400 ASHFORD DUNWOODY RD 2480 DUNWOODY, GEORGIA USA",,
347,SHAPES DANCE & AEROBIC WEAR,5482 CHAMBLEE DUNWOODY RD A25,DUNWOODY,GEORGIA,USA,"5482 CHAMBLEE DUNWOODY RD A25 DUNWOODY, GEORGIA USA",,
349,ANTHROPOLOGIE INC,4400 ASHFORD DUNWOODY RD,DUNWOODY,GEORGIA,USA,"4400 ASHFORD DUNWOODY RD DUNWOODY, GEORGIA USA",,
351,STUART WEITZMAN,4400 ASHFORD DUNWOODY RD,DUNWOODY,GEORGIA,USA,"4400 ASHFORD DUNWOODY RD DUNWOODY, GEORGIA USA",,
353,STRIDE RITE #1410,4400 ASHFORD DUNWOODY RD 1128,DUNWOODY,GEORGIA,USA,"4400 ASHFORD DUNWOODY RD 1128 DUNWOODY, GEORGIA USA",,
354,THE WALKING COMPANY,4400 ASHFORD DUNWOODY RD 1445,DUNWOODY,GEORGIA,USA,"4400 ASHFORD DUNWOODY RD 1445 DUNWOODY, GEORGIA USA",,
357,JOHNSTON & MURPHY SHOP #1653,4400 ASHFORD DUNWOODY RD 1625,DUNWOODY,GEORGIA,USA,"4400 ASHFORD DUNWOODY RD 1625 DUNWOODY, GEORGIA USA",,
358,CLARKS SHOES #508,4400 ASHFORD DUNWOODY RD 1435,DUNWOODY,GEORGIA,USA,"4400 ASHFORD DUNWOODY RD 1435 DUNWOODY, GEORGIA USA",,
359,ALDO,4400 ASHFORD DUNWOODY RD 2410,DUNWOODY,GEORGIA,USA,"4400 ASHFORD DUNWOODY RD 2410 DUNWOODY, GEORGIA USA",,
360,FOOTLOCKER #7916,4400 ASHFORD DUNWOODY RD 2305,DUNWOODY,GEORGIA,USA,"4400 ASHFORD DUNWOODY RD 2305 DUNWOODY, GEORGIA USA",,
362,DSW SHOE WAREHOUSE #29071,4741 ASHFORD DUNWOODY RD,DUNWOODY,GEORGIA,USA,"4741 ASHFORD DUNWOODY RD DUNWOODY, GEORGIA USA",,
365,PANDORA JEWELRY,4400 ASHFORD DUNWOODY RD 1460,DUNWOODY,GEORGIA,USA,"4400 ASHFORD DUNWOODY RD 1460 DUNWOODY, GEORGIA USA",,
376,CAMELOT JEWELERS INC,2484 MOUNT VERNON RD A,DUNWOODY,GEORGIA,USA,"2484 MOUNT VERNON RD A DUNWOODY, GEORGIA USA",,
379,CLAIRES #5063,4400 ASHFORD DUNWOODY RD 1445,DUNWOODY,GEORGIA,USA,"4400 ASHFORD DUNWOODY RD 1445 DUNWOODY, GEORGIA USA",,
380,ZALES JEWELRY STORE #289,4400 ASHFORD DUNWOODY RD 2500,DUNWOODY,GEORGIA,USA,"4400 ASHFORD DUNWOODY RD 2500 DUNWOODY, GEORGIA USA",,
381,LUCKY BRAND DUNGAREES STORES,4400 ASHFORD DUNWOODY RD 2580,DUNWOODY,GEORGIA,USA,"4400 ASHFORD DUNWOODY RD 2580 DUNWOODY, GEORGIA USA",,
382,H & A INTERNAT'L JEWELRY LTD,1820 INDEPENDENCE SQ C/D,DUNWOODY,GEORGIA,USA,"1820 INDEPENDENCE SQ C/D DUNWOODY, GEORGIA USA",,
383,HELZBERG DIAMONDS #148,4400 ASHFORD DUNWOODY RD 1445,DUNWOODY,GEORGIA,USA,"4400 ASHFORD DUNWOODY RD 1445 DUNWOODY, GEORGIA USA",,
384,JEWELRY ARTISANS,4500 OLDE PERIMETER WAY 200,DUNWOODY,GEORGIA,USA,"4500 OLDE PERIMETER WAY 200 DUNWOODY, GEORGIA USA",,
388,JARED GALLERIA OF JEWELRY #46,4503 ASHFORD DUNWOODY RD,DUNWOODY,GEORGIA,USA,"4503 ASHFORD DUNWOODY RD DUNWOODY, GEORGIA USA",,
389,LEE BRANT JEWELERS INC,127 PERIMETER CENTER WES,DUNWOODY,GEORGIA,USA,"127 PERIMETER CENTER WES DUNWOODY, GEORGIA USA",,
396,PICAYUNE TOYS,2482 JETT FERRY RD 660,DUNWOODY,GEORGIA,USA,"2482 JETT FERRY RD 660 DUNWOODY, GEORGIA USA",,
397,GAMESTOP #4530,4400 ASHFORD DUNWOODY RD 1425,DUNWOODY,GEORGIA,USA,"4400 ASHFORD DUNWOODY RD 1425 DUNWOODY, GEORGIA USA",,
400,ANDREWS AMP LAB INC,4511 CHAMBLEE DUNWOODY RD,DUNWOODY,GEORGIA,USA,"4511 CHAMBLEE DUNWOODY RD DUNWOODY, GEORGIA USA",,
402,GA PERIMETER COLLEGE BOOK #70,2101 WOMACK RD BLDG B,DUNWOODY,GEORGIA,USA,"2101 WOMACK RD BLDG B DUNWOODY, GEORGIA USA",,
404,BARNES & NOBLE BOOKSELLERS IN,120 PERIMETER CTR W 300,DUNWOODY,GEORGIA,USA,"120 PERIMETER CTR W 300 DUNWOODY, GEORGIA USA",,
406,NEWS NECESSITIES,4400 ASHFORD DUNWOODY RD 1445,DUNWOODY,GEORGIA,USA,"4400 ASHFORD DUNWOODY RD 1445 DUNWOODY, GEORGIA USA",,
407,DILLARD'S,4500 ASHFORD DUNWOODY RD,DUNWOODY,GEORGIA,USA,"4500 ASHFORD DUNWOODY RD DUNWOODY, GEORGIA USA",,
409,NORDSTROM,4390 ASHFORD DUNWOODY RD 760,DUNWOODY,GEORGIA,USA,"4390 ASHFORD DUNWOODY RD 760 DUNWOODY, GEORGIA USA",,
410,MACY'S #20,4300 ASHFORD DUNWOODY RD,DUNWOODY,GEORGIA,USA,"4300 ASHFORD DUNWOODY RD DUNWOODY, GEORGIA USA",,
411,TARGET STORE T2036,100 PERIMETER CTR W,DUNWOODY,GEORGIA,USA,"100 PERIMETER CTR W DUNWOODY, GEORGIA USA",,
412,WAL MART SUPERCENTER #2360,4498 CHAMBLEE DUNWOODY RD,DUNWOODY,GEORGIA,USA,"4498 CHAMBLEE DUNWOODY RD DUNWOODY, GEORGIA USA",,
422,DUNWOODY FLOWERS,4656 KINGS DOWN RD,DUNWOODY,GEORGIA,USA,"4656 KINGS DOWN RD DUNWOODY, GEORGIA USA",,
425,DATED EVENTS LLC,1862 INDEPENDENCE SQ A,DUNWOODY,GEORGIA,USA,"1862 INDEPENDENCE SQ A DUNWOODY, GEORGIA USA",,
434,ENCHANTED FOREST LLC,5580 CHAMBLEE DUNWOODY RD 6,DUNWOODY,GEORGIA,USA,"5580 CHAMBLEE DUNWOODY RD 6 DUNWOODY, GEORGIA USA",,
440,TUESDAY MORNING #134,4522 CHAMBLEE DUNWOODY RD 104B,DUNWOODY,GEORGIA,USA,"4522 CHAMBLEE DUNWOODY RD 104B DUNWOODY, GEORGIA USA",,
441,MORI LUGGAGE & GIFTS INC,4400 ASHFORD DUNWOODY RD 2585,DUNWOODY,GEORGIA,USA,"4400 ASHFORD DUNWOODY RD 2585 DUNWOODY, GEORGIA USA",,
446,PETLAND DUNWOODY,4733 ASHFORD DUNWOODY RD,DUNWOODY,GEORGIA,USA,"4733 ASHFORD DUNWOODY RD DUNWOODY, GEORGIA USA",,
447,PETSMART INC #290,128 PERIMETER CTR W,DUNWOODY,GEORGIA,USA,"128 PERIMETER CTR W DUNWOODY, GEORGIA USA",,
466,PRIME HARWOOD FLOORS LLC,5000 WINTERS CHAPEL RD 9,DUNWOODY,GEORGIA,USA,"5000 WINTERS CHAPEL RD 9 DUNWOODY, GEORGIA USA",,
473,CELLAIRIS,4400 ASHFORD DUNWOODY RD 1445,DUNWOODY,GEORGIA,USA,"4400 ASHFORD DUNWOODY RD 1445 DUNWOODY, GEORGIA USA",,
482,ATLANTA CANDLE INC,4340 DUNWOODY PARK S 11,DUNWOODY,GEORGIA,USA,"4340 DUNWOODY PARK S 11 DUNWOODY, GEORGIA USA",,
483,AVENUES GIFTS #30,4355 ASHFORD DUNWOODY RD,DUNWOODY,GEORGIA,USA,"4355 ASHFORD DUNWOODY RD DUNWOODY, GEORGIA USA",,
485,ATLANTA HEARING ASSOCIATES,1713 MT VERNON ROAD,DUNWOODY,GEORGIA,USA,"1713 MT VERNON ROAD DUNWOODY, GEORGIA USA",,
487,PIERCING PAGODA #2558,4400 ASHFORD DUNWOODY RD 2630,DUNWOODY,GEORGIA,USA,"4400 ASHFORD DUNWOODY RD 2630 DUNWOODY, GEORGIA USA",,
496,SOUTHERN LIGHTING SOURCE,1862 INDEPENDENCE SQUARE E,DUNWOODY,GEORGIA,USA,"1862 INDEPENDENCE SQUARE E DUNWOODY, GEORGIA USA",,
502,SWAROVSKI #09,4400 ASHFORD DUNWOODY RD 2357,DUNWOODY,GEORGIA,USA,"4400 ASHFORD DUNWOODY RD 2357 DUNWOODY, GEORGIA USA",,
507,PARK PLACE SHOPPING CENTER,4050 ASHFORD DUNWOODY RD,DUNWOODY,GEORGIA,USA,"4050 ASHFORD DUNWOODY RD DUNWOODY, GEORGIA USA",,
508,BRIGHTON COLLECTIBLES,4400 ASHFORD DUNWOODY RD 2595,DUNWOODY,GEORGIA,USA,"4400 ASHFORD DUNWOODY RD 2595 DUNWOODY, GEORGIA USA",,
509,COST PLUS WORLD MARKET #126,4733 ASHFORD DUNWOODY RD A,DUNWOODY,GEORGIA,USA,"4733 ASHFORD DUNWOODY RD A DUNWOODY, GEORGIA USA",,
510,BANANA REPUBLIC #8130,4400 ASHFORD DUNWOODY RD 2411,DUNWOODY,GEORGIA,USA,"4400 ASHFORD DUNWOODY RD 2411 DUNWOODY, GEORGIA USA",,
512,THE CONTAINER STORE INC,120 PERIMETER CTR W NE S,DUNWOODY,GEORGIA,USA,"120 PERIMETER CTR W NE S DUNWOODY, GEORGIA USA",,
541,BEST BUY STORES LP #503,1201 HAMMOND DR C,DUNWOODY,GEORGIA,USA,"1201 HAMMOND DR C DUNWOODY, GEORGIA USA",,
545,TRANSWORLD SHIPPING (USA) INC,1050 CROWN POINTE PKWY 1633,DUNWOODY,GEORGIA,USA,"1050 CROWN POINTE PKWY 1633 DUNWOODY, GEORGIA USA",,
553,ONA FOODS INC,1200 ASHWOOD PKWY 570,DUNWOODY,GEORGIA,USA,"1200 ASHWOOD PKWY 570 DUNWOODY, GEORGIA USA",,
554,CRIER NEWSPAPERS LLC,5064 NANDINA LANE C,DUNWOODY,GEORGIA,USA,"5064 NANDINA LANE C DUNWOODY, GEORGIA USA",,
558,ORGANIZED THOUGHTS PUBLISHING,4640 G PEACHTREE PL PARKW,DUNWOODY,GEORGIA,USA,"4640 G PEACHTREE PL PARKW DUNWOODY, GEORGIA USA",,
573,GLOBAL CROSSING TELECOMM INC,100 ASHFORD CENTER,DUNWOODY,GEORGIA,USA,"100 ASHFORD CENTER DUNWOODY, GEORGIA USA",,
578,TELESOFT TECHNOLOGIES INC,200 ASHFORD CENTER N 160,DUNWOODY,GEORGIA,USA,"200 ASHFORD CENTER N 160 DUNWOODY, GEORGIA USA",,
580,TUNGSTEN NETWORK INC,1040 CROWN POINTE PKWY 350,DUNWOODY,GEORGIA,USA,"1040 CROWN POINTE PKWY 350 DUNWOODY, GEORGIA USA",,
582,LENDLEASE (US) CONSTRUCTION,48 PERIMETER CTR E,DUNWOODY,GEORGIA,USA,"48 PERIMETER CTR E DUNWOODY, GEORGIA USA",,
584,CORPORATE AMERICA FAMILY CRED,115 PERIMETER CENTER PL 187,DUNWOODY,GEORGIA,USA,"115 PERIMETER CENTER PL 187 DUNWOODY, GEORGIA USA",,
586,SKYLIGHT FINANCIAL INC,1455 LINCOLN PKWY 600,DUNWOODY,GEORGIA,USA,"1455 LINCOLN PKWY 600 DUNWOODY, GEORGIA USA",,
587,JEWISH EDUCATIONAL LOAN FUND,4549 CHAMBLEE DUNWOODY RD,DUNWOODY,GEORGIA,USA,"4549 CHAMBLEE DUNWOODY RD DUNWOODY, GEORGIA USA",,
589,OXXFORD RELOCATION CTR INC,200 ASHFORD CTR N 340,DUNWOODY,GEORGIA,USA,"200 ASHFORD CTR N 340 DUNWOODY, GEORGIA USA",,
600,ALLIED FINANCIAL CORPORATION,5591 CHAMBLEE DUNWOODY RD 210,DUNWOODY,GEORGIA,USA,"5591 CHAMBLEE DUNWOODY RD 210 DUNWOODY, GEORGIA USA",,
617,MEXICO TRANSFERS INC,6806 PEACHTREE INDUSTRIAL E,DUNWOODY,GEORGIA,USA,"6806 PEACHTREE INDUSTRIAL E DUNWOODY, GEORGIA USA",,
619,EDWARD JONES #08608,5500 CHAMBLEE DUNWOODY RD E3,DUNWOODY,GEORGIA,USA,"5500 CHAMBLEE DUNWOODY RD E3 DUNWOODY, GEORGIA USA",,
627,INVESTMENT PLANNING LLC,3 DUNWOODY PARK 118,DUNWOODY,GEORGIA,USA,"3 DUNWOODY PARK 118 DUNWOODY, GEORGIA USA",,
632,UNITED FINANCIAL SERVICES,5502 DREXEL WAY,DUNWOODY,GEORGIA,USA,"5502 DREXEL WAY DUNWOODY, GEORGIA USA",,
635,RETIREMENT WEALTH MANAGEMENT,2 RAVINIA DR 1625,DUNWOODY,GEORGIA,USA,"2 RAVINIA DR 1625 DUNWOODY, GEORGIA USA",,
637,BOB GORDON & COMPANY INC,1868 INDEPENDENCE SQ D,DUNWOODY,GEORGIA,USA,"1868 INDEPENDENCE SQ D DUNWOODY, GEORGIA USA",,
638,ADVISORY SERVICES LTD,1818 INDEPENDENCE SQ A,DUNWOODY,GEORGIA,USA,"1818 INDEPENDENCE SQ A DUNWOODY, GEORGIA USA",,
639,THOMAS M COSTELLO INC,1 RAVINIA DRIVE 1110,DUNWOODY,GEORGIA,USA,"1 RAVINIA DRIVE 1110 DUNWOODY, GEORGIA USA",,
641,HAP INVESTMENT GROUP LLC,200 ASHFORD CENTER N 210,DUNWOODY,GEORGIA,USA,"200 ASHFORD CENTER N 210 DUNWOODY, GEORGIA USA",,
642,CAMBRIDGE WEALTH COUNSEL,115 PERIMETER CENTER PL 860,DUNWOODY,GEORGIA,USA,"115 PERIMETER CENTER PL 860 DUNWOODY, GEORGIA USA",,
651,THOMAS A KUDARAUSKAS INC,1 RAVINIA DRIVE 1110,DUNWOODY,GEORGIA,USA,"1 RAVINIA DRIVE 1110 DUNWOODY, GEORGIA USA",,
652,GUY C MOWER INC,1 RAVINA DRIVE 1110,DUNWOODY,GEORGIA,USA,"1 RAVINA DRIVE 1110 DUNWOODY, GEORGIA USA",,
653,GALLMAN'S INVESTMENT MGMT LLC,1742 MOUNT VERNON RD 200,DUNWOODY,GEORGIA,USA,"1742 MOUNT VERNON RD 200 DUNWOODY, GEORGIA USA",,
662,STRATEGIC PLANNING GROUP,3 RAVINIA DRIVE 1830,DUNWOODY,GEORGIA,USA,"3 RAVINIA DRIVE 1830 DUNWOODY, GEORGIA USA",,
665,FREDERICK S HOMONEK & ASSOCIA,4515 CHAMBLEE DUNWOODY RD 100,DUNWOODY,GEORGIA,USA,"4515 CHAMBLEE DUNWOODY RD 100 DUNWOODY, GEORGIA USA",,
675,MCIC VERMONT INC,2 RAVINIA DR 400,DUNWOODY,GEORGIA,USA,"2 RAVINIA DR 400 DUNWOODY, GEORGIA USA",,
676,ROGERS BENEFIT GROUP,47 PERIMETER CTR E 420,DUNWOODY,GEORGIA,USA,"47 PERIMETER CTR E 420 DUNWOODY, GEORGIA USA",,
682,QUANTUM BENEFITS COM,1530 DUNWOODY VILLAGE PKW 204,DUNWOODY,GEORGIA,USA,"1530 DUNWOODY VILLAGE PKW 204 DUNWOODY, GEORGIA USA",,
683,EULER HERMES N. AMERICA INS C,400 PERIMETER CENTER TER 150,DUNWOODY,GEORGIA,USA,"400 PERIMETER CENTER TER 150 DUNWOODY, GEORGIA USA",,
686,SEGUROS UNIVERSAL INC,5025 L WINTERS CHAPEL ROA,DUNWOODY,GEORGIA,USA,"5025 L WINTERS CHAPEL ROA DUNWOODY, GEORGIA USA",,
691,JOHN J LESTER / STATE FARM IN,1742 MT VERNON ROAD 150,DUNWOODY,GEORGIA,USA,"1742 MT VERNON ROAD 150 DUNWOODY, GEORGIA USA",,
692,LIBERTO AND ASSOCIATES,1851-A PEELER ROAD,DUNWOODY,GEORGIA,USA,"1851-A PEELER ROAD DUNWOODY, GEORGIA USA",,
696,R T SERVICES LLC,3 DUNWOODY PARK 103,DUNWOODY,GEORGIA,USA,"3 DUNWOODY PARK 103 DUNWOODY, GEORGIA USA",,
699,PHILLIP WIGGINS STATE FARM,5575 CHAMBLEE DUNWOODY RD C,DUNWOODY,GEORGIA,USA,"5575 CHAMBLEE DUNWOODY RD C DUNWOODY, GEORGIA USA",,
701,ATLANTIC INTERNATIONAL COMPAN,1 DUNWOODY PARK DR 114,DUNWOODY,GEORGIA,USA,"1 DUNWOODY PARK DR 114 DUNWOODY, GEORGIA USA",,
702,MARK HARDEN STATE FARM,1874-D INDEPENDENCE SQ,DUNWOODY,GEORGIA,USA,"1874-D INDEPENDENCE SQ DUNWOODY, GEORGIA USA",,
704,SANDERS INS SERVICES INC,47 PERIMETER CENTER EAS,DUNWOODY,GEORGIA,USA,"47 PERIMETER CENTER EAS DUNWOODY, GEORGIA USA",,
705,RETIREE PLANS INC,1851-A PEELER ROAD,DUNWOODY,GEORGIA,USA,"1851-A PEELER ROAD DUNWOODY, GEORGIA USA",,
707,THE REED COMPANY,1864-D INDEPENDENCE SQUARE,DUNWOODY,GEORGIA,USA,"1864-D INDEPENDENCE SQUARE DUNWOODY, GEORGIA USA",,
708,INSURANCE NOW,2428 KINGSLAND DR,DUNWOODY,GEORGIA,USA,"2428 KINGSLAND DR DUNWOODY, GEORGIA USA",,
710,KIRT LATTANZE & ASSOCIATES IN,1705-D MT VERNON RD,DUNWOODY,GEORGIA,USA,"1705-D MT VERNON RD DUNWOODY, GEORGIA USA",,
711,WILLIAM GALLAGER ASSOC INS,2 RAVINA DRIVE 1540,DUNWOODY,GEORGIA,USA,"2 RAVINA DRIVE 1540 DUNWOODY, GEORGIA USA",,
714,WESTCOTT & ASSOCIATES INC,2402 MT VERNON RD 150,DUNWOODY,GEORGIA,USA,"2402 MT VERNON RD 150 DUNWOODY, GEORGIA USA",,
715,CHAMPION BENEFITS APPROACH,1455 LINCOLN PKWY E #100,DUNWOODY,GEORGIA,USA,"1455 LINCOLN PKWY E #100 DUNWOODY, GEORGIA USA",,
717,ASHFORD ADVISORS INC,900 ASHWOOD PARKWAY 400,DUNWOODY,GEORGIA,USA,"900 ASHWOOD PARKWAY 400 DUNWOODY, GEORGIA USA",,
718,HAMBY & ALOISIO INC,53 PERIMETER CTR E #400,DUNWOODY,GEORGIA,USA,"53 PERIMETER CTR E #400 DUNWOODY, GEORGIA USA",,
722,JOHN HANCOCK RETIREMENT PLAN,115 PERIMETER CENTER PLA,DUNWOODY,GEORGIA,USA,"115 PERIMETER CENTER PLA DUNWOODY, GEORGIA USA",,
723,S OVERBY & CO INC,2472 JETT FERRY RD 400 124,DUNWOODY,GEORGIA,USA,"2472 JETT FERRY RD 400 124 DUNWOODY, GEORGIA USA",,
727,AMERISYS-USIS,9 DUNWOODY PARK 106,DUNWOODY,GEORGIA,USA,"9 DUNWOODY PARK 106 DUNWOODY, GEORGIA USA",,
730,RISK INNOVATIONS LLC,211 PERIMETER CENTER PKW 1050,DUNWOODY,GEORGIA,USA,"211 PERIMETER CENTER PKW 1050 DUNWOODY, GEORGIA USA",,
732,LEASE SOURCE INC,1530 DUNWOODY VILLAGE PKW 204,DUNWOODY,GEORGIA,USA,"1530 DUNWOODY VILLAGE PKW 204 DUNWOODY, GEORGIA USA",,
734,DUNWOODY TRAIL APARTMENTS INC,2061-A PERNOSHAL COURT,DUNWOODY,GEORGIA,USA,"2061-A PERNOSHAL COURT DUNWOODY, GEORGIA USA",,
736,DELIDO APARTMENTS LLC,4685 CHAMBLEE DUNWOODY RD,DUNWOODY,GEORGIA,USA,"4685 CHAMBLEE DUNWOODY RD DUNWOODY, GEORGIA USA",,
739,DUNWOODY GABLES,1970 PEACHFORD RD,DUNWOODY,GEORGIA,USA,"1970 PEACHFORD RD DUNWOODY, GEORGIA USA",,
743,POST CROSSING,4777 ASHFORD DUNWOODY RD,DUNWOODY,GEORGIA,USA,"4777 ASHFORD DUNWOODY RD DUNWOODY, GEORGIA USA",,
753,UHS OF PEACHFORD LP/PEACHFORD,2150 PEACHFORD ROAD,DUNWOODY,GEORGIA,USA,"2150 PEACHFORD ROAD DUNWOODY, GEORGIA USA",,
754,SALON STUDIOS,1151 HAMMOND DR NE 200 131,DUNWOODY,GEORGIA,USA,"1151 HAMMOND DR NE 200 131 DUNWOODY, GEORGIA USA",,
755,REGUS MANAGEMENT GROUP LLC,400 PERIMETER CENTER TER,DUNWOODY,GEORGIA,USA,"400 PERIMETER CENTER TER DUNWOODY, GEORGIA USA",,
756,DUNWOODY PARK PARTNERS INC,3 DUNWOODY PARK 103,DUNWOODY,GEORGIA,USA,"3 DUNWOODY PARK 103 DUNWOODY, GEORGIA USA",,
757,PERIMETER MALL LLC,4400 ASHFORD DUNWOODY RD 1360,DUNWOODY,GEORGIA,USA,"4400 ASHFORD DUNWOODY RD 1360 DUNWOODY, GEORGIA USA",,
761,SCCN INC,1745 OLD SPRINGHOUSE LANE 400,DUNWOODY,GEORGIA,USA,"1745 OLD SPRINGHOUSE LANE 400 DUNWOODY, GEORGIA USA",,
772,KHALSA PROPERTIES LLC,1845 PEELER ROAD A,DUNWOODY,GEORGIA,USA,"1845 PEELER ROAD A DUNWOODY, GEORGIA USA",,
777,R 19 LLC,2 RAVINIA DRIVE 110,DUNWOODY,GEORGIA,USA,"2 RAVINIA DRIVE 110 DUNWOODY, GEORGIA USA",,
783,LANDCOR LLC,1853 PEELER RD D,DUNWOODY,GEORGIA,USA,"1853 PEELER RD D DUNWOODY, GEORGIA USA",,
784,POTTS REALTY,1733 MT VERNON ROAD 200,DUNWOODY,GEORGIA,USA,"1733 MT VERNON ROAD 200 DUNWOODY, GEORGIA USA",,
791,MPB LIMITED PARTNERSHIP,1567 MT VERNON RD,DUNWOODY,GEORGIA,USA,"1567 MT VERNON RD DUNWOODY, GEORGIA USA",,
795,KAREN CANNON REALTORS INC,1317 DUNWOODY VILLAGE PKW 103,DUNWOODY,GEORGIA,USA,"1317 DUNWOODY VILLAGE PKW 103 DUNWOODY, GEORGIA USA",,
797,HARRY NORMAN REALTORS,4848 ASHFORD DUNWOODY RD,DUNWOODY,GEORGIA,USA,"4848 ASHFORD DUNWOODY RD DUNWOODY, GEORGIA USA",,
799,ATLANTA PERIMETER LLC,115 PERIMETER CENTER PL 630,DUNWOODY,GEORGIA,USA,"115 PERIMETER CENTER PL 630 DUNWOODY, GEORGIA USA",,
801,GEORGIA COMMERCIAL STORES INC,1707 MT VERNON RD D,DUNWOODY,GEORGIA,USA,"1707 MT VERNON RD D DUNWOODY, GEORGIA USA",,
813,FITZLEW ENTERPRISES LLC,1872 INDEPENDENCE SQ D,DUNWOODY,GEORGIA,USA,"1872 INDEPENDENCE SQ D DUNWOODY, GEORGIA USA",,
815,CCD DUNWOODY HOLDINGS LLC,1350 CENTER DRIVE 1350 100,DUNWOODY,GEORGIA,USA,"1350 CENTER DRIVE 1350 100 DUNWOODY, GEORGIA USA",,
816,JOHARY GROUP LLC,1320 CENTER DRIVE 100,DUNWOODY,GEORGIA,USA,"1320 CENTER DRIVE 100 DUNWOODY, GEORGIA USA",,
817,AXIS AT PERIMETER,8 PERIMETER CENTER EAS,DUNWOODY,GEORGIA,USA,"8 PERIMETER CENTER EAS DUNWOODY, GEORGIA USA",,
818,STERLING REALTY MANAGEMENT IN,2 RAVINIA DRIVE 610,DUNWOODY,GEORGIA,USA,"2 RAVINIA DRIVE 610 DUNWOODY, GEORGIA USA",,
819,PARKWOOD VILLAGE APARTMENTS,4920 WINTERS CHAPEL RD,DUNWOODY,GEORGIA,USA,"4920 WINTERS CHAPEL RD DUNWOODY, GEORGIA USA",,
822,CAMDEN DUNWOODY,10 PEACHFORD CIR,DUNWOODY,GEORGIA,USA,"10 PEACHFORD CIR DUNWOODY, GEORGIA USA",,
823,WINDSOR AT CONVERGENCE 219 LL,219 PERIMETER CENTER PKW,DUNWOODY,GEORGIA,USA,"219 PERIMETER CENTER PKW DUNWOODY, GEORGIA USA",,
824,WINDSOR AT CONVERGENCE 223 LL,223 PERIMETER CENTER PKW,DUNWOODY,GEORGIA,USA,"223 PERIMETER CENTER PKW DUNWOODY, GEORGIA USA",,
825,THE COLUMNS AT LAKE RIDGE APT,3900 LAKE RIDGE LN,DUNWOODY,GEORGIA,USA,"3900 LAKE RIDGE LN DUNWOODY, GEORGIA USA",,
827,WINDSOR AT CONVERGENCE 211 LL,211 PERIMETER CENTER PKW,DUNWOODY,GEORGIA,USA,"211 PERIMETER CENTER PKW DUNWOODY, GEORGIA USA",,
833,JAMES J BROOKS III CPA PC,1843 PEELER ROAD D,DUNWOODY,GEORGIA,USA,"1843 PEELER ROAD D DUNWOODY, GEORGIA USA",,
835,FIRST SOUTHERN MANAGEMENT LLC,1842 INDEPENDENCE SQ C,DUNWOODY,GEORGIA,USA,"1842 INDEPENDENCE SQ C DUNWOODY, GEORGIA USA",,
843,"CBRE, INC.",3 RAVINIA DR,DUNWOODY,GEORGIA,USA,"3 RAVINIA DR DUNWOODY, GEORGIA USA",,
844,ARNOLD M SCHWARTZ & ASSOC INC,1516 BIDDLE CT,DUNWOODY,GEORGIA,USA,"1516 BIDDLE CT DUNWOODY, GEORGIA USA",,
847,RAINBOW REALTY ASSOCIATES/STE,2 RAVINIA DRIVE 610,DUNWOODY,GEORGIA,USA,"2 RAVINIA DRIVE 610 DUNWOODY, GEORGIA USA",,
850,M2Z2 COM INC,1707 MOUNT VERNON RD D,DUNWOODY,GEORGIA,USA,"1707 MOUNT VERNON RD D DUNWOODY, GEORGIA USA",,
854,AVIS RENT A CAR SYSTEM LLC,5477 CHAMBLEE DUNWOODY RD,DUNWOODY,GEORGIA,USA,"5477 CHAMBLEE DUNWOODY RD DUNWOODY, GEORGIA USA",,
855,ENTERPRISE RENT A CAR 0382,1400 DUNWOODY VILLAGE PKW,DUNWOODY,GEORGIA,USA,"1400 DUNWOODY VILLAGE PKW DUNWOODY, GEORGIA USA",,
856,HERTZ RENT A CAR,246 PERIMETER CENTER PKY,DUNWOODY,GEORGIA,USA,"246 PERIMETER CENTER PKY DUNWOODY, GEORGIA USA",,
857,REDBOX AUTOMATED RETAIL LLC,5511A CHAMBLEE DUNWOODY RD,DUNWOODY,GEORGIA,USA,"5511A CHAMBLEE DUNWOODY RD DUNWOODY, GEORGIA USA",,
858,REDBOX AUTOMATED RETAIL LLC,4498 CHAMBLEE DUNWOODY RD,DUNWOODY,GEORGIA,USA,"4498 CHAMBLEE DUNWOODY RD DUNWOODY, GEORGIA USA",,
865,PRESENTATION SERVICES #4258,111 PERIMETER CTR W,DUNWOODY,GEORGIA,USA,"111 PERIMETER CTR W DUNWOODY, GEORGIA USA",,
867,HINES INTERESTS LP,5 RAVINIA DR,DUNWOODY,GEORGIA,USA,"5 RAVINIA DR DUNWOODY, GEORGIA USA",,
872,JAMES S PLACKIS,1360 CENTER DRIVE 200,DUNWOODY,GEORGIA,USA,"1360 CENTER DRIVE 200 DUNWOODY, GEORGIA USA",,
873,GINA MICALIZIO ATTY AT LAW PC,4600 DEVONSHIRE RD,DUNWOODY,GEORGIA,USA,"4600 DEVONSHIRE RD DUNWOODY, GEORGIA USA",,
874,HILBERT LAW FIRM,400 PERIMETER CENTER TER 900,DUNWOODY,GEORGIA,USA,"400 PERIMETER CENTER TER 900 DUNWOODY, GEORGIA USA",,
875,FORD & JOSEY PC,1841-B PEELER ROAD,DUNWOODY,GEORGIA,USA,"1841-B PEELER ROAD DUNWOODY, GEORGIA USA",,
880,J DIANE JOSEY,1841-B PEELER ROAD,DUNWOODY,GEORGIA,USA,"1841-B PEELER ROAD DUNWOODY, GEORGIA USA",,
884,LAW OFFICE OF MICHAEL A YOUNG,1050 CROWN POINTE PKWY 330,DUNWOODY,GEORGIA,USA,"1050 CROWN POINTE PKWY 330 DUNWOODY, GEORGIA USA",,
886,BRICKS LAW FIRM PC,1360 CENTER DR 200,DUNWOODY,GEORGIA,USA,"1360 CENTER DR 200 DUNWOODY, GEORGIA USA",,
887,JAY W PAKCHAR ATTORNEY AT LAW,1742 MOUNT VERNON RD 300,DUNWOODY,GEORGIA,USA,"1742 MOUNT VERNON RD 300 DUNWOODY, GEORGIA USA",,
891,HAWKINS SPIZMAN KILGO,1535 MT VERNON RD 200,DUNWOODY,GEORGIA,USA,"1535 MT VERNON RD 200 DUNWOODY, GEORGIA USA",,
893,MARCI R ROSENBERG PC,1340 CENTER DR 202,DUNWOODY,GEORGIA,USA,"1340 CENTER DR 202 DUNWOODY, GEORGIA USA",,
894,ABRAHAM A SHARONY PC,9 DUNWOODY PARK 112,DUNWOODY,GEORGIA,USA,"9 DUNWOODY PARK 112 DUNWOODY, GEORGIA USA",,
896,THE LITWIN LAW FIRM PC,1742 MOUNT VERNON RD 300,DUNWOODY,GEORGIA,USA,"1742 MOUNT VERNON RD 300 DUNWOODY, GEORGIA USA",,
897,HILL AND BLEIBERG,47 PERIMETER CENTER EAS 200,DUNWOODY,GEORGIA,USA,"47 PERIMETER CENTER EAS 200 DUNWOODY, GEORGIA USA",,
899,RUMSEY AND RAMSEY,1864 INDEPENDENCE SQUARE C,DUNWOODY,GEORGIA,USA,"1864 INDEPENDENCE SQUARE C DUNWOODY, GEORGIA USA",,
901,GINSBERG LAW OFFICES,1854 INDEPENDENCE SQUARE,DUNWOODY,GEORGIA,USA,"1854 INDEPENDENCE SQUARE DUNWOODY, GEORGIA USA",,
902,HOLZER & HOLZER LLC,1200 ASHWOOD PKWY 410,DUNWOODY,GEORGIA,USA,"1200 ASHWOOD PKWY 410 DUNWOODY, GEORGIA USA",,
904,"SKEDSVOLD & WHITE, LLC",1050 CROWN POINTE PKWY 710,DUNWOODY,GEORGIA,USA,"1050 CROWN POINTE PKWY 710 DUNWOODY, GEORGIA USA",,
905,DONAHUE & COHEN LLC,1050 CROWN POINTE PKWY 1600,DUNWOODY,GEORGIA,USA,"1050 CROWN POINTE PKWY 1600 DUNWOODY, GEORGIA USA",,
907,PERSONAL LEGAL PLANS,100 ASHFORD CTR N 170,DUNWOODY,GEORGIA,USA,"100 ASHFORD CTR N 170 DUNWOODY, GEORGIA USA",,
908,"TATE & BICKNESE, LLP",56 PERIMETER CENTER E 450,DUNWOODY,GEORGIA,USA,"56 PERIMETER CENTER E 450 DUNWOODY, GEORGIA USA",,
909,FRIEND HUDAK & HARRIS LLP,3 RAVINIA DR 1700,DUNWOODY,GEORGIA,USA,"3 RAVINIA DR 1700 DUNWOODY, GEORGIA USA",,
910,"SHAPIRO PENDERGAST & HASTY, L",211 PERIMETER CENTER PKW 300,DUNWOODY,GEORGIA,USA,"211 PERIMETER CENTER PKW 300 DUNWOODY, GEORGIA USA",,
911,"BOVIS, KYLE, BURCH, & MEDLIN",200 ASHFORD CENTER NORTH 500,DUNWOODY,GEORGIA,USA,"200 ASHFORD CENTER NORTH 500 DUNWOODY, GEORGIA USA",,
912,CLIFFORD G HOFFMAN PC,1643 MOUNT VERNON RD 100,DUNWOODY,GEORGIA,USA,"1643 MOUNT VERNON RD 100 DUNWOODY, GEORGIA USA",,
913,FELDMAN LAW OFFICES LLC,1847 PEELER RD C,DUNWOODY,GEORGIA,USA,"1847 PEELER RD C DUNWOODY, GEORGIA USA",,
915,AFFLECK & GORDON PC,211 PERIMETER CENTER PKW 930,DUNWOODY,GEORGIA,USA,"211 PERIMETER CENTER PKW 930 DUNWOODY, GEORGIA USA",,
918,COLEMAN & DEMPSEY LLP,2 RAVINIA DR 1250,DUNWOODY,GEORGIA,USA,"2 RAVINIA DR 1250 DUNWOODY, GEORGIA USA",,
921,DAVID ALLEN KENNEDY,1864 INDEPENDENCE SQ B,DUNWOODY,GEORGIA,USA,"1864 INDEPENDENCE SQ B DUNWOODY, GEORGIA USA",,
923,DOUGLAS R THOMPSON PC,1872-C INDEPENDENCE SQUARE,DUNWOODY,GEORGIA,USA,"1872-C INDEPENDENCE SQUARE DUNWOODY, GEORGIA USA",,
926,HEDRICK LAW LLC,2408 MOUNT VERNON RD,DUNWOODY,GEORGIA,USA,"2408 MOUNT VERNON RD DUNWOODY, GEORGIA USA",,
927,KAREN S HINDSON PC,303 PERIMETER CENTER N 300,DUNWOODY,GEORGIA,USA,"303 PERIMETER CENTER N 300 DUNWOODY, GEORGIA USA",,
934,MALONE LAW OFFICE PC,2 RAVINIA DR 300,DUNWOODY,GEORGIA,USA,"2 RAVINIA DR 300 DUNWOODY, GEORGIA USA",,
941,RAGLAND & JONES LLP,115 PERIMETER CENTER PL 425,DUNWOODY,GEORGIA,USA,"115 PERIMETER CENTER PL 425 DUNWOODY, GEORGIA USA",,
942,BUCK LAW FIRM,1050 CROWN POINTE PKWY 940,DUNWOODY,GEORGIA,USA,"1050 CROWN POINTE PKWY 940 DUNWOODY, GEORGIA USA",,
945,FRED L SOMERS JR PC,5579 CHAMBLEE DUNWOODY RD B,DUNWOODY,GEORGIA,USA,"5579 CHAMBLEE DUNWOODY RD B DUNWOODY, GEORGIA USA",,
947,THE GEHEREN FIRM PC,1535 MT VERNON RD 200,DUNWOODY,GEORGIA,USA,"1535 MT VERNON RD 200 DUNWOODY, GEORGIA USA",,
954,JACKSON L CULBRETH ATTORNEY,115 PERIMETER CENTER PL 900,DUNWOODY,GEORGIA,USA,"115 PERIMETER CENTER PL 900 DUNWOODY, GEORGIA USA",,
957,THE ABRAM LAW GROUP LLC,1200 ASHWOOD PKWY 560,DUNWOODY,GEORGIA,USA,"1200 ASHWOOD PKWY 560 DUNWOODY, GEORGIA USA",,
960,BROOKS JAMES,1843 PEELER ROAD D,DUNWOODY,GEORGIA,USA,"1843 PEELER ROAD D DUNWOODY, GEORGIA USA",,
963,KAHNSULTING FINANCIAL PLANNIN,400 PERIMETER CENTER TER,DUNWOODY,GEORGIA,USA,"400 PERIMETER CENTER TER DUNWOODY, GEORGIA USA",,
965,CLIFTON HARRISON CPA PC,1730 MOUNT VERNON RD G,DUNWOODY,GEORGIA,USA,"1730 MOUNT VERNON RD G DUNWOODY, GEORGIA USA",,
967,JOHN PAUL HENRY CPA,1870 B INDEPENDENCE SQ,DUNWOODY,GEORGIA,USA,"1870 B INDEPENDENCE SQ DUNWOODY, GEORGIA USA",,
968,MARK W OESTERLE CPA,1853 PEELER RD D,DUNWOODY,GEORGIA,USA,"1853 PEELER RD D DUNWOODY, GEORGIA USA",,
969,A CLAYTON SIMMONS PC CPA,4666 KINGS DOWN RD,DUNWOODY,GEORGIA,USA,"4666 KINGS DOWN RD DUNWOODY, GEORGIA USA",,
970,EBC FINANCIAL GROUP,1745 OLD SPRING HOUSE LAN 430,DUNWOODY,GEORGIA,USA,"1745 OLD SPRING HOUSE LAN 430 DUNWOODY, GEORGIA USA",,
972,MARTIN BALGA CPA PC,1832 INDEPENDENCE SQUARE C,DUNWOODY,GEORGIA,USA,"1832 INDEPENDENCE SQUARE C DUNWOODY, GEORGIA USA",,
973,LARRY A GILBERT CPA PC,1847-B PEELER ROAD,DUNWOODY,GEORGIA,USA,"1847-B PEELER ROAD DUNWOODY, GEORGIA USA",,
975,JOHN OLIVER F BRIGGS CPA PC,1730 MOUNT VERNON RD G,DUNWOODY,GEORGIA,USA,"1730 MOUNT VERNON RD G DUNWOODY, GEORGIA USA",,
976,MICHAEL S WARREN CPA PC,1847 PEELER ROAD A,DUNWOODY,GEORGIA,USA,"1847 PEELER ROAD A DUNWOODY, GEORGIA USA",,
983,"BLAD & ASSOCIATES, P.C.",1832 INDEPENDENCE SQ A,DUNWOODY,GEORGIA,USA,"1832 INDEPENDENCE SQ A DUNWOODY, GEORGIA USA",,
984,BUSINESS ACCOUNTING SERVICES,1745 OLD SPRINGHOUSE LANE 400,DUNWOODY,GEORGIA,USA,"1745 OLD SPRINGHOUSE LANE 400 DUNWOODY, GEORGIA USA",,
985,WILLIAMS BENATOR & LIBBY LLP,1040 CROWN POINTE PKWY,DUNWOODY,GEORGIA,USA,"1040 CROWN POINTE PKWY DUNWOODY, GEORGIA USA",,
990,ROBERT E KITTRELL CPA PC,1841 PEELER RD A,DUNWOODY,GEORGIA,USA,"1841 PEELER RD A DUNWOODY, GEORGIA USA",,
991,KRATZICK & ASSOCIATES,303 PERIMETER CENTER N 200,DUNWOODY,GEORGIA,USA,"303 PERIMETER CENTER N 200 DUNWOODY, GEORGIA USA",,
994,CARMICHAEL BRASHER TUVELL & C,1647 MOUNT VERNON RD,DUNWOODY,GEORGIA,USA,"1647 MOUNT VERNON RD DUNWOODY, GEORGIA USA",,
995,L S KING & ASSOCIATES PC,200 ASHFORD CENTER N 470,DUNWOODY,GEORGIA,USA,"200 ASHFORD CENTER N 470 DUNWOODY, GEORGIA USA",,
997,ASHFORD FINANCIAL LLC,3 DUNWOODY PARK 103,DUNWOODY,GEORGIA,USA,"3 DUNWOODY PARK 103 DUNWOODY, GEORGIA USA",,
1007,RAYMAN FINANCIAL SOLUTIONS IN,1818 INDEPENDENCE SQUARE B,DUNWOODY,GEORGIA,USA,"1818 INDEPENDENCE SQUARE B DUNWOODY, GEORGIA USA",,
1009,ROBERT STEWART & ASSOCIATES,3 DUNWOODY PARK 103,DUNWOODY,GEORGIA,USA,"3 DUNWOODY PARK 103 DUNWOODY, GEORGIA USA",,
1010,HORIZON ACTUARIAL SERVICES LL,900 ASHWOOD PARKWAY 170,DUNWOODY,GEORGIA,USA,"900 ASHWOOD PARKWAY 170 DUNWOODY, GEORGIA USA",,
1018,SCOTT ASSOCIATES CONSULTANTS,1455 LINCOLN PKWY 500,DUNWOODY,GEORGIA,USA,"1455 LINCOLN PKWY 500 DUNWOODY, GEORGIA USA",,
1021,LKS ARCHITECTS INC,1848 INDEPENDENCE SQ D,DUNWOODY,GEORGIA,USA,"1848 INDEPENDENCE SQ D DUNWOODY, GEORGIA USA",,
1025,BRADFIELD RICHARDS RHODES & A,1040 CROWN POINTE PKWY 550,DUNWOODY,GEORGIA,USA,"1040 CROWN POINTE PKWY 550 DUNWOODY, GEORGIA USA",,
1027,MORRISON HERSHFIELD CORP,1455 LINCOLN PKWY 500,DUNWOODY,GEORGIA,USA,"1455 LINCOLN PKWY 500 DUNWOODY, GEORGIA USA",,
1029,LOIA BUDDE & ASSOCIATES,5076 WINTERS CHAPEL ROAD 100,DUNWOODY,GEORGIA,USA,"5076 WINTERS CHAPEL ROAD 100 DUNWOODY, GEORGIA USA",,
1035,EMBEDX CORP/EMBEDEX,1637 MT VERNON RD 200,DUNWOODY,GEORGIA,USA,"1637 MT VERNON RD 200 DUNWOODY, GEORGIA USA",,
1042,PHOENIX FACILITIES TECHNOLOGY,4610 BRIERWOOD PL.,DUNWOODY,GEORGIA,USA,"4610 BRIERWOOD PL. DUNWOODY, GEORGIA USA",,
1043,CBRE TECHNICAL SERVICES LLC,3 RAVINIA DR,DUNWOODY,GEORGIA,USA,"3 RAVINIA DR DUNWOODY, GEORGIA USA",,
1045,EGSCI CONSULTING INC-DEKALB C,1455 LINCOLN PKWY 500,DUNWOODY,GEORGIA,USA,"1455 LINCOLN PKWY 500 DUNWOODY, GEORGIA USA",,
1046,LOWE ENGINEERS LLC,41 PERIMETER CENTER E 250,DUNWOODY,GEORGIA,USA,"41 PERIMETER CENTER E 250 DUNWOODY, GEORGIA USA",,
1049,SPACEWORKS ENGINEERING INC,1050 CROWN POINTE PKWY 1400,DUNWOODY,GEORGIA,USA,"1050 CROWN POINTE PKWY 1400 DUNWOODY, GEORGIA USA",,
1051,DOOSAN POWER SYSTEMS AMERICAS,1050 CROWN POINTE PKWY 1200,DUNWOODY,GEORGIA,USA,"1050 CROWN POINTE PKWY 1200 DUNWOODY, GEORGIA USA",,
1057,CLARK PATTERSON LEE,41 PERIMETER CENTER E 250,DUNWOODY,GEORGIA,USA,"41 PERIMETER CENTER E 250 DUNWOODY, GEORGIA USA",,
1097,K2J INC,1818 INDEPENDENCE SQ C,DUNWOODY,GEORGIA,USA,"1818 INDEPENDENCE SQ C DUNWOODY, GEORGIA USA",,
1112,FIREHOUSE DIGITAL INC,2 RAVINIA DRIVE 500,DUNWOODY,GEORGIA,USA,"2 RAVINIA DRIVE 500 DUNWOODY, GEORGIA USA",,
1120,NIIT TECHNOLOGIES LIMITED,1050 CROWN POINTE PKWY 5T,DUNWOODY,GEORGIA,USA,"1050 CROWN POINTE PKWY 5T DUNWOODY, GEORGIA USA",,
1139,FUTURA SYSTEMS INC,100 ASHFORD CENTER N 501,DUNWOODY,GEORGIA,USA,"100 ASHFORD CENTER N 501 DUNWOODY, GEORGIA USA",,
1145,PMG NET INC,211 PERIMETER CENTER PKY 450,DUNWOODY,GEORGIA,USA,"211 PERIMETER CENTER PKY 450 DUNWOODY, GEORGIA USA",,
1147,NIIT USA INC,1050 CROWN POINTE PKWY 500,DUNWOODY,GEORGIA,USA,"1050 CROWN POINTE PKWY 500 DUNWOODY, GEORGIA USA",,
1148,NIIT TECHNOLOGIES INC,1050 CROWN POINTE PKWY 5T,DUNWOODY,GEORGIA,USA,"1050 CROWN POINTE PKWY 5T DUNWOODY, GEORGIA USA",,
1150,SOUTHEASTERN DATA COOPERATIVE,100 ASHFORD CENTER NORTH 500,DUNWOODY,GEORGIA,USA,"100 ASHFORD CENTER NORTH 500 DUNWOODY, GEORGIA USA",,
1151,BARNETT & ASSOCIATES,5579 CHAMBLEE DUNWOODY RD,DUNWOODY,GEORGIA,USA,"5579 CHAMBLEE DUNWOODY RD DUNWOODY, GEORGIA USA",,
1162,RED HILL SYSTEMS INC,3 DUNWOODY PARK 103,DUNWOODY,GEORGIA,USA,"3 DUNWOODY PARK 103 DUNWOODY, GEORGIA USA",,
1163,COMPUTER ARK INC,2509 FONTAINEBLEAU DR,DUNWOODY,GEORGIA,USA,"2509 FONTAINEBLEAU DR DUNWOODY, GEORGIA USA",,
1165,MANAGEMENT CYBERNETICS INC,1567 MOUNT VERNON RD 200,DUNWOODY,GEORGIA,USA,"1567 MOUNT VERNON RD 200 DUNWOODY, GEORGIA USA",,
1166,M TECH SYSTEMS USA INC,115 PERIMETER CENTER PL 845,DUNWOODY,GEORGIA,USA,"115 PERIMETER CENTER PL 845 DUNWOODY, GEORGIA USA",,
1170,PEARLNET LLC,1200 ASHWOOD PKWY 400,DUNWOODY,GEORGIA,USA,"1200 ASHWOOD PKWY 400 DUNWOODY, GEORGIA USA",,
1171,ITJOBCAFE INC,4470 CHAMBLEE DUNWOODY RO 230,DUNWOODY,GEORGIA,USA,"4470 CHAMBLEE DUNWOODY RO 230 DUNWOODY, GEORGIA USA",,
1186,M2SYS TECHNOLOGY,1050 CROWN POINTE PKWY 850,DUNWOODY,GEORGIA,USA,"1050 CROWN POINTE PKWY 850 DUNWOODY, GEORGIA USA",,
1189,THE BAER GROUP LLC,100 ASHFORD CENTER N 460,DUNWOODY,GEORGIA,USA,"100 ASHFORD CENTER N 460 DUNWOODY, GEORGIA USA",,
1192,AGILE 1,1200 ASHWOOD PKWY 590,DUNWOODY,GEORGIA,USA,"1200 ASHWOOD PKWY 590 DUNWOODY, GEORGIA USA",,
1195,TOKIO MARINE MANAGEMENT INC,1 RAVINIA DR 1130,DUNWOODY,GEORGIA,USA,"1 RAVINIA DR 1130 DUNWOODY, GEORGIA USA",,
1196,THE SEMBLER COMPANY,4531 OLDE PERIMETER WAY 230,DUNWOODY,GEORGIA,USA,"4531 OLDE PERIMETER WAY 230 DUNWOODY, GEORGIA USA",,
1197,CALVIN EDWARDS & COMPANY,1200 ASHWOOD PARKWAY 140,DUNWOODY,GEORGIA,USA,"1200 ASHWOOD PARKWAY 140 DUNWOODY, GEORGIA USA",,
1205,SAVASENIOR CARE ADMINISTRATIV,1 RAVINIA DRIVE 1500,DUNWOODY,GEORGIA,USA,"1 RAVINIA DRIVE 1500 DUNWOODY, GEORGIA USA",,
1208,RIMAS LLC,1841 PEELER RD C,DUNWOODY,GEORGIA,USA,"1841 PEELER RD C DUNWOODY, GEORGIA USA",,
1209,SISKIN LLC,303 PERIMETER CENTER N 300,DUNWOODY,GEORGIA,USA,"303 PERIMETER CENTER N 300 DUNWOODY, GEORGIA USA",,
1217,DOCUMENT TECHNOLOGIES LLC,2 RAVINIA DR 850,DUNWOODY,GEORGIA,USA,"2 RAVINIA DR 850 DUNWOODY, GEORGIA USA",,
1221,KALTEK INC,2310 PEACHFORD RD,DUNWOODY,GEORGIA,USA,"2310 PEACHFORD RD DUNWOODY, GEORGIA USA",,
1223,ATLANTA WEALTH CONSULTANTS LL,1843 PEELER RD C,DUNWOODY,GEORGIA,USA,"1843 PEELER RD C DUNWOODY, GEORGIA USA",,
1226,NEON ZEBRA LLC,2 RAVINIA DR 1255,DUNWOODY,GEORGIA,USA,"2 RAVINIA DR 1255 DUNWOODY, GEORGIA USA",,
1227,RADIUM SOFT LLC,4488 N SHALLOWFORD RD 102,DUNWOODY,GEORGIA,USA,"4488 N SHALLOWFORD RD 102 DUNWOODY, GEORGIA USA",,
1229,PRM CONSULTING GROUP,2 RAVINIA DRIVE 1320,DUNWOODY,GEORGIA,USA,"2 RAVINIA DRIVE 1320 DUNWOODY, GEORGIA USA",,
1230,STROUDWATER ASSOCIATES,100 ASHFORD CTR N 420,DUNWOODY,GEORGIA,USA,"100 ASHFORD CTR N 420 DUNWOODY, GEORGIA USA",,
1231,MANAGEMENT RESOURCE GROUP INC,2392 MT VERNON RD S-103,DUNWOODY,GEORGIA,USA,"2392 MT VERNON RD S-103 DUNWOODY, GEORGIA USA",,
1232,AMBULATORY ANESTHESIA ALLIANC,1870 INDEPENDENCE SQ D,DUNWOODY,GEORGIA,USA,"1870 INDEPENDENCE SQ D DUNWOODY, GEORGIA USA",,
1244,SHOEMAKER & ASSOCIATES,1862 INDEPENDENCE SQUARE A,DUNWOODY,GEORGIA,USA,"1862 INDEPENDENCE SQUARE A DUNWOODY, GEORGIA USA",,
1245,THE SAVITZ ORGANIZATION,2406 MT VERNON RD 100,DUNWOODY,GEORGIA,USA,"2406 MT VERNON RD 100 DUNWOODY, GEORGIA USA",,
1265,MEDITECH MEDIA LTD (USA),2 RAVINIA DR 605,DUNWOODY,GEORGIA,USA,"2 RAVINIA DR 605 DUNWOODY, GEORGIA USA",,
1266,ARTICULATE SCIENCE LLC,2 RAVINIA DRIVE 600,DUNWOODY,GEORGIA,USA,"2 RAVINIA DRIVE 600 DUNWOODY, GEORGIA USA",,
1267,HEALTH INTERACTIONS INC,2 RAVINIA DR 600,DUNWOODY,GEORGIA,USA,"2 RAVINIA DR 600 DUNWOODY, GEORGIA USA",,
1319,EVANS INTERN'L ENTERPRISES,2402 MOUNT VERNON RD 270,DUNWOODY,GEORGIA,USA,"2402 MOUNT VERNON RD 270 DUNWOODY, GEORGIA USA",,
1320,LEGIS CONSULTANCY INC,9 DUNWOODY PARK 131,DUNWOODY,GEORGIA,USA,"9 DUNWOODY PARK 131 DUNWOODY, GEORGIA USA",,
1321,FORCON INTERNATIONAL  GA LTD,1730 MT VERNON RD N,DUNWOODY,GEORGIA,USA,"1730 MT VERNON RD N DUNWOODY, GEORGIA USA",,
1322,MAJESCO,400 PERIMETER CENTER TER 145,DUNWOODY,GEORGIA,USA,"400 PERIMETER CENTER TER 145 DUNWOODY, GEORGIA USA",,
1324,3M HIS CONSULTING SERVICES,100 ASHFORD CENTER N 200,DUNWOODY,GEORGIA,USA,"100 ASHFORD CENTER N 200 DUNWOODY, GEORGIA USA",,
1325,"OMNIENCE, INC",1350 CENTER DR BLDG 1350 100,DUNWOODY,GEORGIA,USA,"1350 CENTER DR BLDG 1350 100 DUNWOODY, GEORGIA USA",,
1326,STRATEGIC BENEFITS ADVISORS,2392 MT VERNON RD 204,DUNWOODY,GEORGIA,USA,"2392 MT VERNON RD 204 DUNWOODY, GEORGIA USA",,
1349,LIGHTFOOT GROUP LLC,1862 INDEPENDENCE SQ B,DUNWOODY,GEORGIA,USA,"1862 INDEPENDENCE SQ B DUNWOODY, GEORGIA USA",,
1353,TELEMANAGEMENT RESOURCES INC,1851 PEELER ROAD D,DUNWOODY,GEORGIA,USA,"1851 PEELER ROAD D DUNWOODY, GEORGIA USA",,
1354,GEORGETOWN CLINICAL CONSULTIN,3 DUNWOODY PARK SOUTH 122,DUNWOODY,GEORGIA,USA,"3 DUNWOODY PARK SOUTH 122 DUNWOODY, GEORGIA USA",,
1357,MAINSTAY CAPITAL MARKETS CONS,1040 CROWN POINTE PKWY 840,DUNWOODY,GEORGIA,USA,"1040 CROWN POINTE PKWY 840 DUNWOODY, GEORGIA USA",,
1364,CARROLL/WHITE ADVERTISING INC,53 PERIMETER CENTER E 220,DUNWOODY,GEORGIA,USA,"53 PERIMETER CENTER E 220 DUNWOODY, GEORGIA USA",,
1369,DAYBOOK INC,5579 CHAMBLEE DUNWOODY RD 419,DUNWOODY,GEORGIA,USA,"5579 CHAMBLEE DUNWOODY RD 419 DUNWOODY, GEORGIA USA",,
1378,SERVAWARD INC,4470 CHAMBLEE DUNWOODY RD 326,DUNWOODY,GEORGIA,USA,"4470 CHAMBLEE DUNWOODY RD 326 DUNWOODY, GEORGIA USA",,
1382,C&C MARKET RESEARCH INC,4400 ASHFORD-DUNWOODY RD,DUNWOODY,GEORGIA,USA,"4400 ASHFORD-DUNWOODY RD DUNWOODY, GEORGIA USA",,
1397,GLOBAL TRANS SERVICES INC,4470 CHAMBLEE DUNWOODY RD 250,DUNWOODY,GEORGIA,USA,"4470 CHAMBLEE DUNWOODY RD 250 DUNWOODY, GEORGIA USA",,
1399,DUNWOODY VETERINARY CENTER,1610 MOUNT VERNON RD 125,DUNWOODY,GEORGIA,USA,"1610 MOUNT VERNON RD 125 DUNWOODY, GEORGIA USA",,
1401,BANFIELD PET HOSPITAL#0290,128 PERIMETER CTR W 290,DUNWOODY,GEORGIA,USA,"128 PERIMETER CTR W 290 DUNWOODY, GEORGIA USA",,
1402,DUNWOODY ANIMAL HOSPITAL,5450 CHAMBLEE DUNWOODY RD,DUNWOODY,GEORGIA,USA,"5450 CHAMBLEE DUNWOODY RD DUNWOODY, GEORGIA USA",,
1404,ALL CREATURES ANIMAL HOSPITAL,2482-C MOUNT VERNON RD,DUNWOODY,GEORGIA,USA,"2482-C MOUNT VERNON RD DUNWOODY, GEORGIA USA",,
1409,FORUM PURCHASING LLC,1050 CROWN POINTE PKWY 900,DUNWOODY,GEORGIA,USA,"1050 CROWN POINTE PKWY 900 DUNWOODY, GEORGIA USA",,
1413,HEALTH CARE CAPITAL CONS INC,2 RAVINIA DR 1350,DUNWOODY,GEORGIA,USA,"2 RAVINIA DR 1350 DUNWOODY, GEORGIA USA",,
1415,PNA CONSTRUCTION TECHNOLOGIES,9 DUNWOODY PARK 111,DUNWOODY,GEORGIA,USA,"9 DUNWOODY PARK 111 DUNWOODY, GEORGIA USA",,
1416,AMERICAN PRESIDENT LINES,200 ASHFORD CENTER N 220,DUNWOODY,GEORGIA,USA,"200 ASHFORD CENTER N 220 DUNWOODY, GEORGIA USA",,
1418,KOYO CORPORATION OF USA,1867 INDEPENDENCE SQUARE,DUNWOODY,GEORGIA,USA,"1867 INDEPENDENCE SQUARE DUNWOODY, GEORGIA USA",,
1421,ROOMS TO GO,400 PERIMETER CENTER TER 800,DUNWOODY,GEORGIA,USA,"400 PERIMETER CENTER TER 800 DUNWOODY, GEORGIA USA",,
1422,TRANSAMERICA INTERNATIONAL IN,4470 CHAMBLEE DUNWOODY RD 333,DUNWOODY,GEORGIA,USA,"4470 CHAMBLEE DUNWOODY RD 333 DUNWOODY, GEORGIA USA",,
1428,POP ROCKS INC,3 DUNWOODY PARK 128,DUNWOODY,GEORGIA,USA,"3 DUNWOODY PARK 128 DUNWOODY, GEORGIA USA",,
1430,ISS LLC/IFG INC,200 ASHFORD CENTER NORTH 400,DUNWOODY,GEORGIA,USA,"200 ASHFORD CENTER NORTH 400 DUNWOODY, GEORGIA USA",,
1431,SENIOR PSYCH SOLUTIONS CORP D,1050 CROWN POINTE PKWY 450,DUNWOODY,GEORGIA,USA,"1050 CROWN POINTE PKWY 450 DUNWOODY, GEORGIA USA",,
1432,SIX CONTINENTS HOTELS,3 RAVINIA DR,DUNWOODY,GEORGIA,USA,"3 RAVINIA DR DUNWOODY, GEORGIA USA",,
1434,LEADERSHIP STRATEGIES INC,211 PERIMETER CTR PKWY 325,DUNWOODY,GEORGIA,USA,"211 PERIMETER CTR PKWY 325 DUNWOODY, GEORGIA USA",,
1436,EMPLOYBRIDGE,1040 CROWN POINTE PKWY 1040,DUNWOODY,GEORGIA,USA,"1040 CROWN POINTE PKWY 1040 DUNWOODY, GEORGIA USA",,
1442,VALYN STAFFING SOLUTIONS INC,1867 INDEPENDENCE SQ 200,DUNWOODY,GEORGIA,USA,"1867 INDEPENDENCE SQ 200 DUNWOODY, GEORGIA USA",,
1443,SCI OF ATLANTA INC,1874 INDEPENDENCE SQ A,DUNWOODY,GEORGIA,USA,"1874 INDEPENDENCE SQ A DUNWOODY, GEORGIA USA",,
1448,THE WATERS ORGANIZATION LLC,1866 INDEPENDENCE SQUARE,DUNWOODY,GEORGIA,USA,"1866 INDEPENDENCE SQUARE DUNWOODY, GEORGIA USA",,
1451,APPLEONE EMPLOYMENT SERVICES,1050 CROWN POINTE PKWY 310,DUNWOODY,GEORGIA,USA,"1050 CROWN POINTE PKWY 310 DUNWOODY, GEORGIA USA",,
1452,AT TECH STAFFING SERVICES,1050 CROWN POINTE PKWY #3,DUNWOODY,GEORGIA,USA,"1050 CROWN POINTE PKWY #3 DUNWOODY, GEORGIA USA",,
1453,TRC STAFFING SERVICES INC,115 PERIMETER CENTER PLA 850,DUNWOODY,GEORGIA,USA,"115 PERIMETER CENTER PLA 850 DUNWOODY, GEORGIA USA",,
1455,THE MERCER GROUP INC,5579B CHAMBLEE DUNWOODY RD 511,DUNWOODY,GEORGIA,USA,"5579B CHAMBLEE DUNWOODY RD 511 DUNWOODY, GEORGIA USA",,
1456,VICKERS CHAMBLESS MANAGED SEA,303 PERIMETER CENTER N 300,DUNWOODY,GEORGIA,USA,"303 PERIMETER CENTER N 300 DUNWOODY, GEORGIA USA",,
1457,"EXACTSOURCE, LLC",1455 LINCOLN PKWY 325,DUNWOODY,GEORGIA,USA,"1455 LINCOLN PKWY 325 DUNWOODY, GEORGIA USA",,
1460,"HEATHER'S ANGELS, LLC",3 DUNWOODY PARK 103,DUNWOODY,GEORGIA,USA,"3 DUNWOODY PARK 103 DUNWOODY, GEORGIA USA",,
1464,INTERIM PHYSICIANS LLC,1040 CROWN POINTE PKWY 120,DUNWOODY,GEORGIA,USA,"1040 CROWN POINTE PKWY 120 DUNWOODY, GEORGIA USA",,
1465,BANKSTAFF LLC,1050 CROWN POINTE PKWY 295,DUNWOODY,GEORGIA,USA,"1050 CROWN POINTE PKWY 295 DUNWOODY, GEORGIA USA",,
1471,APEX SYSTEMS INC,53 PERIMETER CTR E 300,DUNWOODY,GEORGIA,USA,"53 PERIMETER CTR E 300 DUNWOODY, GEORGIA USA",,
1473,MODIS INC,1040 CROWNE POINTE PKWY 810,DUNWOODY,GEORGIA,USA,"1040 CROWNE POINTE PKWY 810 DUNWOODY, GEORGIA USA",,
1478,COMPUTER GENERATED SOLUTIONS,301 PERIMETER CTR N,DUNWOODY,GEORGIA,USA,"301 PERIMETER CTR N DUNWOODY, GEORGIA USA",,
1480,THE UPS STORE #2236,4780 ASHFORD DUNWOODY RD A,DUNWOODY,GEORGIA,USA,"4780 ASHFORD DUNWOODY RD A DUNWOODY, GEORGIA USA",,
1482,MOUNT VERNON PRINTING,1567 MOUNT VERNON RD 102,DUNWOODY,GEORGIA,USA,"1567 MOUNT VERNON RD 102 DUNWOODY, GEORGIA USA",,
1483,FEDEX OFFICE #1570,126 PERIMETER CTR W,DUNWOODY,GEORGIA,USA,"126 PERIMETER CTR W DUNWOODY, GEORGIA USA",,
1485,C2C RESOURCES LLC,56 PERIMETER CENTER E 100,DUNWOODY,GEORGIA,USA,"56 PERIMETER CENTER E 100 DUNWOODY, GEORGIA USA",,
1497,BUYGEORGIA,5204 BRADFORD CIR,DUNWOODY,GEORGIA,USA,"5204 BRADFORD CIR DUNWOODY, GEORGIA USA",,
1501,ARTISTIC ALTERATION,4496 CHAMBLEE DUNWOODY RD A/B,DUNWOODY,GEORGIA,USA,"4496 CHAMBLEE DUNWOODY RD A/B DUNWOODY, GEORGIA USA",,
1509,AREA BENEFITS INC,2029 PERNOSHAL COURT 300,DUNWOODY,GEORGIA,USA,"2029 PERNOSHAL COURT 300 DUNWOODY, GEORGIA USA",,
1510,SOFTPROS INC,4470 CHAMBLEE DUNWOODY RD 230,DUNWOODY,GEORGIA,USA,"4470 CHAMBLEE DUNWOODY RD 230 DUNWOODY, GEORGIA USA",,
1511,SERVICE STRATEGIES INC,2406 MT VERNON RD 200,DUNWOODY,GEORGIA,USA,"2406 MT VERNON RD 200 DUNWOODY, GEORGIA USA",,
1518,AMERICAN MAIL PLUS,5579 B CHAMBLEE DUNWOODY,DUNWOODY,GEORGIA,USA,"5579 B CHAMBLEE DUNWOODY DUNWOODY, GEORGIA USA",,
1520,SUDDES PARTNERS,1050 CROWN POINTE PKWY 250,DUNWOODY,GEORGIA,USA,"1050 CROWN POINTE PKWY 250 DUNWOODY, GEORGIA USA",,
1522,FITZPATRICK & LEWIS PUBLIC RE,1872 INDEPENDENCE SQ D,DUNWOODY,GEORGIA,USA,"1872 INDEPENDENCE SQ D DUNWOODY, GEORGIA USA",,
1528,PERIMETER SEARCH GROUP,1959 LAKESPRINGS CIRCLE,DUNWOODY,GEORGIA,USA,"1959 LAKESPRINGS CIRCLE DUNWOODY, GEORGIA USA",,
1530,"CUNNINGHAM LINDSEY U.S., INC",200 ASHFORD CTR N 310,DUNWOODY,GEORGIA,USA,"200 ASHFORD CTR N 310 DUNWOODY, GEORGIA USA",,
1532,THRUTECH INC,1776 OLD SPRING HOUSE LN. 108,DUNWOODY,GEORGIA,USA,"1776 OLD SPRING HOUSE LN. 108 DUNWOODY, GEORGIA USA",,
1534,HARMON FINANCIAL ADVISORS INC,400 PERIMETER CENTER TER 850,DUNWOODY,GEORGIA,USA,"400 PERIMETER CENTER TER 850 DUNWOODY, GEORGIA USA",,
1538,FIDUCIARYVEST LLC,115 PERIMETER CENTER PL 949,DUNWOODY,GEORGIA,USA,"115 PERIMETER CENTER PL 949 DUNWOODY, GEORGIA USA",,
1540,ENVIRONMENTAL PLANNING SPECIA,1050 CROWN POINTE PKWY 550,DUNWOODY,GEORGIA,USA,"1050 CROWN POINTE PKWY 550 DUNWOODY, GEORGIA USA",,
1541,CEDAR DOCUMENT TECHNOLOGIES,1 RAVINIA DR 1700,DUNWOODY,GEORGIA,USA,"1 RAVINIA DR 1700 DUNWOODY, GEORGIA USA",,
1545,"CONVERGENT OUTSOURCING, INC",219 PERIMETER CENTER PKY,DUNWOODY,GEORGIA,USA,"219 PERIMETER CENTER PKY DUNWOODY, GEORGIA USA",,
1547,COTIVITI DOMESTIC HOLDINGS IN,115 PERIMETER CTR PL STE 700,DUNWOODY,GEORGIA,USA,"115 PERIMETER CTR PL STE 700 DUNWOODY, GEORGIA USA",,
1551,BCD TRAVEL USA,6 CONCOURSE PARKWAY 2400,DUNWOODY,GEORGIA,USA,"6 CONCOURSE PARKWAY 2400 DUNWOODY, GEORGIA USA",,
1556,WORLD CONNECTIONS INC,1818 INDEPENDENCE SQ D,DUNWOODY,GEORGIA,USA,"1818 INDEPENDENCE SQ D DUNWOODY, GEORGIA USA",,
1558,TRAVELFAIRE / ADC VENTURES,1711 MOUNT VERNON RD,DUNWOODY,GEORGIA,USA,"1711 MOUNT VERNON RD DUNWOODY, GEORGIA USA",,
1559,COMPREHENSIVE TRAVEL SERVICES,5 DUNWOODY PARK 107,DUNWOODY,GEORGIA,USA,"5 DUNWOODY PARK 107 DUNWOODY, GEORGIA USA",,
1560,UC TRAVEL INC,1200 ASHWOOD PKWY 520,DUNWOODY,GEORGIA,USA,"1200 ASHWOOD PKWY 520 DUNWOODY, GEORGIA USA",,
1561,TEPLIS TRAVEL SERVICE LP,400 PERIMETER CENTER TER 151,DUNWOODY,GEORGIA,USA,"400 PERIMETER CENTER TER 151 DUNWOODY, GEORGIA USA",,
1575,UPTOWN CLEANING SVCS INC,1567 MT VERNON RD 104,DUNWOODY,GEORGIA,USA,"1567 MT VERNON RD 104 DUNWOODY, GEORGIA USA",,
1592,"CLINICAL THINKING, INC",2 RAVINIA DR 605,DUNWOODY,GEORGIA,USA,"2 RAVINIA DR 605 DUNWOODY, GEORGIA USA",,
1594,MONTESSORI SCHOOL OF DUNWOODY,1730 MT VERNON RD N,DUNWOODY,GEORGIA,USA,"1730 MT VERNON RD N DUNWOODY, GEORGIA USA",,
1595,INSTITUTE FOR MEDICAL AND NUR,2 RAVINIA DRIVE 600,DUNWOODY,GEORGIA,USA,"2 RAVINIA DRIVE 600 DUNWOODY, GEORGIA USA",,
1597,PRACTICE AUTOMATION XPERTISE,4333 DUNWOODY PARK 2215,DUNWOODY,GEORGIA,USA,"4333 DUNWOODY PARK 2215 DUNWOODY, GEORGIA USA",,
1600,NEW HORIZONS OF ATLANTA,53 PERIMETER CENTER E 185,DUNWOODY,GEORGIA,USA,"53 PERIMETER CENTER E 185 DUNWOODY, GEORGIA USA",,
1601,SCIENTIFIC PATHWAYS,2 RAVINIA DR 600,DUNWOODY,GEORGIA,USA,"2 RAVINIA DR 600 DUNWOODY, GEORGIA USA",,
1604,MARITZ MOTIVATION SOLUTIONS I,1050 CROWN POINTE PKWY,DUNWOODY,GEORGIA,USA,"1050 CROWN POINTE PKWY DUNWOODY, GEORGIA USA",,
1605,FRONTLINE HEALTHCARE WORKERS,3 DUNWOODY PARK 103,DUNWOODY,GEORGIA,USA,"3 DUNWOODY PARK 103 DUNWOODY, GEORGIA USA",,
1606,EMPIRE BEAUTY SCHOOL,4719 ASHFORD DUNWOODY RD 205,DUNWOODY,GEORGIA,USA,"4719 ASHFORD DUNWOODY RD 205 DUNWOODY, GEORGIA USA",,
1609,SPRUILL CENTER FOR THE ARTS,5339 CHAMBLEE DUNWOODY RO,DUNWOODY,GEORGIA,USA,"5339 CHAMBLEE DUNWOODY RO DUNWOODY, GEORGIA USA",,
1612,DUNWOODY KARATE ATLANTA INC,5566 CHAMBLEE DUNWOODY RD,DUNWOODY,GEORGIA,USA,"5566 CHAMBLEE DUNWOODY RD DUNWOODY, GEORGIA USA",,
1625,NEURO DEVELOPMENTAL EDUCATOR,1720 OLD SPRINGHOUSE LANE 300A,DUNWOODY,GEORGIA,USA,"1720 OLD SPRINGHOUSE LANE 300A DUNWOODY, GEORGIA USA",,
1627,EXECUTIVE IMPACT,1776 OLD SPRINGHOUSE LANE 100,DUNWOODY,GEORGIA,USA,"1776 OLD SPRINGHOUSE LANE 100 DUNWOODY, GEORGIA USA",,
1628,NEW SCHOOL OF MUSIC INC,5509 CHAMBLEE DUNWOODY RD,DUNWOODY,GEORGIA,USA,"5509 CHAMBLEE DUNWOODY RD DUNWOODY, GEORGIA USA",,
1629,ATLANTA SCHOOL OF MASSAGE INC,2 DUNWOODY PARK,DUNWOODY,GEORGIA,USA,"2 DUNWOODY PARK DUNWOODY, GEORGIA USA",,
1637,RAJ K GANDHI MD FRCS,4553 N. SHALLOWFORD RD 70-C,DUNWOODY,GEORGIA,USA,"4553 N. SHALLOWFORD RD 70-C DUNWOODY, GEORGIA USA",,
1638,MERIDIAN WOMEN'S HEALTHCARE P,1829 INDEPENDENCE SQUARE 1,DUNWOODY,GEORGIA,USA,"1829 INDEPENDENCE SQUARE 1 DUNWOODY, GEORGIA USA",,
1640,"HUA JIA, INC",4400 ASHFORD DUNWOODY RD 1360,DUNWOODY,GEORGIA,USA,"4400 ASHFORD DUNWOODY RD 1360 DUNWOODY, GEORGIA USA",,
1641,LESLIE C NORMAN MD,1830 INDEPENDENCE SQ B,DUNWOODY,GEORGIA,USA,"1830 INDEPENDENCE SQ B DUNWOODY, GEORGIA USA",,
1642,TALBOTT OF DUNWOODY,2153 PEACHFORD ROAD,DUNWOODY,GEORGIA,USA,"2153 PEACHFORD ROAD DUNWOODY, GEORGIA USA",,
1644,AVATAR INDUSTRIES LLC,4370 GEORGETOWN SQUARE,DUNWOODY,GEORGIA,USA,"4370 GEORGETOWN SQUARE DUNWOODY, GEORGIA USA",,
1645,MILLENNIUM HEALTHCARE LLC,4370 GEORGETOWN SQUARE,DUNWOODY,GEORGIA,USA,"4370 GEORGETOWN SQUARE DUNWOODY, GEORGIA USA",,
1649,ALBERT F JOHARY MD PC,1320 CENTER DR 100,DUNWOODY,GEORGIA,USA,"1320 CENTER DR 100 DUNWOODY, GEORGIA USA",,
1653,DUNWOODY VILLAGE CLINIC,5471 CHAMBLEE DUNWOODY RD,DUNWOODY,GEORGIA,USA,"5471 CHAMBLEE DUNWOODY RD DUNWOODY, GEORGIA USA",,
1654,PROFESSIONAL MEDICAL INC,4480 N SHALLOWFORD RD 200,DUNWOODY,GEORGIA,USA,"4480 N SHALLOWFORD RD 200 DUNWOODY, GEORGIA USA",,
1655,PLASTIKOS SURGERY CENTER LLC,4370 GEORGETOWN SQUARE,DUNWOODY,GEORGIA,USA,"4370 GEORGETOWN SQUARE DUNWOODY, GEORGIA USA",,
1656,PLASTIKOS PLASTIC & RECONSTRU,4370 GEORGETOWN SQUARE,DUNWOODY,GEORGIA,USA,"4370 GEORGETOWN SQUARE DUNWOODY, GEORGIA USA",,
1657,TLC LASER EYE CENTER ATLANTA,4505 ASHFORD DUNWOODY RD 15,DUNWOODY,GEORGIA,USA,"4505 ASHFORD DUNWOODY RD 15 DUNWOODY, GEORGIA USA",,
1659,FAMILY DERMATOLOGY OF CHAMBLE,1745 OLD SPRING HOUSE LN 440,DUNWOODY,GEORGIA,USA,"1745 OLD SPRING HOUSE LN 440 DUNWOODY, GEORGIA USA",,
1660,FAMILY PRACTICE ASSOC,1776 OLD SPRING HOUSE LN 200,DUNWOODY,GEORGIA,USA,"1776 OLD SPRING HOUSE LN 200 DUNWOODY, GEORGIA USA",,
1662,COMPREHENSIVE WOMEN'S OBGYN,11 DUNWOODY PARK 100,DUNWOODY,GEORGIA,USA,"11 DUNWOODY PARK 100 DUNWOODY, GEORGIA USA",,
1663,COMPREHENSIVE PSYCHIATRIC CAR,2150 PEACHFORD RD H,DUNWOODY,GEORGIA,USA,"2150 PEACHFORD RD H DUNWOODY, GEORGIA USA",,
1664,DRAMATIC WEIGHT LOSS OF ATL,4480 N SHALLOWFORD RD 206,DUNWOODY,GEORGIA,USA,"4480 N SHALLOWFORD RD 206 DUNWOODY, GEORGIA USA",,
1665,DUNWOODY INTERNAL MEDICINE,4553 N SHALLOWFORD RD 50B,DUNWOODY,GEORGIA,USA,"4553 N SHALLOWFORD RD 50B DUNWOODY, GEORGIA USA",,
1666,DUNWOODY OBSTETRICS & GYNECOL,1829 INDEPENDENCE SQ,DUNWOODY,GEORGIA,USA,"1829 INDEPENDENCE SQ DUNWOODY, GEORGIA USA",,
1667,DUNWOODY PEDIATRICS PC,1428 DUNWOODY VILLAGE PKY,DUNWOODY,GEORGIA,USA,"1428 DUNWOODY VILLAGE PKY DUNWOODY, GEORGIA USA",,
1668,DUNWOODY URGENT CARE,1730-B MOUNT VERNON RD,DUNWOODY,GEORGIA,USA,"1730-B MOUNT VERNON RD DUNWOODY, GEORGIA USA",,
1669,GEORGETOWN PEDIATRICS PC,11 DUNWOODY PARK 190,DUNWOODY,GEORGIA,USA,"11 DUNWOODY PARK 190 DUNWOODY, GEORGIA USA",,
1670,GEORGIA CLINIC PC,1861 PEELER RD 200-A,DUNWOODY,GEORGIA,USA,"1861 PEELER RD 200-A DUNWOODY, GEORGIA USA",,
1673,PREMIER IMAGE COSMETIC & LASE,4553 N SHALLOWFORD RD 20B,DUNWOODY,GEORGIA,USA,"4553 N SHALLOWFORD RD 20B DUNWOODY, GEORGIA USA",,
1674,PROGRESSIVE MEDICAL CENTER,4646 N. SHALLOWFORD RD 100,DUNWOODY,GEORGIA,USA,"4646 N. SHALLOWFORD RD 100 DUNWOODY, GEORGIA USA",,
1675,THE REPRODUCTIVE INSTITUTE,1360 CENTER DRIVE 100,DUNWOODY,GEORGIA,USA,"1360 CENTER DRIVE 100 DUNWOODY, GEORGIA USA",,
1679,DANIEL GOODMAN MD PC,4553 N SHALLOWFORD RD 30-B,DUNWOODY,GEORGIA,USA,"4553 N SHALLOWFORD RD 30-B DUNWOODY, GEORGIA USA",,
1680,STEVEN R LEE MD  PC,2150 PEACHFORD RD F,DUNWOODY,GEORGIA,USA,"2150 PEACHFORD RD F DUNWOODY, GEORGIA USA",,
1681,CHARLES P STEWART JR MD PC,2150 PEACHFORD RD F,DUNWOODY,GEORGIA,USA,"2150 PEACHFORD RD F DUNWOODY, GEORGIA USA",,
1682,NORTH ATLANTA PSYCHIATRIC SER,1 DUNWOODY PARK 140,DUNWOODY,GEORGIA,USA,"1 DUNWOODY PARK 140 DUNWOODY, GEORGIA USA",,
1685,PSYCHOLOGICAL SERVICES OF ATL,1745 OLD SPRINGHOUSE LANE 415,DUNWOODY,GEORGIA,USA,"1745 OLD SPRINGHOUSE LANE 415 DUNWOODY, GEORGIA USA",,
1687,WALTER F ANDERSON MD,4675 N SHALLOWFORD RD 210,DUNWOODY,GEORGIA,USA,"4675 N SHALLOWFORD RD 210 DUNWOODY, GEORGIA USA",,
1688,PSYCHOTHERAPY SERVICES INC,2150 PEACHFORD RD P,DUNWOODY,GEORGIA,USA,"2150 PEACHFORD RD P DUNWOODY, GEORGIA USA",,
1690,NORTH ATLANTA PSYCHIATRIC ASS,2150 PEACHFORD RD R,DUNWOODY,GEORGIA,USA,"2150 PEACHFORD RD R DUNWOODY, GEORGIA USA",,
1693,DARVIN HEGE MD PC,2150 PEACHFORD RD P,DUNWOODY,GEORGIA,USA,"2150 PEACHFORD RD P DUNWOODY, GEORGIA USA",,
1694,MYONG LEE DMD,1733 MOUNT VERNON RD,DUNWOODY,GEORGIA,USA,"1733 MOUNT VERNON RD DUNWOODY, GEORGIA USA",,
1695,DENTAL COMPOSITIONS INC,1872-A INDEPENDENCE SQ,DUNWOODY,GEORGIA,USA,"1872-A INDEPENDENCE SQ DUNWOODY, GEORGIA USA",,
1696,"VEAL DENTAL CARE, LLC",1867 INDEPENDENCE SQ 104,DUNWOODY,GEORGIA,USA,"1867 INDEPENDENCE SQ 104 DUNWOODY, GEORGIA USA",,
1697,REAGIN FAMILY DENISTRY PC,1370 CENTER DR 101,DUNWOODY,GEORGIA,USA,"1370 CENTER DR 101 DUNWOODY, GEORGIA USA",,
1698,GREGORY S DONEFF DDS,200 ASHFORD CENTER NORTH 330,DUNWOODY,GEORGIA,USA,"200 ASHFORD CENTER NORTH 330 DUNWOODY, GEORGIA USA",,
1702,CURTIS C  WILLIAMS DDS MPH LL,2496 JETT FERRY RD 100,DUNWOODY,GEORGIA,USA,"2496 JETT FERRY RD 100 DUNWOODY, GEORGIA USA",,
1703,DUNWOODY DENTAL CARE,2494 JETT FERRY RD 101,DUNWOODY,GEORGIA,USA,"2494 JETT FERRY RD 101 DUNWOODY, GEORGIA USA",,
1704,BARRY D COHEN DDS PC,4721 CHAMBLEE DUNWOODY RD 200,DUNWOODY,GEORGIA,USA,"4721 CHAMBLEE DUNWOODY RD 200 DUNWOODY, GEORGIA USA",,
1705,COOPER DENTISTRY,1831 INDEPENDENCE SQ,DUNWOODY,GEORGIA,USA,"1831 INDEPENDENCE SQ DUNWOODY, GEORGIA USA",,
1706,DUNWOODY DENTAL ASSOCIATES,1742 MT VERNON RD 250,DUNWOODY,GEORGIA,USA,"1742 MT VERNON RD 250 DUNWOODY, GEORGIA USA",,
1709,JOHN H EATON DDS PC,1776 OLD SPRING HOUSE LN 301,DUNWOODY,GEORGIA,USA,"1776 OLD SPRING HOUSE LN 301 DUNWOODY, GEORGIA USA",,
1710,GREGG R CODELLI DDS PC,1707 MT VERNON RD A,DUNWOODY,GEORGIA,USA,"1707 MT VERNON RD A DUNWOODY, GEORGIA USA",,
1711,MICHELLE JACQUES DDS PC,1853 PEELER RD A,DUNWOODY,GEORGIA,USA,"1853 PEELER RD A DUNWOODY, GEORGIA USA",,
1712,JAMES R STRAIT DMD,1770 OLD SPRINGHOUSE LN 110,DUNWOODY,GEORGIA,USA,"1770 OLD SPRINGHOUSE LN 110 DUNWOODY, GEORGIA USA",,
1713,JEFF L RODGERS DMD PC,1719 MOUNT VERNON RD A,DUNWOODY,GEORGIA,USA,"1719 MOUNT VERNON RD A DUNWOODY, GEORGIA USA",,
1714,JOHN M GARRETT DDS PC,1776 OLD SPRING HOUSE LN 102,DUNWOODY,GEORGIA,USA,"1776 OLD SPRING HOUSE LN 102 DUNWOODY, GEORGIA USA",,
1715,KAPLAN ORTHODONTICS,4700 CHAMBLEE DUNWOODY RD 300,DUNWOODY,GEORGIA,USA,"4700 CHAMBLEE DUNWOODY RD 300 DUNWOODY, GEORGIA USA",,
1717,LEONARD J ROUTENBERG DDS,4511 CHAMBLEE-DUNWOODY RD A-2,DUNWOODY,GEORGIA,USA,"4511 CHAMBLEE-DUNWOODY RD A-2 DUNWOODY, GEORGIA USA",,
1719,NORTHSIDE ORAL SURGERY,4700 CHAMBLEE DUNWOODY RO,DUNWOODY,GEORGIA,USA,"4700 CHAMBLEE DUNWOODY RO DUNWOODY, GEORGIA USA",,
1720,LEE W PLUNKETT DMD PC,4675 N SHALLOWFORD RD 118,DUNWOODY,GEORGIA,USA,"4675 N SHALLOWFORD RD 118 DUNWOODY, GEORGIA USA",,
1721,PRILUCK & NORDONE GENERAL DEN,5548 CHAMBLEE DUNWOODY RD,DUNWOODY,GEORGIA,USA,"5548 CHAMBLEE DUNWOODY RD DUNWOODY, GEORGIA USA",,
1723,TROY H SCHULMAN DDS PC,4721 CHAMBLEE DUNWOODY RD 400,DUNWOODY,GEORGIA,USA,"4721 CHAMBLEE DUNWOODY RD 400 DUNWOODY, GEORGIA USA",,
1724,TERRY R STIEGLITZ DMD PC,5064 NANDINA LN D,DUNWOODY,GEORGIA,USA,"5064 NANDINA LN D DUNWOODY, GEORGIA USA",,
1727,THOMAS K SPARKMAN DDS PC,2472 JETT FERRY RD 430,DUNWOODY,GEORGIA,USA,"2472 JETT FERRY RD 430 DUNWOODY, GEORGIA USA",,
1728,WILLIAM J JAMIESON DMD PC,4721 CHAMBLEE DUNWOODY RD 100,DUNWOODY,GEORGIA,USA,"4721 CHAMBLEE DUNWOODY RD 100 DUNWOODY, GEORGIA USA",,
1729,ATLANTA ENDODONTICS INC,1505 MOUNT VERNON RD 200,DUNWOODY,GEORGIA,USA,"1505 MOUNT VERNON RD 200 DUNWOODY, GEORGIA USA",,
1730,CHRISTINE S SCOTT DDS PC,5507 CHAMBLEE DUNWOODY RD,DUNWOODY,GEORGIA,USA,"5507 CHAMBLEE DUNWOODY RD DUNWOODY, GEORGIA USA",,
1732,DAVID G GOODCHILD JR DMD,4720 CHAMBLEE DUNWOODY RD,DUNWOODY,GEORGIA,USA,"4720 CHAMBLEE DUNWOODY RD DUNWOODY, GEORGIA USA",,
1736,DUNWOODY CHIROPRACTIC CENTER,1867 INDEPENDENCE SQ 100,DUNWOODY,GEORGIA,USA,"1867 INDEPENDENCE SQ 100 DUNWOODY, GEORGIA USA",,
1739,"ATL YAJIMA CHIROPRACTIC, LLC",5000 WINTERS CHAPEL RD 1,DUNWOODY,GEORGIA,USA,"5000 WINTERS CHAPEL RD 1 DUNWOODY, GEORGIA USA",,
1740,THE CENTERED BODY FAMILY CHIR,1705 MT. VERNON RD A,DUNWOODY,GEORGIA,USA,"1705 MT. VERNON RD A DUNWOODY, GEORGIA USA",,
1741,THE FORTE CENTER LLC,1776 OLD SPRINGHOUSE LANE 104,DUNWOODY,GEORGIA,USA,"1776 OLD SPRINGHOUSE LANE 104 DUNWOODY, GEORGIA USA",,
1742,LARRY REUTER PC,4675 N SHALLOWFORD ROAD 100,DUNWOODY,GEORGIA,USA,"4675 N SHALLOWFORD ROAD 100 DUNWOODY, GEORGIA USA",,
1745,GRD CLINIC PC,1845 PEELER RD A,DUNWOODY,GEORGIA,USA,"1845 PEELER RD A DUNWOODY, GEORGIA USA",,
1747,SEIDEN CHIROPRACTIC CTR,1713 MOUNT VERNON RD 2,DUNWOODY,GEORGIA,USA,"1713 MOUNT VERNON RD 2 DUNWOODY, GEORGIA USA",,
1748,WHITEWINDS INSTITUTE OF INTEG,1845 PEELER RD A,DUNWOODY,GEORGIA,USA,"1845 PEELER RD A DUNWOODY, GEORGIA USA",,
1750,EYE ELEMENTS,4505 ASHFORD DUNWOODY RD 1,DUNWOODY,GEORGIA,USA,"4505 ASHFORD DUNWOODY RD 1 DUNWOODY, GEORGIA USA",,
1751,THE EYE GALLERY,4520 OLDE PERIMETER WAY 110,DUNWOODY,GEORGIA,USA,"4520 OLDE PERIMETER WAY 110 DUNWOODY, GEORGIA USA",,
1752,GEORGIA OPTOMERY GROUP,4480-A CHAMBLEE DUNWOODY RO,DUNWOODY,GEORGIA,USA,"4480-A CHAMBLEE DUNWOODY RO DUNWOODY, GEORGIA USA",,
1753,PERIMETER EYE GROUP PC,4400 ASHFORD DUNWOODY RD 1280,DUNWOODY,GEORGIA,USA,"4400 ASHFORD DUNWOODY RD 1280 DUNWOODY, GEORGIA USA",,
1754,BRIGGS VISION GROUP PC,1637 MOUNT VERNON RD 100,DUNWOODY,GEORGIA,USA,"1637 MOUNT VERNON RD 100 DUNWOODY, GEORGIA USA",,
1757,MOUNT VERNON EYE CARE PC,1611 MOUNT VERNON RD,DUNWOODY,GEORGIA,USA,"1611 MOUNT VERNON RD DUNWOODY, GEORGIA USA",,
1758,ATLANTA RELATIONSHIP CENTER,2310 PEACHFORD RD 200,DUNWOODY,GEORGIA,USA,"2310 PEACHFORD RD 200 DUNWOODY, GEORGIA USA",,
1761,LINDA K ANDERSON PHD,4675 NORTH SHALLOWFORD RD 210,DUNWOODY,GEORGIA,USA,"4675 NORTH SHALLOWFORD RD 210 DUNWOODY, GEORGIA USA",,
1762,THOM R LUCAS LCSW,2150 PEACHFORD RD H,DUNWOODY,GEORGIA,USA,"2150 PEACHFORD RD H DUNWOODY, GEORGIA USA",,
1763,RACHEL E CHRISTIAN PHD  PC,2498 JETT FERRY RD 204,DUNWOODY,GEORGIA,USA,"2498 JETT FERRY RD 204 DUNWOODY, GEORGIA USA",,
1769,JOANNE PEELER PHD,1830 INDEPENDENCE SQ A,DUNWOODY,GEORGIA,USA,"1830 INDEPENDENCE SQ A DUNWOODY, GEORGIA USA",,
1770,ARLEEN TURZO PH D,1830 INDEPENDENCE SQ A,DUNWOODY,GEORGIA,USA,"1830 INDEPENDENCE SQ A DUNWOODY, GEORGIA USA",,
1771,DONNA K ULRICI PH D,1864 INDEPENDENCE SQ A,DUNWOODY,GEORGIA,USA,"1864 INDEPENDENCE SQ A DUNWOODY, GEORGIA USA",,
1772,LUCIA ELLIS LCSW,1455 LINCOLN PKWY 360,DUNWOODY,GEORGIA,USA,"1455 LINCOLN PKWY 360 DUNWOODY, GEORGIA USA",,
1774,VAHID A SADEGHI,2150 PEACHFORD RD S,DUNWOODY,GEORGIA,USA,"2150 PEACHFORD RD S DUNWOODY, GEORGIA USA",,
1777,JOHN A PETZELT PHD,1830 INDEPENDENCE SQ A,DUNWOODY,GEORGIA,USA,"1830 INDEPENDENCE SQ A DUNWOODY, GEORGIA USA",,
1780,A HUMAN DEVELOPMENT CENTER,4651 CHAMBLEE DUNWOODY RD D,DUNWOODY,GEORGIA,USA,"4651 CHAMBLEE DUNWOODY RD D DUNWOODY, GEORGIA USA",,
1781,LETS COMMUNICATE,1720 OLD SPRINGHOUSE LANE 302,DUNWOODY,GEORGIA,USA,"1720 OLD SPRINGHOUSE LANE 302 DUNWOODY, GEORGIA USA",,
1786,INJURY PREVENTION &MGMT CONSU,1 DUNWOODY PARK 121,DUNWOODY,GEORGIA,USA,"1 DUNWOODY PARK 121 DUNWOODY, GEORGIA USA",,
1788,PHYSIOTHERAPY ASSOCIATES,5513 CHAMBLEE DUNWOODY RD 430,DUNWOODY,GEORGIA,USA,"5513 CHAMBLEE DUNWOODY RD 430 DUNWOODY, GEORGIA USA",,
1789,TIM MACKESEY INC,1874 INDEPENDENCE SQUARE B,DUNWOODY,GEORGIA,USA,"1874 INDEPENDENCE SQUARE B DUNWOODY, GEORGIA USA",,
1792,ZHU ACUPUNCTURE & CHINESE MED,1776 OLD SPRING HOUSE LN 104,DUNWOODY,GEORGIA,USA,"1776 OLD SPRING HOUSE LN 104 DUNWOODY, GEORGIA USA",,
1794,"PERIMETER THERAPY ASSOC, LLC",1455 LINCOLN PKWY 240,DUNWOODY,GEORGIA,USA,"1455 LINCOLN PKWY 240 DUNWOODY, GEORGIA USA",,
1796,ADCOCK ACUPUNCTURE & CHINESE,11 DUNWOODY PARK 120,DUNWOODY,GEORGIA,USA,"11 DUNWOODY PARK 120 DUNWOODY, GEORGIA USA",,
1797,HYPNOSIS CENTER OF DUNWOODY,3 DUNWOODY PARK 103,DUNWOODY,GEORGIA,USA,"3 DUNWOODY PARK 103 DUNWOODY, GEORGIA USA",,
1799,RELAXATION SPA,4400 ASHFORD DUNWOODY RD 1445,DUNWOODY,GEORGIA,USA,"4400 ASHFORD DUNWOODY RD 1445 DUNWOODY, GEORGIA USA",,
1802,ABSOLUTE HOLISTIC MEDICINE,1868 INDEPENDENCE SQ A,DUNWOODY,GEORGIA,USA,"1868 INDEPENDENCE SQ A DUNWOODY, GEORGIA USA",,
1805,"STANLEY E. HIBBS, PH. D., LLC",1864-A INDEPENDENCE SQ,DUNWOODY,GEORGIA,USA,"1864-A INDEPENDENCE SQ DUNWOODY, GEORGIA USA",,
1806,IMMUNE RECOVERY INSTITUTE,4488 N SHALLOWFORD RD,DUNWOODY,GEORGIA,USA,"4488 N SHALLOWFORD RD DUNWOODY, GEORGIA USA",,
1818,UHS OF PEACHFORD LP/PEACHFORD,2151 PEACHFORD RD,DUNWOODY,GEORGIA,USA,"2151 PEACHFORD RD DUNWOODY, GEORGIA USA",,
1820,SOUTHERN RESOURCES CONSULTANT,3 DUNWOODY PARK 113,DUNWOODY,GEORGIA,USA,"3 DUNWOODY PARK 113 DUNWOODY, GEORGIA USA",,
1821,ATLANTA GEORGETOWN RETIREMENT,4355 GEORGETOWN SQUARE RD,DUNWOODY,GEORGIA,USA,"4355 GEORGETOWN SQUARE RD DUNWOODY, GEORGIA USA",,
1822,COMPASSIONATE CARE HOSPICE,5 DUNWOODY PARK 118,DUNWOODY,GEORGIA,USA,"5 DUNWOODY PARK 118 DUNWOODY, GEORGIA USA",,
1823,BRIGHTON GARDENS OF DUNWOODY,1240 ASHFORD CENTER PKWY,DUNWOODY,GEORGIA,USA,"1240 ASHFORD CENTER PKWY DUNWOODY, GEORGIA USA",,
1831,KADAN HOMECARE,1848 INDEPENDENCE SQ A,DUNWOODY,GEORGIA,USA,"1848 INDEPENDENCE SQ A DUNWOODY, GEORGIA USA",,
1834,ATLANTA COMMUNITY TENNIS ASSO,1200 ASHWOOD PKWY 500,DUNWOODY,GEORGIA,USA,"1200 ASHWOOD PKWY 500 DUNWOODY, GEORGIA USA",,
1835,ALLIANT HEALTH SOLUTIONS INC,1455 LINCOLN PARKWAY E 800,DUNWOODY,GEORGIA,USA,"1455 LINCOLN PARKWAY E 800 DUNWOODY, GEORGIA USA",,
1836,ALLIANT INTEGRITY INC,1455 LINCOLN PARKWAY E 800,DUNWOODY,GEORGIA,USA,"1455 LINCOLN PARKWAY E 800 DUNWOODY, GEORGIA USA",,
1839,GEORGIA MEDICAL CARE FOUNDATI,1455 LINCOLN PARKWAY E 800,DUNWOODY,GEORGIA,USA,"1455 LINCOLN PARKWAY E 800 DUNWOODY, GEORGIA USA",,
1840,HADASSAH WZOA INC,47 PERIMETER CENTER EAS 210,DUNWOODY,GEORGIA,USA,"47 PERIMETER CENTER EAS 210 DUNWOODY, GEORGIA USA",,
1841,JEWISH FAMILY & CAREER SERVIC,4549 CHAMBLEE DUNWOODY RD,DUNWOODY,GEORGIA,USA,"4549 CHAMBLEE DUNWOODY RD DUNWOODY, GEORGIA USA",,
1842,JUST HEART FOUNDATION,1506 HOLLY BANK CIRCLE,DUNWOODY,GEORGIA,USA,"1506 HOLLY BANK CIRCLE DUNWOODY, GEORGIA USA",,
1845,VERMACK RD SWIM & TENNIS CLUB,4756 VERMACK ROAD,DUNWOODY,GEORGIA,USA,"4756 VERMACK ROAD DUNWOODY, GEORGIA USA",,
1847,FONTAINEBLEAU SWIM & TENNIS,2694 FONTAINEBLEAU DR,DUNWOODY,GEORGIA,USA,"2694 FONTAINEBLEAU DR DUNWOODY, GEORGIA USA",,
1850,ASHFORD ACADEMY,4472 CHAMBLEE DUNWOODY RD,DUNWOODY,GEORGIA,USA,"4472 CHAMBLEE DUNWOODY RD DUNWOODY, GEORGIA USA",,
1851,KINDER CARE LEARNING CENTERS,5695 CHAMBLEE DUNWOODY RD,DUNWOODY,GEORGIA,USA,"5695 CHAMBLEE DUNWOODY RD DUNWOODY, GEORGIA USA",,
1853,DUNWOODY PREP/DUNWOODY VILLAG,5493 CHAMBLEE DUNWOODY RD,DUNWOODY,GEORGIA,USA,"5493 CHAMBLEE DUNWOODY RD DUNWOODY, GEORGIA USA",,
1854,STAGE DOOR PLAYERS,5339 CHAMBLEE DUNWOODY RD D,DUNWOODY,GEORGIA,USA,"5339 CHAMBLEE DUNWOODY RD D DUNWOODY, GEORGIA USA",,
1855,ACT 1 ENTERPRISES INC,5523 CHAMBLEE DUNWOODY RD,DUNWOODY,GEORGIA,USA,"5523 CHAMBLEE DUNWOODY RD DUNWOODY, GEORGIA USA",,
1877,PILATES OF DUNWOODY,4681 N SHALLOWFORD RD,DUNWOODY,GEORGIA,USA,"4681 N SHALLOWFORD RD DUNWOODY, GEORGIA USA",,
1878,YEAGER FITNESS TOGETHER INC,5482 CHAMBLEE DUNWOODY RD,DUNWOODY,GEORGIA,USA,"5482 CHAMBLEE DUNWOODY RD DUNWOODY, GEORGIA USA",,
1880,CTM GROUP INC,4400 ASHFORD DUNWOODY RD 1445,DUNWOODY,GEORGIA,USA,"4400 ASHFORD DUNWOODY RD 1445 DUNWOODY, GEORGIA USA",,
1882,STAYBRIDGE SUITES PERIMETER,4601 RIDGEVIEW RD,DUNWOODY,GEORGIA,USA,"4601 RIDGEVIEW RD DUNWOODY, GEORGIA USA",,
1883,HOTEL EQUITIES INC,41 PERIMETER CTR E 510,DUNWOODY,GEORGIA,USA,"41 PERIMETER CTR E 510 DUNWOODY, GEORGIA USA",,
1886,ATLANTA MARRIOTT PERIMETER,246 PERIMETER CENTER PKY,DUNWOODY,GEORGIA,USA,"246 PERIMETER CENTER PKY DUNWOODY, GEORGIA USA",,
1894,THE PARKWAY CAFE,1455 LINCOLN PARKWAY,DUNWOODY,GEORGIA,USA,"1455 LINCOLN PARKWAY DUNWOODY, GEORGIA USA",,
1898,SINGHA THAI RESTAURANT,5554 CHAMBLEE DUNWOODY RD,DUNWOODY,GEORGIA,USA,"5554 CHAMBLEE DUNWOODY RD DUNWOODY, GEORGIA USA",,
1904,WAFFLE HOUSE OC #1042,4532 CHAMBLEE DUNWOODY RD,DUNWOODY,GEORGIA,USA,"4532 CHAMBLEE DUNWOODY RD DUNWOODY, GEORGIA USA",,
1909,SUBWAY #532,77 PERIMETER CTR E,DUNWOODY,GEORGIA,USA,"77 PERIMETER CTR E DUNWOODY, GEORGIA USA",,
1911,MASTER'S CAFE,3 RAVINIA DR,DUNWOODY,GEORGIA,USA,"3 RAVINIA DR DUNWOODY, GEORGIA USA",,
1913,TIN DRUM ASIA CAFE,4530 OLDE PERIMTER WAY 200,DUNWOODY,GEORGIA,USA,"4530 OLDE PERIMTER WAY 200 DUNWOODY, GEORGIA USA",,
1919,J CHRISTOPHER'S,5482 CHAMBLEE DUNWOODY RO,DUNWOODY,GEORGIA,USA,"5482 CHAMBLEE DUNWOODY RO DUNWOODY, GEORGIA USA",,
1921,DUNWOODY TAVERN,5486 CHAMBLEE DUNWOODY RD,DUNWOODY,GEORGIA,USA,"5486 CHAMBLEE DUNWOODY RD DUNWOODY, GEORGIA USA",,
1922,MCDONALD'S,1842 COTILLION DR,DUNWOODY,GEORGIA,USA,"1842 COTILLION DR DUNWOODY, GEORGIA USA",,
1926,MCCORMICK & SCHMICK'S SEAFOOD,600 ASHWOOD PKWY,DUNWOODY,GEORGIA,USA,"600 ASHWOOD PKWY DUNWOODY, GEORGIA USA",,
1928,OLIVE GARDEN ITALIAN REST 163,4749 ASHFORD DUNWOODY RD,DUNWOODY,GEORGIA,USA,"4749 ASHFORD DUNWOODY RD DUNWOODY, GEORGIA USA",,
1929,BRIO TUSCAN GRILLE,700 ASHWOOD PKWY,DUNWOODY,GEORGIA,USA,"700 ASHWOOD PKWY DUNWOODY, GEORGIA USA",,
1934,DUNWOODY RESTAURANT GROUP INC,1532 DUNWOODY VILLAGE PKW 212,DUNWOODY,GEORGIA,USA,"1532 DUNWOODY VILLAGE PKW 212 DUNWOODY, GEORGIA USA",,
1940,CARRABBA'S ITALIAN GRILL,1210 ASHFORD XING,DUNWOODY,GEORGIA,USA,"1210 ASHFORD XING DUNWOODY, GEORGIA USA",,
1942,CHILI'S BAR & GRILL # 298,4784 ASHFORD DUNWOODY RD,DUNWOODY,GEORGIA,USA,"4784 ASHFORD DUNWOODY RD DUNWOODY, GEORGIA USA",,
1943,OUTBACK STEAKHOUSE,1220 ASHFORD CROSSING,DUNWOODY,GEORGIA,USA,"1220 ASHFORD CROSSING DUNWOODY, GEORGIA USA",,
1944,TACO MAC,1211 ASHFORD CROSSING,DUNWOODY,GEORGIA,USA,"1211 ASHFORD CROSSING DUNWOODY, GEORGIA USA",,
1945,THE CHEESECAKE FACTORY,4400 ASHFORD DUNWOODY RD,DUNWOODY,GEORGIA,USA,"4400 ASHFORD DUNWOODY RD DUNWOODY, GEORGIA USA",,
1946,ECLIPSE DI LUNA,4505 ASHFORD DUNWOODY RD,DUNWOODY,GEORGIA,USA,"4505 ASHFORD DUNWOODY RD DUNWOODY, GEORGIA USA",,
1947,BON APETTIT,1200 ASHWOOD PKWY L,DUNWOODY,GEORGIA,USA,"1200 ASHWOOD PKWY L DUNWOODY, GEORGIA USA",,
1948,DUNWOODY CAFE,200 ASHFORD CTR N 120,DUNWOODY,GEORGIA,USA,"200 ASHFORD CTR N 120 DUNWOODY, GEORGIA USA",,
1949,ASHFORD CAFE,100 ASHFORD CTR N 190,DUNWOODY,GEORGIA,USA,"100 ASHFORD CTR N 190 DUNWOODY, GEORGIA USA",,
1958,MILANO PIZZA & SUBS,4498 CHAMBLEE DUNWOODY RD,DUNWOODY,GEORGIA,USA,"4498 CHAMBLEE DUNWOODY RD DUNWOODY, GEORGIA USA",,
1960,MAXIMOS GYRO & KABOB,4947 WINTERS CHAPEL RD 1,DUNWOODY,GEORGIA,USA,"4947 WINTERS CHAPEL RD 1 DUNWOODY, GEORGIA USA",,
1966,SIMPLY THAI RESTAURANT,4639-E N SHALLOWFORD RD E,DUNWOODY,GEORGIA,USA,"4639-E N SHALLOWFORD RD E DUNWOODY, GEORGIA USA",,
1967,STARBUCK'S COFFEE #10481,4400 ASHFORD DUNWOODY RD 1360,DUNWOODY,GEORGIA,USA,"4400 ASHFORD DUNWOODY RD 1360 DUNWOODY, GEORGIA USA",,
1968,THE VICEROY ROYAL INDIAN,4719 ASHFORD DUNWOODY RD 104,DUNWOODY,GEORGIA,USA,"4719 ASHFORD DUNWOODY RD 104 DUNWOODY, GEORGIA USA",,
1969,BON APPETIT BISTRO III,1 RAVINIA DR,DUNWOODY,GEORGIA,USA,"1 RAVINIA DR DUNWOODY, GEORGIA USA",,
1975,DOMINOS PIZZA #5718,2482 JETT FERRY RD,DUNWOODY,GEORGIA,USA,"2482 JETT FERRY RD DUNWOODY, GEORGIA USA",,
1977,JERSEY MIKE'S SUBS,2458 JETT FERRY RD 220,DUNWOODY,GEORGIA,USA,"2458 JETT FERRY RD 220 DUNWOODY, GEORGIA USA",,
1982,SUBWAY,4511 CHAMBLEE DUNWOODY RD,DUNWOODY,GEORGIA,USA,"4511 CHAMBLEE DUNWOODY RD DUNWOODY, GEORGIA USA",,
1983,AUNTIE ANNE'S PRETZELS,4400 ASHFORD DUNWOODY RD 1306,DUNWOODY,GEORGIA,USA,"4400 ASHFORD DUNWOODY RD 1306 DUNWOODY, GEORGIA USA",,
1985,PIZZA HUT #4770,4957 WINTERS CHAPEL RD,DUNWOODY,GEORGIA,USA,"4957 WINTERS CHAPEL RD DUNWOODY, GEORGIA USA",,
1987,FARMERS BASKET PERIMETER INC,4400 ASHFORD DUNWOODY RD,DUNWOODY,GEORGIA,USA,"4400 ASHFORD DUNWOODY RD DUNWOODY, GEORGIA USA",,
1988,LUCKY CHINA,4524 CHAMBLEE DUNWOODY RD,DUNWOODY,GEORGIA,USA,"4524 CHAMBLEE DUNWOODY RD DUNWOODY, GEORGIA USA",,
1990,E 48TH ST MARKET,2462 JETT FERRY RD,DUNWOODY,GEORGIA,USA,"2462 JETT FERRY RD DUNWOODY, GEORGIA USA",,
1991,THE WRIGHT GOURMET SHOPPE,5482 CHAMBLEE DUNWOODY RD 24,DUNWOODY,GEORGIA,USA,"5482 CHAMBLEE DUNWOODY RD 24 DUNWOODY, GEORGIA USA",,
1992,STARBUCKS COFFEE #985,4516 CHAMBLEE DUNWOODY RD,DUNWOODY,GEORGIA,USA,"4516 CHAMBLEE DUNWOODY RD DUNWOODY, GEORGIA USA",,
1993,EL AZTECA MEXICAN RESTAURANT,1412 DUNWOODY VILLAGE PKW,DUNWOODY,GEORGIA,USA,"1412 DUNWOODY VILLAGE PKW DUNWOODY, GEORGIA USA",,
1995,SAR PEACHTREE FOOD INC,4400 ASHFORD DUNWOODY RD 5548,DUNWOODY,GEORGIA,USA,"4400 ASHFORD DUNWOODY RD 5548 DUNWOODY, GEORGIA USA",,
2000,STARBUCKS COFFEE #987,5561 CHAMBLEE DUNWOODY RD,DUNWOODY,GEORGIA,USA,"5561 CHAMBLEE DUNWOODY RD DUNWOODY, GEORGIA USA",,
2001,CHIPOTLE MEXICAN GRILL,123 PERIMETER CTR W 500,DUNWOODY,GEORGIA,USA,"123 PERIMETER CTR W 500 DUNWOODY, GEORGIA USA",,
2002,GOLDBERGS BAGEL CO AND DELI,4520 CHAMBLEE DUNWOODY RD,DUNWOODY,GEORGIA,USA,"4520 CHAMBLEE DUNWOODY RD DUNWOODY, GEORGIA USA",,
2003,MCDONALD'S,2460 JETT FERRY RD,DUNWOODY,GEORGIA,USA,"2460 JETT FERRY RD DUNWOODY, GEORGIA USA",,
2004,PANERA BREAD #648,1625 MOUNT VERNON RD,DUNWOODY,GEORGIA,USA,"1625 MOUNT VERNON RD DUNWOODY, GEORGIA USA",,
2006,MELLOW MUSHROOM DUNWOODY,5575 CHAMBLEE DUNWOODY RD A/B,DUNWOODY,GEORGIA,USA,"5575 CHAMBLEE DUNWOODY RD A/B DUNWOODY, GEORGIA USA",,
2008,CAFE INTERMEZZO INC,4505 ASHFORD DUNWOODY RD,DUNWOODY,GEORGIA,USA,"4505 ASHFORD DUNWOODY RD DUNWOODY, GEORGIA USA",,
2009,PANERA BREAD #942,4531 OLDE PERIMETER WAY 100,DUNWOODY,GEORGIA,USA,"4531 OLDE PERIMETER WAY 100 DUNWOODY, GEORGIA USA",,
2010,FLEMING'S PRIME STEAKHOUSE,4501 OLDE PERIMETER WAY,DUNWOODY,GEORGIA,USA,"4501 OLDE PERIMETER WAY DUNWOODY, GEORGIA USA",,
2011,JASON'S DELI,4705 ASHFORD DUNWOODY RD A,DUNWOODY,GEORGIA,USA,"4705 ASHFORD DUNWOODY RD A DUNWOODY, GEORGIA USA",,
2012,JOEY D'S OAK ROOM,1015 CROWN POINTE PKWY,DUNWOODY,GEORGIA,USA,"1015 CROWN POINTE PKWY DUNWOODY, GEORGIA USA",,
2013,ALON'S BAKERY & MARKET,4505 ASHFORD DUNWOODY RD,DUNWOODY,GEORGIA,USA,"4505 ASHFORD DUNWOODY RD DUNWOODY, GEORGIA USA",,
2014,CALIFORNIA PIZZA KITCHEN,4600 ASHFORD DUNWOODY RD,DUNWOODY,GEORGIA,USA,"4600 ASHFORD DUNWOODY RD DUNWOODY, GEORGIA USA",,
2016,MCKENDRICK'S STEAKHOUSE,4505 ASHFORD DUNWOODY RD 33,DUNWOODY,GEORGIA,USA,"4505 ASHFORD DUNWOODY RD 33 DUNWOODY, GEORGIA USA",,
2017,MAGGIANO'S,4400 ASHFORD DUNWOODY RD 1445,DUNWOODY,GEORGIA,USA,"4400 ASHFORD DUNWOODY RD 1445 DUNWOODY, GEORGIA USA",,
2018,COM DUNWOODY VIETNAMESE GRILL,5486 CHAMBLEE DUNWOODY RD C13,DUNWOODY,GEORGIA,USA,"5486 CHAMBLEE DUNWOODY RD C13 DUNWOODY, GEORGIA USA",,
2020,SWEET GARDENIA ENTERPRISES IN,4400 ASHFORD DUNWOODY RD 1670,DUNWOODY,GEORGIA,USA,"4400 ASHFORD DUNWOODY RD 1670 DUNWOODY, GEORGIA USA",,
2022,DAIRY QUEEN,4400 ASHFORD DUNWOODY RD 1311,DUNWOODY,GEORGIA,USA,"4400 ASHFORD DUNWOODY RD 1311 DUNWOODY, GEORGIA USA",,
2023,DUNKIN DONUTS,1594 MT VERNON RD,DUNWOODY,GEORGIA,USA,"1594 MT VERNON RD DUNWOODY, GEORGIA USA",,
2029,MASTERPIECE EVENTS LLC,4947 WINTERS CHAPEL RD 6,DUNWOODY,GEORGIA,USA,"4947 WINTERS CHAPEL RD 6 DUNWOODY, GEORGIA USA",,
2035,EUROPE CAR SERVICE,1260 DUNWOODY VILLAGE PKW,DUNWOODY,GEORGIA,USA,"1260 DUNWOODY VILLAGE PKW DUNWOODY, GEORGIA USA",,
2038,JIFFY LUBE #62,1343 DUNWOODY VILLAGE PKW,DUNWOODY,GEORGIA,USA,"1343 DUNWOODY VILLAGE PKW DUNWOODY, GEORGIA USA",,
2041,ATLANTA CAR EXCHANGE INC,3 RAVINIA DR 190,DUNWOODY,GEORGIA,USA,"3 RAVINIA DR 190 DUNWOODY, GEORGIA USA",,
2043,SUNSHINE CAR WASH OF DUNWOODY,1244 DUNWOODY VILLAGE PKW,DUNWOODY,GEORGIA,USA,"1244 DUNWOODY VILLAGE PKW DUNWOODY, GEORGIA USA",,
2049,INTEC BILLING INC,301 PERIMETER CENTER N 200,DUNWOODY,GEORGIA,USA,"301 PERIMETER CENTER N 200 DUNWOODY, GEORGIA USA",,
2053,GEORGETOWN SHOE REPAIR,4496 CHAMBLEE DUNWOODY RD C,DUNWOODY,GEORGIA,USA,"4496 CHAMBLEE DUNWOODY RD C DUNWOODY, GEORGIA USA",,
2054,DUNWOODY COBBLER,1402 DUNWOODY VILLAGE PKW,DUNWOODY,GEORGIA,USA,"1402 DUNWOODY VILLAGE PKW DUNWOODY, GEORGIA USA",,
2056,CREATIVE FASHIONS,5484 CHAMBLEE DUNWOODY RD B,DUNWOODY,GEORGIA,USA,"5484 CHAMBLEE DUNWOODY RD B DUNWOODY, GEORGIA USA",,
2059,SHEAR PERFECTION INC,115 PERIMETER CENTER PL 190,DUNWOODY,GEORGIA,USA,"115 PERIMETER CENTER PL 190 DUNWOODY, GEORGIA USA",,
2063,VERRILLI HAIR STUDIO,1151 HAMMOND DRIVE NE 200 129,DUNWOODY,GEORGIA,USA,"1151 HAMMOND DRIVE NE 200 129 DUNWOODY, GEORGIA USA",,
2064,JUS HAIR SALON,4343 DUNWOODY PARK,DUNWOODY,GEORGIA,USA,"4343 DUNWOODY PARK DUNWOODY, GEORGIA USA",,
2066,LE SOLEIL SALON,1151 HAMMOND DRIVE NE 200 129,DUNWOODY,GEORGIA,USA,"1151 HAMMOND DRIVE NE 200 129 DUNWOODY, GEORGIA USA",,
2067,LLUVIA HAIR STUDIO,1151 HAMMOND DRIVE NE 200 123,DUNWOODY,GEORGIA,USA,"1151 HAMMOND DRIVE NE 200 123 DUNWOODY, GEORGIA USA",,
2069,ROY SOLIS,2496-C MOUNT VERNON RD,DUNWOODY,GEORGIA,USA,"2496-C MOUNT VERNON RD DUNWOODY, GEORGIA USA",,
2070,SABINA'S HAIR DESIGN,2496-C MT VERNON RD,DUNWOODY,GEORGIA,USA,"2496-C MT VERNON RD DUNWOODY, GEORGIA USA",,
2073,ALBELO,5482 CHAMBLEE DUNWOODY RD,DUNWOODY,GEORGIA,USA,"5482 CHAMBLEE DUNWOODY RD DUNWOODY, GEORGIA USA",,
2075,LOOKIN GOOD HAIR DESIGN,4675 N SHALLOWFORD RD,DUNWOODY,GEORGIA,USA,"4675 N SHALLOWFORD RD DUNWOODY, GEORGIA USA",,
2076,TROY SATTERFIELD HAIR SALON,5482 CHAMBLEE DUNWOODY RD A25,DUNWOODY,GEORGIA,USA,"5482 CHAMBLEE DUNWOODY RD A25 DUNWOODY, GEORGIA USA",,
2078,N2U HEALTHY HAIR CARE,1151 HAMMOND DR 200,DUNWOODY,GEORGIA,USA,"1151 HAMMOND DR 200 DUNWOODY, GEORGIA USA",,
2080,VILLAGE BARBER SHOP,5535 CHAMBLEE DUNWOODY RD,DUNWOODY,GEORGIA,USA,"5535 CHAMBLEE DUNWOODY RD DUNWOODY, GEORGIA USA",,
2081,J STOKES DESIGN LLP,2496 MT VERNON RD C,DUNWOODY,GEORGIA,USA,"2496 MT VERNON RD C DUNWOODY, GEORGIA USA",,
2084,BEAUTY BY NATURE,1707 MOUNT VERNON RD,DUNWOODY,GEORGIA,USA,"1707 MOUNT VERNON RD DUNWOODY, GEORGIA USA",,
2085,KIMBERLY HUDON'S,2496-C MOUNT VERNON RD,DUNWOODY,GEORGIA,USA,"2496-C MOUNT VERNON RD DUNWOODY, GEORGIA USA",,
2086,REGIS HAIRSTYLIST #1014,4400 ASHFORD DUNWOODY RD 1445,DUNWOODY,GEORGIA,USA,"4400 ASHFORD DUNWOODY RD 1445 DUNWOODY, GEORGIA USA",,
2088,HAIR CLIPS BY INA,4512 CHAMBLEE DUNWOODY RD B,DUNWOODY,GEORGIA,USA,"4512 CHAMBLEE DUNWOODY RD B DUNWOODY, GEORGIA USA",,
2089,TWISTED HAIR DESIGN,2496-C MT VERNON ROAD,DUNWOODY,GEORGIA,USA,"2496-C MT VERNON ROAD DUNWOODY, GEORGIA USA",,
2091,SALON COLOUR,5482 CHAMBLEE DUNWOODY RD A25,DUNWOODY,GEORGIA,USA,"5482 CHAMBLEE DUNWOODY RD A25 DUNWOODY, GEORGIA USA",,
2092,DUNWOODY HAIR STUDIO,1730 MT VERNON RD N,DUNWOODY,GEORGIA,USA,"1730 MT VERNON RD N DUNWOODY, GEORGIA USA",,
2094,NAIL PREMIER,4400 ASHFORD DUNWOODY RD 2005,DUNWOODY,GEORGIA,USA,"4400 ASHFORD DUNWOODY RD 2005 DUNWOODY, GEORGIA USA",,
2097,SALON RAVINIA,2 RAVINIA DR 10,DUNWOODY,GEORGIA,USA,"2 RAVINIA DR 10 DUNWOODY, GEORGIA USA",,
2098,SPECIAL CUTS INC,1575 MOUNT VERNON RD B,DUNWOODY,GEORGIA,USA,"1575 MOUNT VERNON RD B DUNWOODY, GEORGIA USA",,
2099,BALANCE SALON & BOUTIQUE,4505 ASHFORD DUNWOODY RD 17,DUNWOODY,GEORGIA,USA,"4505 ASHFORD DUNWOODY RD 17 DUNWOODY, GEORGIA USA",,
2101,GREAT CLIPS,4780 ASHFORD DUNWOODY RD 510,DUNWOODY,GEORGIA,USA,"4780 ASHFORD DUNWOODY RD 510 DUNWOODY, GEORGIA USA",,
2102,ROBERT FROST SALON INC,5579-C CHAMBLEE DUNWOODY,DUNWOODY,GEORGIA,USA,"5579-C CHAMBLEE DUNWOODY DUNWOODY, GEORGIA USA",,
2105,MERLE NORMAN SALON & SPA,1151 HAMMOND DRIVE 200,DUNWOODY,GEORGIA,USA,"1151 HAMMOND DRIVE 200 DUNWOODY, GEORGIA USA",,
2106,RILEY SALON,5484 CHAMBLEE DUNWOODY RD 22,DUNWOODY,GEORGIA,USA,"5484 CHAMBLEE DUNWOODY RD 22 DUNWOODY, GEORGIA USA",,
2108,"DASS SALON & SPA, LLC",4400 ASHFORD DUNWOODY RD 1445,DUNWOODY,GEORGIA,USA,"4400 ASHFORD DUNWOODY RD 1445 DUNWOODY, GEORGIA USA",,
2109,TONI & GUY,4400 ASHFORD DUNWOODY RD 2305,DUNWOODY,GEORGIA,USA,"4400 ASHFORD DUNWOODY RD 2305 DUNWOODY, GEORGIA USA",,
2110,ELITE HAIRCUTS,1408 DUNWOODY VILLAGE PKW,DUNWOODY,GEORGIA,USA,"1408 DUNWOODY VILLAGE PKW DUNWOODY, GEORGIA USA",,
2122,POLISHED LUXURY NAIL SALON,4719 ASHFORD DUNWOODY RD,DUNWOODY,GEORGIA,USA,"4719 ASHFORD DUNWOODY RD DUNWOODY, GEORGIA USA",,
2123,LOVELY NAILS,1402 DUNWOODY VILLAGE PKW A,DUNWOODY,GEORGIA,USA,"1402 DUNWOODY VILLAGE PKW A DUNWOODY, GEORGIA USA",,
2124,NANCY'S NAILS,5535 CHAMBLEE DUNWOODY RD,DUNWOODY,GEORGIA,USA,"5535 CHAMBLEE DUNWOODY RD DUNWOODY, GEORGIA USA",,
2125,LOVELY NAILS,2458 JETT FERRY RD 210,DUNWOODY,GEORGIA,USA,"2458 JETT FERRY RD 210 DUNWOODY, GEORGIA USA",,
2126,NAIL FERVOR,1575 MOUNT VERNON RD C,DUNWOODY,GEORGIA,USA,"1575 MOUNT VERNON RD C DUNWOODY, GEORGIA USA",,
2128,NINA NAILS,5584 CHAMBLEE DUNWOODY RD,DUNWOODY,GEORGIA,USA,"5584 CHAMBLEE DUNWOODY RD DUNWOODY, GEORGIA USA",,
2129,LIFESTYLE IMPROVEMENTS INC,4514 CHAMBLEE DUNWOODY RD,DUNWOODY,GEORGIA,USA,"4514 CHAMBLEE DUNWOODY RD DUNWOODY, GEORGIA USA",,
2131,ANGELA MICHAEL SKINCARE,2500-C MOUNT VERNON RD,DUNWOODY,GEORGIA,USA,"2500-C MOUNT VERNON RD DUNWOODY, GEORGIA USA",,
2134,IDEAL IMAGE,900 ASHWOOD PKWY 120,DUNWOODY,GEORGIA,USA,"900 ASHWOOD PKWY 120 DUNWOODY, GEORGIA USA",,
2135,NORTH ATLANTA MEMORIAL PARK,5188 WINTERS CHAPEL RD,DUNWOODY,GEORGIA,USA,"5188 WINTERS CHAPEL RD DUNWOODY, GEORGIA USA",,
2138,DUNWOODY HALL CLEANERS,5544 CHAMBLEE DUNWOODY RD,DUNWOODY,GEORGIA,USA,"5544 CHAMBLEE DUNWOODY RD DUNWOODY, GEORGIA USA",,
2139,MOUNT VERNON CLEANERS,1594-B MT VERNON RD,DUNWOODY,GEORGIA,USA,"1594-B MT VERNON RD DUNWOODY, GEORGIA USA",,
2140,WORLD CLEANERS,1406 DUNWOODY VILLAGE PKW,DUNWOODY,GEORGIA,USA,"1406 DUNWOODY VILLAGE PKW DUNWOODY, GEORGIA USA",,
2144,STAR CLEANER,5000 WINTERS CHAPEL RD,DUNWOODY,GEORGIA,USA,"5000 WINTERS CHAPEL RD DUNWOODY, GEORGIA USA",,
2145,GEORGETOWN CLEANERS,4490 CHAMBLEE DUNWOODY B,DUNWOODY,GEORGIA,USA,"4490 CHAMBLEE DUNWOODY B DUNWOODY, GEORGIA USA",,
2148,ALICE CLEANERS,5531 CHAMBLEE DUNWOODY RD,DUNWOODY,GEORGIA,USA,"5531 CHAMBLEE DUNWOODY RD DUNWOODY, GEORGIA USA",,
2149,JETT FERRY CLEANERS,2482 JETT FERRY RD 695,DUNWOODY,GEORGIA,USA,"2482 JETT FERRY RD 695 DUNWOODY, GEORGIA USA",,
2150,PROFESSIONAL CLEANERS,5579 CHAMBLEE DUNWOODY RD,DUNWOODY,GEORGIA,USA,"5579 CHAMBLEE DUNWOODY RD DUNWOODY, GEORGIA USA",,
2151,OLDE FASHION CLEANERS,5395 CHAMBLEE DUNWOODY RD,DUNWOODY,GEORGIA,USA,"5395 CHAMBLEE DUNWOODY RD DUNWOODY, GEORGIA USA",,
2154,PERSONAL BUTLER LLC,1867 INDEPENDENCE SQ 200,DUNWOODY,GEORGIA,USA,"1867 INDEPENDENCE SQ 200 DUNWOODY, GEORGIA USA",,
2155,ROBINS GROOMINGDALES,2482 JETT FERRY ROAD,DUNWOODY,GEORGIA,USA,"2482 JETT FERRY ROAD DUNWOODY, GEORGIA USA",,
2161,K ALTERATIONS,5582 CHAMBLEE DUNWOODY RD,DUNWOODY,GEORGIA,USA,"5582 CHAMBLEE DUNWOODY RD DUNWOODY, GEORGIA USA",,
2167,DUNWOODY PERIMETER CHAMBER,41 PERIMETER CENTER E 225,DUNWOODY,GEORGIA,USA,"41 PERIMETER CENTER E 225 DUNWOODY, GEORGIA USA",,
2502,NAIL TALK & TAN,90 PERIMETER CTR PL 100,DUNWOODY,GEORGIA,USA,"90 PERIMETER CTR PL 100 DUNWOODY, GEORGIA USA",,
2503,ASHWOOD CAFE,900 ASHWOOD PKWY L-10,DUNWOODY,GEORGIA,USA,"900 ASHWOOD PKWY L-10 DUNWOODY, GEORGIA USA",,
2516,RETALIGENT SOLUTIONS,1050 CROWN POINTE PKWY 300,DUNWOODY,GEORGIA,USA,"1050 CROWN POINTE PKWY 300 DUNWOODY, GEORGIA USA",,
2520,DISH NETWORK LLC,211 PERIMETER CENTER NE 600,DUNWOODY,GEORGIA,USA,"211 PERIMETER CENTER NE 600 DUNWOODY, GEORGIA USA",,
2533,REDBOX AUTOMATED RETAIL LLC,4498 CHAMBLEE DUNWOODY RD,DUNWOODY,GEORGIA,USA,"4498 CHAMBLEE DUNWOODY RD DUNWOODY, GEORGIA USA",,
2575,LIFESOUTH COMMUNITY BLOOD CEN,4891 ASHFORD DUNWOODY RD,DUNWOODY,GEORGIA,USA,"4891 ASHFORD DUNWOODY RD DUNWOODY, GEORGIA USA",,
2585,TAKI JAPANESE STEAKHOUSE,4711 ASHFORD DUNWOODY RD 12,DUNWOODY,GEORGIA,USA,"4711 ASHFORD DUNWOODY RD 12 DUNWOODY, GEORGIA USA",,
2597,SAGE WOODFIRE TAVERN PERIMETE,4505 ASHFORD DUNWOODY RD B,DUNWOODY,GEORGIA,USA,"4505 ASHFORD DUNWOODY RD B DUNWOODY, GEORGIA USA",,
2603,MARNIE STUDIO,1151 HAMMOND DR NE 200 104,DUNWOODY,GEORGIA,USA,"1151 HAMMOND DR NE 200 104 DUNWOODY, GEORGIA USA",,
2606,GOODFRIEND'S GRILL,5342 TILLY MILL RD,DUNWOODY,GEORGIA,USA,"5342 TILLY MILL RD DUNWOODY, GEORGIA USA",,
2611,VERDE INTERNATIONAL LLC,100 ASHFORD CENTER N 410,DUNWOODY,GEORGIA,USA,"100 ASHFORD CENTER N 410 DUNWOODY, GEORGIA USA",,
2613,SUNGLASS HUT #5816,4400 ASHFORD DUNWOODY RD,DUNWOODY,GEORGIA,USA,"4400 ASHFORD DUNWOODY RD DUNWOODY, GEORGIA USA",,
2629,THE LAW OFFICES OF JOSH SACKS,1705 MT. VERNON RD C,DUNWOODY,GEORGIA,USA,"1705 MT. VERNON RD C DUNWOODY, GEORGIA USA",,
2646,GEORGIA PRO CLEANING SERVICE,302 PERIMETER CENTER N 1411,DUNWOODY,GEORGIA,USA,"302 PERIMETER CENTER N 1411 DUNWOODY, GEORGIA USA",,
2651,WALTON ASHWOOD,1000 ASHWOOD PKWY,DUNWOODY,GEORGIA,USA,"1000 ASHWOOD PKWY DUNWOODY, GEORGIA USA",,
2675,MARCOS PIZZA,4511 CHAMBLEE DUNWOODY RD,DUNWOODY,GEORGIA,USA,"4511 CHAMBLEE DUNWOODY RD DUNWOODY, GEORGIA USA",,
2677,CHARLOTTE RUSSE #78,4400 ASHFORD DUNWOODY RD 5548,DUNWOODY,GEORGIA,USA,"4400 ASHFORD DUNWOODY RD 5548 DUNWOODY, GEORGIA USA",,
2681,SYMANTEC CORPORATION,1040 CROWN POINTE PKWY 650,DUNWOODY,GEORGIA,USA,"1040 CROWN POINTE PKWY 650 DUNWOODY, GEORGIA USA",,
2684,CELTIC INSURANCE COMPANY,,DUNWOODY,GEORGIA,USA," DUNWOODY, GEORGIA USA",,
2691,PERIMETER ORAL & MAXILLOFACIA,1505 MT. VERNON RD 150,DUNWOODY,GEORGIA,USA,"1505 MT. VERNON RD 150 DUNWOODY, GEORGIA USA",,
2709,GENTLE TOUCH HOME VET CARE,4514 CHAMBLEE DUNWOODY RD 144,DUNWOODY,GEORGIA,USA,"4514 CHAMBLEE DUNWOODY RD 144 DUNWOODY, GEORGIA USA",,
2746,TEXACO FOOD PLAZA,4369 N. PEACHTREE RD,DUNWOODY,GEORGIA,USA,"4369 N. PEACHTREE RD DUNWOODY, GEORGIA USA",,
2750,THE BOSS,4620 PEACHTREE PLACE PKWY F,DUNWOODY,GEORGIA,USA,"4620 PEACHTREE PLACE PKWY F DUNWOODY, GEORGIA USA",,
2781,FIRST ALLMERICA FINC LIFE INS,,DUNWOODY,GEORGIA,USA," DUNWOODY, GEORGIA USA",,
2785,SALON NUVEAUX,1151 HAMMOND DRIVE NE 200 129,DUNWOODY,GEORGIA,USA,"1151 HAMMOND DRIVE NE 200 129 DUNWOODY, GEORGIA USA",,
2796,TW TELECOM OF GEORGIA LP,2 RAVINIA DRIVE 350,DUNWOODY,GEORGIA,USA,"2 RAVINIA DRIVE 350 DUNWOODY, GEORGIA USA",,
2799,"CI2 AVIATION, INC.",9 DUNWOODY PARK 104,DUNWOODY,GEORGIA,USA,"9 DUNWOODY PARK 104 DUNWOODY, GEORGIA USA",,
2801,I-WAYS INTERNATIONAL,11 DUNWOODY PARK 145,DUNWOODY,GEORGIA,USA,"11 DUNWOODY PARK 145 DUNWOODY, GEORGIA USA",,
2802,"NORTHSIDE HOSPITAL, INC",4553 N. SHALLOWFORD RD 60C,DUNWOODY,GEORGIA,USA,"4553 N. SHALLOWFORD RD 60C DUNWOODY, GEORGIA USA",,
2810,SUMMER'S LANDING TILLY MILL,4821 N. PEACHTREE RD,DUNWOODY,GEORGIA,USA,"4821 N. PEACHTREE RD DUNWOODY, GEORGIA USA",,
2820,MAX J. COHEN DDS PC,4700 CHAMBLEE DUNWOODY RD 100,DUNWOODY,GEORGIA,USA,"4700 CHAMBLEE DUNWOODY RD 100 DUNWOODY, GEORGIA USA",,
2827,BRIAN W. WERTHEIM,1750 OLD SPRINGHOUSE LN 203,DUNWOODY,GEORGIA,USA,"1750 OLD SPRINGHOUSE LN 203 DUNWOODY, GEORGIA USA",,
2830,COMMUNITY LIVING CONCEPTS INC,4600 PEACHTREE PLACE PKWY G,DUNWOODY,GEORGIA,USA,"4600 PEACHTREE PLACE PKWY G DUNWOODY, GEORGIA USA",,
2831,KLEENPROS INTERNATIONAL,2 RAVINIA DR 500,DUNWOODY,GEORGIA,USA,"2 RAVINIA DR 500 DUNWOODY, GEORGIA USA",,
2832,TERRACES DRY CLEANERS,115 PERIMETER CENTER PL 162,DUNWOODY,GEORGIA,USA,"115 PERIMETER CENTER PL 162 DUNWOODY, GEORGIA USA",,
2833,WILSON FAMILY CHIROPRACTIC,2494 JETT FERRY RD 103,DUNWOODY,GEORGIA,USA,"2494 JETT FERRY RD 103 DUNWOODY, GEORGIA USA",,
2838,RHEA LANA'S OF NORTH ATLANTA,1181 HAMMOND DR,DUNWOODY,GEORGIA,USA,"1181 HAMMOND DR DUNWOODY, GEORGIA USA",,
2839,REGENCY HOME CARE OF N. ATL,1633 MT. VERNON RD 100,DUNWOODY,GEORGIA,USA,"1633 MT. VERNON RD 100 DUNWOODY, GEORGIA USA",,
2840,EPICUREAN BEVERAGES,4470 CHAMBLEE DUNWOODY RD 460,DUNWOODY,GEORGIA,USA,"4470 CHAMBLEE DUNWOODY RD 460 DUNWOODY, GEORGIA USA",,
2841,BRENDA TOLLEY'S ELECTROLOGY,3 DUNWOODY PARK 103,DUNWOODY,GEORGIA,USA,"3 DUNWOODY PARK 103 DUNWOODY, GEORGIA USA",,
2843,UPS STORE,2472 JETT FERRY RD 400,DUNWOODY,GEORGIA,USA,"2472 JETT FERRY RD 400 DUNWOODY, GEORGIA USA",,
2844,SPA SYDELL,4505 ASHFORD DUNWOODY RD 22,DUNWOODY,GEORGIA,USA,"4505 ASHFORD DUNWOODY RD 22 DUNWOODY, GEORGIA USA",,
2852,THE PIEDMONT BANK OF DUNWOODY,5496 CHAMBLEE DUNWOODY RD,DUNWOODY,GEORGIA,USA,"5496 CHAMBLEE DUNWOODY RD DUNWOODY, GEORGIA USA",,
2862,THE ATLANTA JOURNAL CONSTITUT,223 PERIMETER CTR PKY NE,DUNWOODY,GEORGIA,USA,"223 PERIMETER CTR PKY NE DUNWOODY, GEORGIA USA",,
2865,"DUNWOODY SPEECH, INC",4243 DUNWOODY CLUB DR 104,DUNWOODY,GEORGIA,USA,"4243 DUNWOODY CLUB DR 104 DUNWOODY, GEORGIA USA",,
2882,STAR CLEANERS OF DUNWOODY,4530 CHAMBLEE DUNWOODY RD B,DUNWOODY,GEORGIA,USA,"4530 CHAMBLEE DUNWOODY RD B DUNWOODY, GEORGIA USA",,
2884,MEDICAL DESIGN INTERNATIONAL,2472 JETT FERRY RD 400 205,DUNWOODY,GEORGIA,USA,"2472 JETT FERRY RD 400 205 DUNWOODY, GEORGIA USA",,
2885,CHILD PLUS SOFTWARE,303 PERIMETER CTR N 400,DUNWOODY,GEORGIA,USA,"303 PERIMETER CTR N 400 DUNWOODY, GEORGIA USA",,
2890,GREAT CLIPS - GEORGETOWN,4468 CHAMBLEE DUNWOODY RD M-1,DUNWOODY,GEORGIA,USA,"4468 CHAMBLEE DUNWOODY RD M-1 DUNWOODY, GEORGIA USA",,
2897,"BELL OAKS COMPANY, INC",115 PERIMETER CENTER PL 400,DUNWOODY,GEORGIA,USA,"115 PERIMETER CENTER PL 400 DUNWOODY, GEORGIA USA",,
2908,CAFE SABABA,4639 N. SHALLOWFORD RD D,DUNWOODY,GEORGIA,USA,"4639 N. SHALLOWFORD RD D DUNWOODY, GEORGIA USA",,
2910,WILLIAMSBURG SHOE REPAIR,2462 JETT FERRY RD 300-A,DUNWOODY,GEORGIA,USA,"2462 JETT FERRY RD 300-A DUNWOODY, GEORGIA USA",,
2911,PEACHTREE CONVENIENCE INC,6900 PEACHTREE IND. BLVD D,DUNWOODY,GEORGIA,USA,"6900 PEACHTREE IND. BLVD D DUNWOODY, GEORGIA USA",,
2923,"REGUS MANAGEMENT GROUP, LLC",2 RAVINIA DRIVE 500,DUNWOODY,GEORGIA,USA,"2 RAVINIA DRIVE 500 DUNWOODY, GEORGIA USA",,
2926,THE VITAMIN SHOPPE,1165 PERIMETER CENTER W 360,DUNWOODY,GEORGIA,USA,"1165 PERIMETER CENTER W 360 DUNWOODY, GEORGIA USA",,
2928,PLATTE RIVER INSURANCE COMPAN,,DUNWOODY,GEORGIA,USA," DUNWOODY, GEORGIA USA",,
2932,"TURNER RESEARCH NETWORK, INC.",7 DUNWOODY PARK 121,DUNWOODY,GEORGIA,USA,"7 DUNWOODY PARK 121 DUNWOODY, GEORGIA USA",,
2934,"HARDEN BEHAV. SOLUTIONS, INC.",2 RAVINIA DR 500,DUNWOODY,GEORGIA,USA,"2 RAVINIA DR 500 DUNWOODY, GEORGIA USA",,
2936,"TRUE RELIGION SALES, LLC",4400 ASHFORD DUNWOODY RD 2350,DUNWOODY,GEORGIA,USA,"4400 ASHFORD DUNWOODY RD 2350 DUNWOODY, GEORGIA USA",,
2941,"IHRC, INC.",2 RAVINIA DRIVE 1200,DUNWOODY,GEORGIA,USA,"2 RAVINIA DRIVE 1200 DUNWOODY, GEORGIA USA",,
2947,CVB OF DUNWOODY,41 PERIMETER CENTER E 200,DUNWOODY,GEORGIA,USA,"41 PERIMETER CENTER E 200 DUNWOODY, GEORGIA USA",,
2951,ROYAL FOOD MART,4479 CHAMBLEE DUNWOODY RD,DUNWOODY,GEORGIA,USA,"4479 CHAMBLEE DUNWOODY RD DUNWOODY, GEORGIA USA",,
2952,SUSANPHD.COM,1851 PEELER RD C,DUNWOODY,GEORGIA,USA,"1851 PEELER RD C DUNWOODY, GEORGIA USA",,
2959,AT&T MOBILITY,136 PERIMETER CENTER W,DUNWOODY,GEORGIA,USA,"136 PERIMETER CENTER W DUNWOODY, GEORGIA USA",,
2990,"YER USA, INC",115 PERIMETER CENTER PL 625,DUNWOODY,GEORGIA,USA,"115 PERIMETER CENTER PL 625 DUNWOODY, GEORGIA USA",,
3000,AMERICAN WEALTH MANAGEMENT,1050 CROWN POINTE PKWY 1230,DUNWOODY,GEORGIA,USA,"1050 CROWN POINTE PKWY 1230 DUNWOODY, GEORGIA USA",,
3004,INFANTS OF DUNWOODY,5486 CHAMBLEE DUNWOODY RD,DUNWOODY,GEORGIA,USA,"5486 CHAMBLEE DUNWOODY RD DUNWOODY, GEORGIA USA",,
3007,THE UPS STORE,4867 ASHFORD DUNWOODY RD 6003,DUNWOODY,GEORGIA,USA,"4867 ASHFORD DUNWOODY RD 6003 DUNWOODY, GEORGIA USA",,
3009,PLANTATION SOUTH DUNWOODY,4594 BARCLAY DRIVE,DUNWOODY,GEORGIA,USA,"4594 BARCLAY DRIVE DUNWOODY, GEORGIA USA",,
3010,"URBAN OUTFITTERS, INC",4400 ASHFORD DUNWOODY RD 3020,DUNWOODY,GEORGIA,USA,"4400 ASHFORD DUNWOODY RD 3020 DUNWOODY, GEORGIA USA",,
3011,ANTHONY MARS SALON,4511 CHAMBLEE DUNWOODY RD A-3,DUNWOODY,GEORGIA,USA,"4511 CHAMBLEE DUNWOODY RD A-3 DUNWOODY, GEORGIA USA",,
3016,SOLAR DIMENSIONS DUNWOODY,4468 CHAMBLEE DUNWOODY RD M-3,DUNWOODY,GEORGIA,USA,"4468 CHAMBLEE DUNWOODY RD M-3 DUNWOODY, GEORGIA USA",,
3019,NORTHSIDE TREE PROFESSIONALS,3 DUNWOODY PARK 103,DUNWOODY,GEORGIA,USA,"3 DUNWOODY PARK 103 DUNWOODY, GEORGIA USA",,
3021,ROBERT ALAN'S SALON,5482 CHAMBLEE DUNWOODY RD,DUNWOODY,GEORGIA,USA,"5482 CHAMBLEE DUNWOODY RD DUNWOODY, GEORGIA USA",,
3022,TIMBERLAND INVESTMENTS RES LL,115 PERIMETER CENTER PL 940,DUNWOODY,GEORGIA,USA,"115 PERIMETER CENTER PL 940 DUNWOODY, GEORGIA USA",,
3029,"VILLAGE BURGER, LLC",1426 DUNWOODY VILLAGE PKY,DUNWOODY,GEORGIA,USA,"1426 DUNWOODY VILLAGE PKY DUNWOODY, GEORGIA USA",,
3034,IHG OWNERS ASSOCIATION,3 RAVINIA DRIVE 100,DUNWOODY,GEORGIA,USA,"3 RAVINIA DRIVE 100 DUNWOODY, GEORGIA USA",,
3037,SNOW CLEANERS,2496 MT. VERNON RD A,DUNWOODY,GEORGIA,USA,"2496 MT. VERNON RD A DUNWOODY, GEORGIA USA",,
3047,"LISA W. TALLANT, PSYD",2310 PEACHFORD RD 200,DUNWOODY,GEORGIA,USA,"2310 PEACHFORD RD 200 DUNWOODY, GEORGIA USA",,
3049,ALAS,5547 STAPLETON DR,DUNWOODY,GEORGIA,USA,"5547 STAPLETON DR DUNWOODY, GEORGIA USA",,
3051,STEPHEN FORBES & COMPANY,2 RAVINIA DRIVE 950,DUNWOODY,GEORGIA,USA,"2 RAVINIA DRIVE 950 DUNWOODY, GEORGIA USA",,
3056,ERNIE'S BARBER SHOP,5064 NANDINA LN,DUNWOODY,GEORGIA,USA,"5064 NANDINA LN DUNWOODY, GEORGIA USA",,
3061,MOES SOUTHWEST GRILL,5562 CHAMBLEE DUNWOODY RD,DUNWOODY,GEORGIA,USA,"5562 CHAMBLEE DUNWOODY RD DUNWOODY, GEORGIA USA",,
3064,CONSIGNING WOMEN,2508 MT. VERNON RD,DUNWOODY,GEORGIA,USA,"2508 MT. VERNON RD DUNWOODY, GEORGIA USA",,
3065,CHINA MAX,4400 ASHFORD DUNWOODY RD 1400,DUNWOODY,GEORGIA,USA,"4400 ASHFORD DUNWOODY RD 1400 DUNWOODY, GEORGIA USA",,
3086,CLEAR-COAT,4400 ASHFORD DUNWOODY RD 6540,DUNWOODY,GEORGIA,USA,"4400 ASHFORD DUNWOODY RD 6540 DUNWOODY, GEORGIA USA",,
3088,M.J. MURPHY COUNSELING SVCS.,1455 LINCOLN PKWY E 240,DUNWOODY,GEORGIA,USA,"1455 LINCOLN PKWY E 240 DUNWOODY, GEORGIA USA",,
3090,"BRAZILIAN BODY WAX, LLC",4772 ASHFORD DUNWOODY RD,DUNWOODY,GEORGIA,USA,"4772 ASHFORD DUNWOODY RD DUNWOODY, GEORGIA USA",,
3103,LAW OFFICE OF ESTHER PANITCH,1867 INDEPENDENCE SQ 105,DUNWOODY,GEORGIA,USA,"1867 INDEPENDENCE SQ 105 DUNWOODY, GEORGIA USA",,
3104,MATTRESS FIRM #7056,1161 HAMMOND DR NE 110,DUNWOODY,GEORGIA,USA,"1161 HAMMOND DR NE 110 DUNWOODY, GEORGIA USA",,
3109,"CAL DEVELOPMENT, INC",5 DUNWOODY PARK S,DUNWOODY,GEORGIA,USA,"5 DUNWOODY PARK S DUNWOODY, GEORGIA USA",,
3112,HOBBY LOBBY STORES INC #415,4715-A ASHFORD DUNWOODY RD,DUNWOODY,GEORGIA,USA,"4715-A ASHFORD DUNWOODY RD DUNWOODY, GEORGIA USA",,
3115,ROOMS TO GO #1713/KIDS #1793,1201-A HAMMOND DR NE,DUNWOODY,GEORGIA,USA,"1201-A HAMMOND DR NE DUNWOODY, GEORGIA USA",,
3118,GOODWILL OF NORTH GA,2842 JETT FERRY RD 640,DUNWOODY,GEORGIA,USA,"2842 JETT FERRY RD 640 DUNWOODY, GEORGIA USA",,
3121,SCENIC EMISSION,4479 CHAMBLEE DUNWOODY RD,DUNWOODY,GEORGIA,USA,"4479 CHAMBLEE DUNWOODY RD DUNWOODY, GEORGIA USA",,
3129,DUNWOODY WELLNESS CENTER,1370 CENTER DR 104,DUNWOODY,GEORGIA,USA,"1370 CENTER DR 104 DUNWOODY, GEORGIA USA",,
3138,DUNWOODY HAIR CO.,2498 MT. VERNON RD,DUNWOODY,GEORGIA,USA,"2498 MT. VERNON RD DUNWOODY, GEORGIA USA",,
3144,ALFRED ANGELO BRIDAL,4705 ASHFORD DUNWOODY RD A,DUNWOODY,GEORGIA,USA,"4705 ASHFORD DUNWOODY RD A DUNWOODY, GEORGIA USA",,
3152,"LORENTZSON & COMPANY, PC",1633 MT. VERNON RD 210,DUNWOODY,GEORGIA,USA,"1633 MT. VERNON RD 210 DUNWOODY, GEORGIA USA",,
3155,INHEALTH SYSTEMS & SERVICES,5076 WINTERS CHAPEL RD,DUNWOODY,GEORGIA,USA,"5076 WINTERS CHAPEL RD DUNWOODY, GEORGIA USA",,
3157,INHEALTH TRANSCRIPTION,5076 WINTERS CHAPEL RD,DUNWOODY,GEORGIA,USA,"5076 WINTERS CHAPEL RD DUNWOODY, GEORGIA USA",,
3168,MICHAEL KORS,4400 ASHFORD DUNWOODY RD,DUNWOODY,GEORGIA,USA,"4400 ASHFORD DUNWOODY RD DUNWOODY, GEORGIA USA",,
3194,PEACHTREE PLACE NORTH,4607 PEACHTREE PL PKWY,DUNWOODY,GEORGIA,USA,"4607 PEACHTREE PL PKWY DUNWOODY, GEORGIA USA",,
3216,BETTER RENOVATION INC,303 PERIMETER CENTER N 300,DUNWOODY,GEORGIA,USA,"303 PERIMETER CENTER N 300 DUNWOODY, GEORGIA USA",,
3219,ASAMBLEA CRISTIANA,4955 HAPPY HOLLOW RD,DUNWOODY,GEORGIA,USA,"4955 HAPPY HOLLOW RD DUNWOODY, GEORGIA USA",,
3294,NATIONAL HEALTH INS CO,,DUNWOODY,GEORGIA,USA," DUNWOODY, GEORGIA USA",,
3336,KNOWLES INT. PROP. STRATEGIES,400 PERIMETER CENTER TER 200,DUNWOODY,GEORGIA,USA,"400 PERIMETER CENTER TER 200 DUNWOODY, GEORGIA USA",,
3343,"TU ESPACIO DE SERVICIOS, LLC",6890 PEACHTREE IND. BLVD 1,DUNWOODY,GEORGIA,USA,"6890 PEACHTREE IND. BLVD 1 DUNWOODY, GEORGIA USA",,
3346,BLACK DIAMOND INV. PARTNERS,53 PERIMETER CENTER E 420,DUNWOODY,GEORGIA,USA,"53 PERIMETER CENTER E 420 DUNWOODY, GEORGIA USA",,
3355,SUNGLASS HUT #5401,4300 ASHFORD DUNWOODY RD,DUNWOODY,GEORGIA,USA,"4300 ASHFORD DUNWOODY RD DUNWOODY, GEORGIA USA",,
3356,SUNGLASS HUT #0383,4400 ASHFORD DUNWOODY RD 204,DUNWOODY,GEORGIA,USA,"4400 ASHFORD DUNWOODY RD 204 DUNWOODY, GEORGIA USA",,
3364,MAX FRIED ORIENTAL MEDICAL CL,4426 TILLY MILL RD,DUNWOODY,GEORGIA,USA,"4426 TILLY MILL RD DUNWOODY, GEORGIA USA",,
3381,AMERITRAIN MORTGAGE INST.,400 PERIMETER CENTER TER 125,DUNWOODY,GEORGIA,USA,"400 PERIMETER CENTER TER 125 DUNWOODY, GEORGIA USA",,
3395,LEND LEASE ICT SERVICES,48 PERIMETER CENTER E,DUNWOODY,GEORGIA,USA,"48 PERIMETER CENTER E DUNWOODY, GEORGIA USA",,
3401,IONIX CREATIVE,4514 CHAMBLEE DUNWOODY RD 150,DUNWOODY,GEORGIA,USA,"4514 CHAMBLEE DUNWOODY RD 150 DUNWOODY, GEORGIA USA",,
3403,SHARMA LAW OFFICES,47 PERIMETER CENTER E 260,DUNWOODY,GEORGIA,USA,"47 PERIMETER CENTER E 260 DUNWOODY, GEORGIA USA",,
3405,QUICK WEIGHT LOSS CENTERS,4511 OLDE PERIMETER PKWY 307,DUNWOODY,GEORGIA,USA,"4511 OLDE PERIMETER PKWY 307 DUNWOODY, GEORGIA USA",,
3411,FOOD BIG APPLE,1040 CROWN POINTE PKWY 130,DUNWOODY,GEORGIA,USA,"1040 CROWN POINTE PKWY 130 DUNWOODY, GEORGIA USA",,
3424,"MORTGAGE ASSURANCE, INC",1200 ASHWOOD PKWY 200,DUNWOODY,GEORGIA,USA,"1200 ASHWOOD PKWY 200 DUNWOODY, GEORGIA USA",,
3428,GYRO GYRO,5000 WINTERS CHAPEL RD 6-7,DUNWOODY,GEORGIA,USA,"5000 WINTERS CHAPEL RD 6-7 DUNWOODY, GEORGIA USA",,
3430,CORNERSTONE SOLUTIONS PARTNER,303 PERIMETER CENTER N 300,DUNWOODY,GEORGIA,USA,"303 PERIMETER CENTER N 300 DUNWOODY, GEORGIA USA",,
3431,"R2T, INC",1841 PEELER RD C,DUNWOODY,GEORGIA,USA,"1841 PEELER RD C DUNWOODY, GEORGIA USA",,
3438,EQ  OYA HAIR SALON AND MISC,4939 WINTERS CHAPEL RD 300,DUNWOODY,GEORGIA,USA,"4939 WINTERS CHAPEL RD 300 DUNWOODY, GEORGIA USA",,
3442,SMARTSTYLE #10072,4725 ASHFORD DUNWOODY RD,DUNWOODY,GEORGIA,USA,"4725 ASHFORD DUNWOODY RD DUNWOODY, GEORGIA USA",,
3443,1ST PHYSICIANS RESOURCE,1040 CROWN POINTE PKWY 1070,DUNWOODY,GEORGIA,USA,"1040 CROWN POINTE PKWY 1070 DUNWOODY, GEORGIA USA",,
3461,"PERSONAL COMMUNICATIONS, INC",2 RAVINIA DRIVE 980,DUNWOODY,GEORGIA,USA,"2 RAVINIA DRIVE 980 DUNWOODY, GEORGIA USA",,
3466,"THE PRESTON PARTNERSHIP, LLC",115 PERIMETER CENTER PL 950,DUNWOODY,GEORGIA,USA,"115 PERIMETER CENTER PL 950 DUNWOODY, GEORGIA USA",,
3469,ENOPI,5515 CHAMBLEE DUNWOODY RD 420B,DUNWOODY,GEORGIA,USA,"5515 CHAMBLEE DUNWOODY RD 420B DUNWOODY, GEORGIA USA",,
3474,CQ DUNWOODY VILLAGE COURT LLC,1532 DUNWOODY VILLAGE PKW 220,DUNWOODY,GEORGIA,USA,"1532 DUNWOODY VILLAGE PKW 220 DUNWOODY, GEORGIA USA",,
3479,"DISNEY STORE USA, LLC #821",4400 ASHFORD DUNWOODY RD 5548,DUNWOODY,GEORGIA,USA,"4400 ASHFORD DUNWOODY RD 5548 DUNWOODY, GEORGIA USA",,
3480,ECHOSTAR DATA NETWORK CORP,211 PERIMETER CENTER PKY 600,DUNWOODY,GEORGIA,USA,"211 PERIMETER CENTER PKY 600 DUNWOODY, GEORGIA USA",,
3483,RUBY  SHELL,5020 WINTERS CHAPEL RD A,DUNWOODY,GEORGIA,USA,"5020 WINTERS CHAPEL RD A DUNWOODY, GEORGIA USA",,
3485,TESCAO MARTIAL ARTS,3035 PEELER RD,DUNWOODY,GEORGIA,USA,"3035 PEELER RD DUNWOODY, GEORGIA USA",,
3493,VISION PERFORMANCE CENTER,1455 LINCOLN PKWY 440,DUNWOODY,GEORGIA,USA,"1455 LINCOLN PKWY 440 DUNWOODY, GEORGIA USA",,
3501,UNIVERSITY OF NOTRE DAME,1050 CROWN POINTE PKWY 945,DUNWOODY,GEORGIA,USA,"1050 CROWN POINTE PKWY 945 DUNWOODY, GEORGIA USA",,
3502,THE DOJO AMERICAN KARATE,4478-B CLAMBLEE DUNWOODY RD,DUNWOODY,GEORGIA,USA,"4478-B CLAMBLEE DUNWOODY RD DUNWOODY, GEORGIA USA",,
3513,"WE CAN DO IT BETTER, LLC.",115 PERIMETER CTR PLACE,DUNWOODY,GEORGIA,USA,"115 PERIMETER CTR PLACE DUNWOODY, GEORGIA USA",,
3514,CAFE  211,211 PERIMETER CTR PKWY G10,DUNWOODY,GEORGIA,USA,"211 PERIMETER CTR PKWY G10 DUNWOODY, GEORGIA USA",,
3524,IPFS CORPORATION,900 ASHWOOD PKWY L-10,DUNWOODY,GEORGIA,USA,"900 ASHWOOD PKWY L-10 DUNWOODY, GEORGIA USA",,
3530,"FRANCESCA'S COLLECTIONS, INC",4400 ASHFORD DUNWOODY RD 2370,DUNWOODY,GEORGIA,USA,"4400 ASHFORD DUNWOODY RD 2370 DUNWOODY, GEORGIA USA",,
3531,"PERFECT BROW ART, INC",4400 ASHFORD DUNWOODY RD 2220,DUNWOODY,GEORGIA,USA,"4400 ASHFORD DUNWOODY RD 2220 DUNWOODY, GEORGIA USA",,
3534,INNOVATIVE FINANCIAL GROUP,115 PERIMETER CENTER PL 150,DUNWOODY,GEORGIA,USA,"115 PERIMETER CENTER PL 150 DUNWOODY, GEORGIA USA",,
3537,EDIBLE ARRANGEMENTS #1217,4780 ASHFORD DUNWOODY RD 520,DUNWOODY,GEORGIA,USA,"4780 ASHFORD DUNWOODY RD 520 DUNWOODY, GEORGIA USA",,
3539,SUZIE GOGGIN,1776 OLD SPRINGHOUSE LN 104,DUNWOODY,GEORGIA,USA,"1776 OLD SPRINGHOUSE LN 104 DUNWOODY, GEORGIA USA",,
3540,WORLD THERAPY CENTER,2406 MT VERNON RD 210,DUNWOODY,GEORGIA,USA,"2406 MT VERNON RD 210 DUNWOODY, GEORGIA USA",,
3545,WINNER SMILE DENTAL,1776 OLD SPRINGHOUSE LN 302,DUNWOODY,GEORGIA,USA,"1776 OLD SPRINGHOUSE LN 302 DUNWOODY, GEORGIA USA",,
3551,"MALONE AERO SALES, LLC",2 RAVINIA DR 300,DUNWOODY,GEORGIA,USA,"2 RAVINIA DR 300 DUNWOODY, GEORGIA USA",,
3567,CROWNE PLAZA ATL RAVINIA/PER,4355 ASHFORD DUNWOODY RD,DUNWOODY,GEORGIA,USA,"4355 ASHFORD DUNWOODY RD DUNWOODY, GEORGIA USA",,
3569,ACCOUNTANTS ONE,1866 INDEPENDENCE SQ,DUNWOODY,GEORGIA,USA,"1866 INDEPENDENCE SQ DUNWOODY, GEORGIA USA",,
3574,NATURAL BEAUTY,4400 ASHFORD DUNWOODY RD 5548,DUNWOODY,GEORGIA,USA,"4400 ASHFORD DUNWOODY RD 5548 DUNWOODY, GEORGIA USA",,
3578,"SPRINTCOM, INC",127 PERIMETER CENTER W B,DUNWOODY,GEORGIA,USA,"127 PERIMETER CENTER W B DUNWOODY, GEORGIA USA",,
3585,MAGNOLIA AUDIO VISUAL #503,1201 HAMMOND DR NE C,DUNWOODY,GEORGIA,USA,"1201 HAMMOND DR NE C DUNWOODY, GEORGIA USA",,
3593,TICO LOGISTICS,2 RAVINIA DRIVE 500,DUNWOODY,GEORGIA,USA,"2 RAVINIA DRIVE 500 DUNWOODY, GEORGIA USA",,
3597,"WADE AUTOMOTIVE GROUP, LLC",5528 CHAMBLEE DUNWOODY RD,DUNWOODY,GEORGIA,USA,"5528 CHAMBLEE DUNWOODY RD DUNWOODY, GEORGIA USA",,
3598,CARBONARA,5499 CHAMBLEE DUNWOODY RD 710,DUNWOODY,GEORGIA,USA,"5499 CHAMBLEE DUNWOODY RD 710 DUNWOODY, GEORGIA USA",,
3606,"BILL GRANT MANAGEMENT, INC",1711-A MT VERNON RD,DUNWOODY,GEORGIA,USA,"1711-A MT VERNON RD DUNWOODY, GEORGIA USA",,
3613,EURO DISTRIBUTION COMPANY LLC,4470 CHAMBLEE DUNWOODY RD 470,DUNWOODY,GEORGIA,USA,"4470 CHAMBLEE DUNWOODY RD 470 DUNWOODY, GEORGIA USA",,
3617,"OLDCASTLE MATERIALS, INC.",900 ASHWOOD PARKWAY 600,DUNWOODY,GEORGIA,USA,"900 ASHWOOD PARKWAY 600 DUNWOODY, GEORGIA USA",,
3619,MASS MUTUAL LIFE INSURANCE,1040 CROWN POINTE PKWY 100,DUNWOODY,GEORGIA,USA,"1040 CROWN POINTE PKWY 100 DUNWOODY, GEORGIA USA",,
3620,DUNWOODY DIAMONDS USA,4780 ASHFORD DUNWOODY RD 500,DUNWOODY,GEORGIA,USA,"4780 ASHFORD DUNWOODY RD 500 DUNWOODY, GEORGIA USA",,
3629,Z GALLERIE,4400 ASHFORD DUNWOODY RD 1515,DUNWOODY,GEORGIA,USA,"4400 ASHFORD DUNWOODY RD 1515 DUNWOODY, GEORGIA USA",,
3631,"W.H. SUSHI, INC",5500 CHAMBLEE DUNWOODY RD,DUNWOODY,GEORGIA,USA,"5500 CHAMBLEE DUNWOODY RD DUNWOODY, GEORGIA USA",,
3636,"SCENIC AUTO BROKERS, INC",2 RAVINIA DR 500,DUNWOODY,GEORGIA,USA,"2 RAVINIA DR 500 DUNWOODY, GEORGIA USA",,
3637,LA MER MASSAGE,5 DUNWOODY PARK 100,DUNWOODY,GEORGIA,USA,"5 DUNWOODY PARK 100 DUNWOODY, GEORGIA USA",,
3639,"HMS, LLC",47 PERIMETER CENTER E 250,DUNWOODY,GEORGIA,USA,"47 PERIMETER CENTER E 250 DUNWOODY, GEORGIA USA",,
3652,RUBY BEAUTY CENTER SALON,4639 N. SHALLOWFORD RD,DUNWOODY,GEORGIA,USA,"4639 N. SHALLOWFORD RD DUNWOODY, GEORGIA USA",,
3653,PINNACLE HEALTH GROUP,1455 LINCOLN PKWY 350,DUNWOODY,GEORGIA,USA,"1455 LINCOLN PKWY 350 DUNWOODY, GEORGIA USA",,
3655,DUNWOODY  BEVERAGE,1418 DUNWOODY VILLAGE PKW,DUNWOODY,GEORGIA,USA,"1418 DUNWOODY VILLAGE PKW DUNWOODY, GEORGIA USA",,
3656,"R. J. ACKAWAY & ASSOC, INC.",2498 JETT FERRY RD 203,DUNWOODY,GEORGIA,USA,"2498 JETT FERRY RD 203 DUNWOODY, GEORGIA USA",,
3659,BOBS HANDYMAN SERVICES,2394 MT. VERNON RD,DUNWOODY,GEORGIA,USA,"2394 MT. VERNON RD DUNWOODY, GEORGIA USA",,
3660,HARBOR FREIGHT TOOLS #364,4776 ASHFORD DUNWOODY RD 6,DUNWOODY,GEORGIA,USA,"4776 ASHFORD DUNWOODY RD 6 DUNWOODY, GEORGIA USA",,
3662,SMURTI CORPORATION,2312 PEACHFORD RD C&D,DUNWOODY,GEORGIA,USA,"2312 PEACHFORD RD C&D DUNWOODY, GEORGIA USA",,
3668,"VRA INTERIORS, LLC",4780 ASHFORD DUNWOODY RD A-233,DUNWOODY,GEORGIA,USA,"4780 ASHFORD DUNWOODY RD A-233 DUNWOODY, GEORGIA USA",,
3777,"COLLEGE MEDICAL SERVICES, INC",1867 INDEPENDENCE SQ 201,DUNWOODY,GEORGIA,USA,"1867 INDEPENDENCE SQ 201 DUNWOODY, GEORGIA USA",,
3784,CARTIQUE,4530 CHAMBLEE DUNWOODY RD,DUNWOODY,GEORGIA,USA,"4530 CHAMBLEE DUNWOODY RD DUNWOODY, GEORGIA USA",,
3801,"ACCESS POINT FINANCIAL, INC",1 RAVINIA DRIVE 900,DUNWOODY,GEORGIA,USA,"1 RAVINIA DRIVE 900 DUNWOODY, GEORGIA USA",,
3805,FULCRO INSURANCE OF GEORGIA,47 PERIMETER CENTER E 100,DUNWOODY,GEORGIA,USA,"47 PERIMETER CENTER E 100 DUNWOODY, GEORGIA USA",,
3809,ELLA COLOUR STUDIO,1151 HAMMOND DR NE 200 112,DUNWOODY,GEORGIA,USA,"1151 HAMMOND DR NE 200 112 DUNWOODY, GEORGIA USA",,
3818,PARTY CITY,4743-B ASHFORD DUNWOODY RD,DUNWOODY,GEORGIA,USA,"4743-B ASHFORD DUNWOODY RD DUNWOODY, GEORGIA USA",,
3819,CHAMPS #14641,4400 ASHFORD DUNWOODY RD 1265,DUNWOODY,GEORGIA,USA,"4400 ASHFORD DUNWOODY RD 1265 DUNWOODY, GEORGIA USA",,
3821,"MARX OKUBO ASSOCIATES, INC",41 PERIMETER CENTER E 640,DUNWOODY,GEORGIA,USA,"41 PERIMETER CENTER E 640 DUNWOODY, GEORGIA USA",,
3823,"RDIALOGUE, LLC",115 PERIMETER CENTER PL 945,DUNWOODY,GEORGIA,USA,"115 PERIMETER CENTER PL 945 DUNWOODY, GEORGIA USA",,
3834,THE DUNWOODY BAKERY,2492 MT. VERNON RD,DUNWOODY,GEORGIA,USA,"2492 MT. VERNON RD DUNWOODY, GEORGIA USA",,
3836,IZAWA AMERICA INC.,1050 CROWN POINTE PKWY 290,DUNWOODY,GEORGIA,USA,"1050 CROWN POINTE PKWY 290 DUNWOODY, GEORGIA USA",,
3839,ACCEPTANCE NOW #06011,1201 HAMMOND DR NE A,DUNWOODY,GEORGIA,USA,"1201 HAMMOND DR NE A DUNWOODY, GEORGIA USA",,
3850,CLASSIC NAILS,4772 ASHFORD DUNWOODY RD 310,DUNWOODY,GEORGIA,USA,"4772 ASHFORD DUNWOODY RD 310 DUNWOODY, GEORGIA USA",,
3854,"PALMER HEALTHCARE, LLC",3237 ASBURY SQ,DUNWOODY,GEORGIA,USA,"3237 ASBURY SQ DUNWOODY, GEORGIA USA",,
3856,EASTERN CHINA TASTE,5586 CHAMBLEE DUNWOODY RD,DUNWOODY,GEORGIA,USA,"5586 CHAMBLEE DUNWOODY RD DUNWOODY, GEORGIA USA",,
3865,CHUY'S MEXICAN RESTAURANT,118 PERIMETER CENTER W,DUNWOODY,GEORGIA,USA,"118 PERIMETER CENTER W DUNWOODY, GEORGIA USA",,
3872,CONSERVATORY NEWS SHOP,3 RAVINIA DR 140,DUNWOODY,GEORGIA,USA,"3 RAVINIA DR 140 DUNWOODY, GEORGIA USA",,
3875,UNIQUE THREADINGS & BODY WAX,4531 OLDE PERIMETER WAY 220,DUNWOODY,GEORGIA,USA,"4531 OLDE PERIMETER WAY 220 DUNWOODY, GEORGIA USA",,
3889,STRATEGIC GLOBAL CONSULTING,4514 CHAMBLEE DUNWOODY RD 179,DUNWOODY,GEORGIA,USA,"4514 CHAMBLEE DUNWOODY RD 179 DUNWOODY, GEORGIA USA",,
3892,"AUSTRAL WINES, LLC",303 PERIMETER CENTER N 300,DUNWOODY,GEORGIA,USA,"303 PERIMETER CENTER N 300 DUNWOODY, GEORGIA USA",,
3894,PEDIATRIC HEALTH CENTER,4243 DUNWOODY CLUB DR 103,DUNWOODY,GEORGIA,USA,"4243 DUNWOODY CLUB DR 103 DUNWOODY, GEORGIA USA",,
3896,365 SECURITY,1850 COTILLION DR 1413,DUNWOODY,GEORGIA,USA,"1850 COTILLION DR 1413 DUNWOODY, GEORGIA USA",,
3899,"SDA CPA GROUP, P.C.",1637 MT VERNON RD 200,DUNWOODY,GEORGIA,USA,"1637 MT VERNON RD 200 DUNWOODY, GEORGIA USA",,
3901,"ZUKERINO PASTRY SHOP, LLC",2230 COTILLION DRIVE,DUNWOODY,GEORGIA,USA,"2230 COTILLION DRIVE DUNWOODY, GEORGIA USA",,
3910,"CMG CORPORATE SERVICES, INC.",223 PERIMETER CENTER PKW,DUNWOODY,GEORGIA,USA,"223 PERIMETER CENTER PKW DUNWOODY, GEORGIA USA",,
3911,"BSL STAFFING, LLC",100 ASHFORD CENTER N 460,DUNWOODY,GEORGIA,USA,"100 ASHFORD CENTER N 460 DUNWOODY, GEORGIA USA",,
3935,"PREMIER ADVISOR NETWORK, LLC",1050 CROWN POINTE PKWY 1700,DUNWOODY,GEORGIA,USA,"1050 CROWN POINTE PKWY 1700 DUNWOODY, GEORGIA USA",,
3947,PERIMETER MASSAGE THERAPY,1845 PEELER RD A,DUNWOODY,GEORGIA,USA,"1845 PEELER RD A DUNWOODY, GEORGIA USA",,
3958,CHARLES ABBOTT ASSOCIATES,2 RAVINIA DRIVE 500,DUNWOODY,GEORGIA,USA,"2 RAVINIA DRIVE 500 DUNWOODY, GEORGIA USA",,
3959,ADDICTED TO WAX,3 DUNWOODY PARK 103,DUNWOODY,GEORGIA,USA,"3 DUNWOODY PARK 103 DUNWOODY, GEORGIA USA",,
3961,"HST REAL ESTATE GROUP, LLC",1535 MT VERNON RD 100,DUNWOODY,GEORGIA,USA,"1535 MT VERNON RD 100 DUNWOODY, GEORGIA USA",,
3966,DUNWOODY REALTY INVESTMENTS I,4330 TILLY MILL RD,DUNWOODY,GEORGIA,USA,"4330 TILLY MILL RD DUNWOODY, GEORGIA USA",,
3967,"KING AGENCY, INC.",1770 OLD SPRINGHOUSE LN 100A,DUNWOODY,GEORGIA,USA,"1770 OLD SPRINGHOUSE LN 100A DUNWOODY, GEORGIA USA",,
3971,SUBWAY,4400 ASHFORD DUNWOODY RD 1380,DUNWOODY,GEORGIA,USA,"4400 ASHFORD DUNWOODY RD 1380 DUNWOODY, GEORGIA USA",,
3984,"INTERDEV, LLC",41 PERIMETER CENTER E 250,DUNWOODY,GEORGIA,USA,"41 PERIMETER CENTER E 250 DUNWOODY, GEORGIA USA",,
3996,"LEND LEASE (US) SERVICES, INC",48 PERIMETER CENTER E,DUNWOODY,GEORGIA,USA,"48 PERIMETER CENTER E DUNWOODY, GEORGIA USA",,
3997,MASTER BRAZILIAN JIU JITSU IN,4630 N SHALLOWFORD RD,DUNWOODY,GEORGIA,USA,"4630 N SHALLOWFORD RD DUNWOODY, GEORGIA USA",,
4008,INTERNAP,1 RAVINIA DR 1300,DUNWOODY,GEORGIA,USA,"1 RAVINIA DR 1300 DUNWOODY, GEORGIA USA",,
4034,MOONBEAM TRUST,1244 DUNWOODY VILLAGE PKW,DUNWOODY,GEORGIA,USA,"1244 DUNWOODY VILLAGE PKW DUNWOODY, GEORGIA USA",,
4035,"JACOBS ENGINEERING GROUP, INC",41 PERIMETER CENTER E 250,DUNWOODY,GEORGIA,USA,"41 PERIMETER CENTER E 250 DUNWOODY, GEORGIA USA",,
4051,"A.J.P.N. ENTERPRISES, INC",1260 ASHFORD CROSSING,DUNWOODY,GEORGIA,USA,"1260 ASHFORD CROSSING DUNWOODY, GEORGIA USA",,
4052,FAMILY & COSMETIC DENTISTRY,1651 MT VERNON RD,DUNWOODY,GEORGIA,USA,"1651 MT VERNON RD DUNWOODY, GEORGIA USA",,
4054,DUNWOODY PARK FAMILY DENTISTR,3 DUNWOODY PARK 119,DUNWOODY,GEORGIA,USA,"3 DUNWOODY PARK 119 DUNWOODY, GEORGIA USA",,
4056,MADEWELL,4400 ASHFORD DUNWOODY RD 2575,DUNWOODY,GEORGIA,USA,"4400 ASHFORD DUNWOODY RD 2575 DUNWOODY, GEORGIA USA",,
4061,PS ENERGY GROUP,4480 N SHALLOWFORD RD 100,DUNWOODY,GEORGIA,USA,"4480 N SHALLOWFORD RD 100 DUNWOODY, GEORGIA USA",,
4067,O'BRIAN'S TAVERN,2486-A MT. VERNON RD,DUNWOODY,GEORGIA,USA,"2486-A MT. VERNON RD DUNWOODY, GEORGIA USA",,
4072,MORNEAU SHEPELL LIMITED,115 PERIMETER CENTER PL 1150,DUNWOODY,GEORGIA,USA,"115 PERIMETER CENTER PL 1150 DUNWOODY, GEORGIA USA",,
4073,"AGRO AMERICA , LLC",211 PERIMETER CENTER PKW 1020,DUNWOODY,GEORGIA,USA,"211 PERIMETER CENTER PKW 1020 DUNWOODY, GEORGIA USA",,
4074,PEACHTREE RIDES,2402 MT VERNON RD 100,DUNWOODY,GEORGIA,USA,"2402 MT VERNON RD 100 DUNWOODY, GEORGIA USA",,
4084,"CERTAINTY HOME LOANS, LLC",115 PERIMETER CENTER PL 100-A,DUNWOODY,GEORGIA,USA,"115 PERIMETER CENTER PL 100-A DUNWOODY, GEORGIA USA",,
4086,TIN LIZZY'S CANTINA,121 PERIMETER CENTER WES,DUNWOODY,GEORGIA,USA,"121 PERIMETER CENTER WES DUNWOODY, GEORGIA USA",,
4088,"BLOOMS OF DUNWOODY, LLC",5479 CHAMBLEE DUNWOODY RD,DUNWOODY,GEORGIA,USA,"5479 CHAMBLEE DUNWOODY RD DUNWOODY, GEORGIA USA",,
4089,THE NUCLEUS GROUP HOLDINGS IN,2 RAVINIA DR 605,DUNWOODY,GEORGIA,USA,"2 RAVINIA DR 605 DUNWOODY, GEORGIA USA",,
4090,"NUCLEUS CENTRAL, INC",2 RAVINIA DR 605,DUNWOODY,GEORGIA,USA,"2 RAVINIA DR 605 DUNWOODY, GEORGIA USA",,
4094,LA CHIC HAIR STUDIO SALON,1151 HAMMOND DR NE 200 131,DUNWOODY,GEORGIA,USA,"1151 HAMMOND DR NE 200 131 DUNWOODY, GEORGIA USA",,
4106,MORNINGSTAR INVESTMENT GROUP,1370 CENTER DRIVE 102,DUNWOODY,GEORGIA,USA,"1370 CENTER DRIVE 102 DUNWOODY, GEORGIA USA",,
4109,"KNOWLES BUSINESS ADVISORS, LL",400 PERIMETER CENTER TER 200,DUNWOODY,GEORGIA,USA,"400 PERIMETER CENTER TER 200 DUNWOODY, GEORGIA USA",,
4114,CONCEPT ENGINEERING SERVICES,4584 CHAMBLEE DUNWOODY RD,DUNWOODY,GEORGIA,USA,"4584 CHAMBLEE DUNWOODY RD DUNWOODY, GEORGIA USA",,
4119,HUNDAL INSURANCE GROUP,1816 INDEPENDENCE SQ C,DUNWOODY,GEORGIA,USA,"1816 INDEPENDENCE SQ C DUNWOODY, GEORGIA USA",,
4121,MOONDOG GROWLERS,5064 NANDINA LN D,DUNWOODY,GEORGIA,USA,"5064 NANDINA LN D DUNWOODY, GEORGIA USA",,
4125,ELLERIN LAW FIRM,1050 CROWN POINTE PKWY 400,DUNWOODY,GEORGIA,USA,"1050 CROWN POINTE PKWY 400 DUNWOODY, GEORGIA USA",,
4130,"CHICK-FIL-A, INC",4400 ASHFORD DUNWOODY RD 5548,DUNWOODY,GEORGIA,USA,"4400 ASHFORD DUNWOODY RD 5548 DUNWOODY, GEORGIA USA",,
4134,CUBESMART #568,4931 ASHFORD DUNWOODY RD,DUNWOODY,GEORGIA,USA,"4931 ASHFORD DUNWOODY RD DUNWOODY, GEORGIA USA",,
4139,"SCIP, LLC",1370 CENTER DRIVE 206,DUNWOODY,GEORGIA,USA,"1370 CENTER DRIVE 206 DUNWOODY, GEORGIA USA",,
4142,AMAZING MASSAGE,4511 CHAMBLEE DUNWOODY RD C2,DUNWOODY,GEORGIA,USA,"4511 CHAMBLEE DUNWOODY RD C2 DUNWOODY, GEORGIA USA",,
4148,BRUSTER'S REAL ICE CREAM,5503 CHAMBLEE DUNWOODY RD,DUNWOODY,GEORGIA,USA,"5503 CHAMBLEE DUNWOODY RD DUNWOODY, GEORGIA USA",,
4153,TERESA PROCTOR DENTAL LAB,4651 CHAMBLEE DUNWOODY RD C,DUNWOODY,GEORGIA,USA,"4651 CHAMBLEE DUNWOODY RD C DUNWOODY, GEORGIA USA",,
4154,UNIVERSAL CLEANERS & LAUNDRY,4709 ASHFORD DUNWOODY RD,DUNWOODY,GEORGIA,USA,"4709 ASHFORD DUNWOODY RD DUNWOODY, GEORGIA USA",,
4156,CURL ENVY,1151 HAMMOND DR NE 200 113,DUNWOODY,GEORGIA,USA,"1151 HAMMOND DR NE 200 113 DUNWOODY, GEORGIA USA",,
4157,"DILIGENT SOLUTIONS, INC",1720 OLD SPRING HOUSE LN 314,DUNWOODY,GEORGIA,USA,"1720 OLD SPRING HOUSE LN 314 DUNWOODY, GEORGIA USA",,
4162,SALMON BARTON & ASSOCIATES LL,1050 CROWN POINTE PKWY 810,DUNWOODY,GEORGIA,USA,"1050 CROWN POINTE PKWY 810 DUNWOODY, GEORGIA USA",,
4162,SALMON BARTON & ASSOCIATES LL,1050 CROWN POINTE PKWY 810,DUNWOODY,GEORGIA,USA,"1050 CROWN POINTE PKWY 810 DUNWOODY, GEORGIA USA",,
4163,WENTWORTH GALLERY,4400 ASHFORD DUNWOODY RD 1620,DUNWOODY,GEORGIA,USA,"4400 ASHFORD DUNWOODY RD 1620 DUNWOODY, GEORGIA USA",,
4165,MARLOW'S TAVERN,1319 DUNWOODY VILLAGE PKY 102,DUNWOODY,GEORGIA,USA,"1319 DUNWOODY VILLAGE PKY 102 DUNWOODY, GEORGIA USA",,
4170,"THE COLOGRAPHY GROUP, INC",47 PERIMETER CENTER E 600,DUNWOODY,GEORGIA,USA,"47 PERIMETER CENTER E 600 DUNWOODY, GEORGIA USA",,
4176,"FAMILY ORTHODONTICS, LLC",1420 DUNWOODY VILLAGE PKW,DUNWOODY,GEORGIA,USA,"1420 DUNWOODY VILLAGE PKW DUNWOODY, GEORGIA USA",,
4177,"DENTISTRY FOR CHILDREN-GA, LL",1420 DUNWOODY VILLAGE PKW,DUNWOODY,GEORGIA,USA,"1420 DUNWOODY VILLAGE PKW DUNWOODY, GEORGIA USA",,
4179,COLD STONE CREAMERY/BLIMPIE,1270 ASHFORD CROSSING,DUNWOODY,GEORGIA,USA,"1270 ASHFORD CROSSING DUNWOODY, GEORGIA USA",,
4182,MICHAEL M SIMPSON & ASSOCIATE,303 PERIMETER CENTER N 300,DUNWOODY,GEORGIA,USA,"303 PERIMETER CENTER N 300 DUNWOODY, GEORGIA USA",,
4183,SWEETS 'N DREAMS,5500 CHAMBLEE DUNWOODY RD 5A,DUNWOODY,GEORGIA,USA,"5500 CHAMBLEE DUNWOODY RD 5A DUNWOODY, GEORGIA USA",,
4192,CAPITAL GRILLE #8050,94 PERIMETER CENTER W,DUNWOODY,GEORGIA,USA,"94 PERIMETER CENTER W DUNWOODY, GEORGIA USA",,
4196,CRANIOFACIAL PAIN CENTER OF G,200 ASHFORD CENTER N. 195,DUNWOODY,GEORGIA,USA,"200 ASHFORD CENTER N. 195 DUNWOODY, GEORGIA USA",,
4198,"ACCESS HOLDCO MANAGEMENT, LLC",3 RAVINIA DRIVE 400,DUNWOODY,GEORGIA,USA,"3 RAVINIA DRIVE 400 DUNWOODY, GEORGIA USA",,
4200,SKECHERS,4400 ASHFORD DUNWOODY RD 1035,DUNWOODY,GEORGIA,USA,"4400 ASHFORD DUNWOODY RD 1035 DUNWOODY, GEORGIA USA",,
4203,"STRATEGEN TECH, INC.",2 RAVINIA DR 500,DUNWOODY,GEORGIA,USA,"2 RAVINIA DR 500 DUNWOODY, GEORGIA USA",,
4206,SANTA ROSA ENTERPRISES,3 DUNWOODY PARK 303,DUNWOODY,GEORGIA,USA,"3 DUNWOODY PARK 303 DUNWOODY, GEORGIA USA",,
4211,ZOE'S KITCHEN #162,1165 PERIMETER CENTER W 340,DUNWOODY,GEORGIA,USA,"1165 PERIMETER CENTER W 340 DUNWOODY, GEORGIA USA",,
4214,FARM BURGER DUNWOODY,4514 CHAMBLEE DUNWOODY RD A,DUNWOODY,GEORGIA,USA,"4514 CHAMBLEE DUNWOODY RD A DUNWOODY, GEORGIA USA",,
4216,THE ART OF SHAVING,4400 ASHFORD DUNWOODY RD 2610,DUNWOODY,GEORGIA,USA,"4400 ASHFORD DUNWOODY RD 2610 DUNWOODY, GEORGIA USA",,
4217,THE ART OF SHAVING STAFFING,4400 ASHFORD DUNWOODY RD 2610,DUNWOODY,GEORGIA,USA,"4400 ASHFORD DUNWOODY RD 2610 DUNWOODY, GEORGIA USA",,
4218,HEALTH POINT WELLNESS GROUP,1720 MT VERNON RD B,DUNWOODY,GEORGIA,USA,"1720 MT VERNON RD B DUNWOODY, GEORGIA USA",,
4220,MAYUR NAYEE DMD PC,1858 INDEPENDENCE SQ A,DUNWOODY,GEORGIA,USA,"1858 INDEPENDENCE SQ A DUNWOODY, GEORGIA USA",,
4223,"CAPRE GROUP, INC.",115 PERIMETER CENTER PL 1120,DUNWOODY,GEORGIA,USA,"115 PERIMETER CENTER PL 1120 DUNWOODY, GEORGIA USA",,
4224,THE BANK OF NY MELLON TRUST C,200 ASHFORD CENTER N 550,DUNWOODY,GEORGIA,USA,"200 ASHFORD CENTER N 550 DUNWOODY, GEORGIA USA",,
4228,"ELECOMPTRADE, LLC",2 RAVINIA DR 500,DUNWOODY,GEORGIA,USA,"2 RAVINIA DR 500 DUNWOODY, GEORGIA USA",,
4230,ALI'S COOKIES,4511 OLDE PERIMETER WAY 300,DUNWOODY,GEORGIA,USA,"4511 OLDE PERIMETER WAY 300 DUNWOODY, GEORGIA USA",,
4234,ASSURANCE FINANCIAL LLC,47 PERIMETER CENTER E 430,DUNWOODY,GEORGIA,USA,"47 PERIMETER CENTER E 430 DUNWOODY, GEORGIA USA",,
4247,FOREVER SHINE HAIR SALON,1151 HAMMOND DR 200 133,DUNWOODY,GEORGIA,USA,"1151 HAMMOND DR 200 133 DUNWOODY, GEORGIA USA",,
4249,VINO VENUE,4478 CHAMBLEE DUNWOODY RD,DUNWOODY,GEORGIA,USA,"4478 CHAMBLEE DUNWOODY RD DUNWOODY, GEORGIA USA",,
4256,VINEVERA,4400 ASHFORD DUNWOODY DR 1405,DUNWOODY,GEORGIA,USA,"4400 ASHFORD DUNWOODY DR 1405 DUNWOODY, GEORGIA USA",,
4257,HEAVENLY FOOT MASSAGE,2482 JETT FERRY RD 680,DUNWOODY,GEORGIA,USA,"2482 JETT FERRY RD 680 DUNWOODY, GEORGIA USA",,
4259,"AMERIPARK, LLC",4400 ASHFORD DUNWOODY RD 1445,DUNWOODY,GEORGIA,USA,"4400 ASHFORD DUNWOODY RD 1445 DUNWOODY, GEORGIA USA",,
4260,BAY LEAF,4639 N. SHALLOWFORD RD F,DUNWOODY,GEORGIA,USA,"4639 N. SHALLOWFORD RD F DUNWOODY, GEORGIA USA",,
4262,THE ART OF SHAVING - BARBER,4400 ASHFORD DUNWOODY RD 2610,DUNWOODY,GEORGIA,USA,"4400 ASHFORD DUNWOODY RD 2610 DUNWOODY, GEORGIA USA",,
4264,SOUTHEAST GENERAL CONSTRUCTIO,303 PERIMETER CENTER N 300,DUNWOODY,GEORGIA,USA,"303 PERIMETER CENTER N 300 DUNWOODY, GEORGIA USA",,
4270,BEAL NEVADA SERVICE CORP,4511 OLDE PERIMETER WAY 500,DUNWOODY,GEORGIA,USA,"4511 OLDE PERIMETER WAY 500 DUNWOODY, GEORGIA USA",,
4278,"INDUS DEVELOPMENT, INC.",4780 ASHFORD DUNWOODY RD A-111,DUNWOODY,GEORGIA,USA,"4780 ASHFORD DUNWOODY RD A-111 DUNWOODY, GEORGIA USA",,
4281,FABRIK - DUNWOODY,4520 OLDE PERIMETER WAY 150,DUNWOODY,GEORGIA,USA,"4520 OLDE PERIMETER WAY 150 DUNWOODY, GEORGIA USA",,
4290,DUNWOODY NORTH DRIVING CLUB,4435 DUNHAVEN ROAD,DUNWOODY,GEORGIA,USA,"4435 DUNHAVEN ROAD DUNWOODY, GEORGIA USA",,
4295,STARBUCKS COFFEE #17521,4441 ASHFORD DUNWOODY RD,DUNWOODY,GEORGIA,USA,"4441 ASHFORD DUNWOODY RD DUNWOODY, GEORGIA USA",,
4310,FAST FIX JEWELRY/WATCH REPAIR,4400 ASHFORD DUNWOODY RD 2225,DUNWOODY,GEORGIA,USA,"4400 ASHFORD DUNWOODY RD 2225 DUNWOODY, GEORGIA USA",,
4311,ALLEN EDMONDS,4505 ASHFORD DUNWOODY RD,DUNWOODY,GEORGIA,USA,"4505 ASHFORD DUNWOODY RD DUNWOODY, GEORGIA USA",,
4315,REDBOX AUTOMATED RETAIL LLC,5550 CHAMBLEE DUNWOODY RD,DUNWOODY,GEORGIA,USA,"5550 CHAMBLEE DUNWOODY RD DUNWOODY, GEORGIA USA",,
4316,GLOBAL FINANCIAL DISTRIBUTORS,1200 ASHWOOD PKWY 150,DUNWOODY,GEORGIA,USA,"1200 ASHWOOD PKWY 150 DUNWOODY, GEORGIA USA",,
4317,GLOBAL ONE FUNDING VII,1200 ASHWOOD PKWY 150,DUNWOODY,GEORGIA,USA,"1200 ASHWOOD PKWY 150 DUNWOODY, GEORGIA USA",,
4320,MICROSOFT CORPORATION,4400 ASHFORD DUNWOODY RD 1440,DUNWOODY,GEORGIA,USA,"4400 ASHFORD DUNWOODY RD 1440 DUNWOODY, GEORGIA USA",,
4323,"BROADLAND PROPERTY GROUP, LLC",4470 CHAMBLEE DUNWOODY RD 350,DUNWOODY,GEORGIA,USA,"4470 CHAMBLEE DUNWOODY RD 350 DUNWOODY, GEORGIA USA",,
4328,P.F. CHANG'S CHINA BISTRO,500 ASHWOOD PKWY,DUNWOODY,GEORGIA,USA,"500 ASHWOOD PKWY DUNWOODY, GEORGIA USA",,
